ENGLISH_**_http://dbpedia.org/resource/England	City	0.24891298559	Settlement	0.245821844576	PopulatedPlace	0.168240889888	Place	0.168240889888	Country	0.110171093611	Region	0.0999518354473	AdministrativeRegion	0.0999518354473	Bank	0.0531511445596	Company	0.0463786015419	Organisation	0.0454507435104		GOLD_STANDARD:	Place	PopulatedPlace
Nasdaq_**_http://dbpedia.org/resource/NASDAQ	Bank	0.261061283713	Company	0.217230695186	Organisation	0.198739798496	Agent	0.179981086447	Currency	0.159775147943	City	0.0597838213281	Town	0.0573237345665	Settlement	0.0464954712704	OfficeHolder	0.0398773670287	Person	0.0398773670287		GOLD_STANDARD:	
UTI Bank_**_http://dbpedia.org/resource/Axis_Bank	Bank	0.3514750325	Company	0.258313219163	Organisation	0.244337454632	Agent	0.226805287093	Currency	0.104445076674	City	0.0928137541352	OfficeHolder	0.0874041107749	Person	0.0874041107749	Country	0.0846207596188	Settlement	0.0789726631907		GOLD_STANDARD:	Agent	Organisation	Company	Bank
LONDON_**_http://dbpedia.org/resource/London	City	0.30087047855	Settlement	0.284613359997	PopulatedPlace	0.206172573278	Place	0.206172573278	AdministrativeRegion	0.143486937722	Region	0.143486937722	Country	0.131289566842	Town	0.0549011963861	Bank	0.0288240274946	Company	0.028660536746		GOLD_STANDARD:	Place	PopulatedPlace	Settlement
Lamonts_**_http://dbpedia.org/resource/Lamonts	Town	0.15326939331	Bank	0.10201311082	Company	0.0928377856485	Organisation	0.0902778511821	Agent	0.076037370681	Settlement	0.0477697206853	Currency	0.0444586924447	City	0.0428306186431	Region	0.0248558195012	AdministrativeRegion	0.0248558195012		GOLD_STANDARD:	Agent	Organisation	Company
DBRS_**_http://dbpedia.org/resource/Dominion_Bond_Rating_Service	Bank	0.269787288277	Company	0.223731082395	Organisation	0.202559834797	Agent	0.190998768431	Currency	0.180920134979	OfficeHolder	0.0737591095044	Person	0.0737591095044	Country	0.0685286496669	City	0.0648415076598	PopulatedPlace	0.0621611860806		GOLD_STANDARD:	
Dominion Bond Rating Service_**_http://dbpedia.org/resource/Dominion_Bond_Rating_Service	Bank	0.220153688358	Company	0.185030234118	Organisation	0.182280915914	Agent	0.170482161656	Town	0.126184689241	OfficeHolder	0.125357514102	Person	0.125357514102	City	0.118706347597	Country	0.107642609682	Settlement	0.0988545964853		GOLD_STANDARD:	
TOKYO_**_http://dbpedia.org/resource/Tokyo	City	0.216048302921	Settlement	0.20981397891	PopulatedPlace	0.164796287015	Place	0.164796287015	Country	0.125665714198	AdministrativeRegion	0.115228945564	Region	0.115228945564	Bank	0.0938955337663	Currency	0.0746810944143	Company	0.0745269216566		GOLD_STANDARD:	Place	PopulatedPlace	Settlement	City
HK$_**_http://dbpedia.org/resource/Hong_Kong_dollar	Bank	0.114756512659	Company	0.0976270359714	Organisation	0.0893584567504	Agent	0.0874537216365	OfficeHolder	0.0818729659485	Person	0.0818729659485	City	0.0345139856041	Country	0.0331951771491	PopulatedPlace	0.0268363054523	Place	0.0268363054523		GOLD_STANDARD:	Currency
Rangarajan_**_http://dbpedia.org/resource/C._Rangarajan	Currency	0.0818729659485	Company	0.0751386259936	Agent	0.0696787421815	Organisation	0.0673955956647	City	0.0670501125246	Bank	0.0651252405017	Country	0.0531508099265	Settlement	0.0492132160769	PopulatedPlace	0.0463312064674	Place	0.0463312064674		GOLD_STANDARD:	Agent	Person	OfficeHolder
KinderCare Learning Centers Inc_**_http://dbpedia.org/resource/KinderCare_Learning_Centers	Town	0.222934323983	Bank	0.17331885444	Organisation	0.1513634029	Company	0.146594195373	Agent	0.139394666525	City	0.113896177645	Settlement	0.10880683192	AdministrativeRegion	0.105713020203	Region	0.105713020203	PopulatedPlace	0.0963128556986		GOLD_STANDARD:	Agent	Organisation	Company
Ka Wah Bank_**_http://dbpedia.org/resource/Ka_Wah_Bank	Bank	0.300990374517	Currency	0.2373561669	Company	0.178695255684	Organisation	0.172348415887	Agent	0.166747023862	OfficeHolder	0.151643818911	Person	0.151643818911	City	0.0915504295396	Country	0.0740035660389	Settlement	0.0722175083297		GOLD_STANDARD:	Agent	Organisation	Company
Belgium_**_http://dbpedia.org/resource/Belgium	Country	0.158415185749	PopulatedPlace	0.0922161605696	Place	0.0922161605696	Currency	0.0611314961377	Bank	0.0589183238314	City	0.0486179849316	Settlement	0.0474221858548	AdministrativeRegion	0.0411023916642	Region	0.0411023916642	Company	0.0382323846186		GOLD_STANDARD:	Place	PopulatedPlace	Country
YMCA_**_http://dbpedia.org/resource/YMCA	Town	0.175730068564	City	0.0956715225739	Settlement	0.0775723031634	Bank	0.0773194669338	Organisation	0.0652899521097	Company	0.0652899521097	PopulatedPlace	0.0607251553168	Place	0.0607251553168	Agent	0.0555115793067	Country	0.0499499869321		GOLD_STANDARD:	Agent	Organisation
Ala_**_http://dbpedia.org/resource/Alabama	OfficeHolder	0.0496674333599	Person	0.0496674333599	Company	0.0445979680867	Bank	0.0389561042745	Agent	0.0383408106447	Organisation	0.0381759340295	Settlement	0.0290679870034	Town	0.0246455915009	PopulatedPlace	0.024551018124	Place	0.024551018124		GOLD_STANDARD:	
Ohio_**_http://dbpedia.org/resource/Ohio	Town	0.17293217025	City	0.0954789561398	Settlement	0.0772131828832	AdministrativeRegion	0.0751925442558	Region	0.0751925442558	PopulatedPlace	0.0649906817658	Place	0.0649906817658	Country	0.0557841559674	Organisation	0.0373042501363	Agent	0.0352152642538		GOLD_STANDARD:	
Fairview_**_http://dbpedia.org/resource/Fairview,_Texas	AdministrativeRegion	0.0847745460341	Region	0.0847745460341	Organisation	0.0724255374476	Company	0.062095084336	Agent	0.0608403175687	City	0.0497083694884	Settlement	0.0466915566555	PopulatedPlace	0.041714318997	Place	0.041714318997	Country	0.0284298782598		GOLD_STANDARD:	Place	PopulatedPlace	Settlement	Town
Bombay_**_http://dbpedia.org/resource/Mumbai	OfficeHolder	0.17164521032	Person	0.17164521032	Bank	0.113765762131	City	0.112508514594	Settlement	0.108077880169	Country	0.101150432882	PopulatedPlace	0.0955886098527	Place	0.0955886098527	Agent	0.0932205506666	Organisation	0.084503667506		GOLD_STANDARD:	Place	PopulatedPlace	Settlement	City
SWEDEN_**_http://dbpedia.org/resource/Sweden	City	0.247016385973	Settlement	0.240143810667	PopulatedPlace	0.190735366326	Place	0.190735366326	Country	0.142399394778	Region	0.136518159797	AdministrativeRegion	0.136518159797	Bank	0.119570801084	Company	0.111936631027	Organisation	0.104915272358		GOLD_STANDARD:	Place	PopulatedPlace	Country
Poland_**_http://dbpedia.org/resource/Poland	Country	0.222181303924	PopulatedPlace	0.132326950779	Place	0.132326950779	Settlement	0.0797522477777	Currency	0.0693447231335	Region	0.0639798730938	AdministrativeRegion	0.0639798730938	Bank	0.0614521376901	Organisation	0.0555233937054	Company	0.0534289824378		GOLD_STANDARD:	Place	PopulatedPlace	Country
TORONTO_**_http://dbpedia.org/resource/Toronto	Settlement	0.250959968228	City	0.243023414393	Place	0.184751336698	PopulatedPlace	0.184751336698	Country	0.127633090029	AdministrativeRegion	0.122717257418	Region	0.122717257418	Bank	0.111446787114	Company	0.110430976393	Organisation	0.10809829304		GOLD_STANDARD:	Place	PopulatedPlace	Settlement	City
HONG KONG_**_http://dbpedia.org/resource/Hong_Kong	City	0.315727492503	Settlement	0.306052712061	Place	0.216142213728	PopulatedPlace	0.216142213728	Currency	0.200138165014	AdministrativeRegion	0.155908754062	Region	0.155908754062	Country	0.121186369314	Company	0.0974831550988	Bank	0.0960995086013		GOLD_STANDARD:	Place	PopulatedPlace	Country
Warsaw_**_http://dbpedia.org/resource/Warsaw	Country	0.180481391153	PopulatedPlace	0.105688107674	Place	0.105688107674	Bank	0.0626495212153	Region	0.059275045686	AdministrativeRegion	0.059275045686	City	0.0575584519264	Town	0.0525548192482	Settlement	0.049001058108	Currency	0.044446232571		GOLD_STANDARD:	Place	PopulatedPlace	Settlement
Texas_**_http://dbpedia.org/resource/Texas	Town	0.157581724613	AdministrativeRegion	0.108288246044	Region	0.108288246044	City	0.075687925063	Settlement	0.0663534520524	Place	0.0646486496398	PopulatedPlace	0.0646486496398	Country	0.0601809899058	Organisation	0.0460199503535	Company	0.042731671869		GOLD_STANDARD:	
United States_**_http://dbpedia.org/resource/United_States	Town	0.118422375991	Country	0.103527238689	Region	0.0940245521165	AdministrativeRegion	0.0940245521165	PopulatedPlace	0.0861682086641	Place	0.0861682086641	City	0.0768006625211	Settlement	0.0731687034538	Bank	0.0517905124484	Organisation	0.0476904459652		GOLD_STANDARD:	Place	PopulatedPlace	Country
European_**_http://dbpedia.org/resource/European_Union	Country	0.206821528608	Place	0.111363510801	PopulatedPlace	0.111363510801	Bank	0.0889574632472	Company	0.0741724446386	Organisation	0.0714566400956	Agent	0.0626402065747	City	0.0541334259416	Settlement	0.0505741695626	Region	0.0468881328646		GOLD_STANDARD:	Place	PopulatedPlace	Country
WASHINGTON_**_http://dbpedia.org/resource/Washington,_D.C.	City	0.333375888168	Settlement	0.306213772102	PopulatedPlace	0.227509281265	Place	0.227509281265	AdministrativeRegion	0.173286729711	Region	0.173286729711	Country	0.146299849773	Company	0.0337574837146	Organisation	0.0331457669733	Agent	0.0308078750374		GOLD_STANDARD:	Place	PopulatedPlace	Settlement
Tokyo-Mitsubishi Bank_**_http://dbpedia.org/resource/The_Bank_of_Tokyo-Mitsubishi_UFJ	Bank	0.3407831904	Company	0.264174549276	Organisation	0.251093461666	Agent	0.230766156079	Currency	0.15463342028	City	0.095018896077	Settlement	0.0793362595923	Country	0.0769525121983	PopulatedPlace	0.0730446393382	Place	0.0730446393382		GOLD_STANDARD:	Agent	Organisation	Company	Bank
Seattle_**_http://dbpedia.org/resource/Seattle	City	0.0970254536904	Town	0.0816654443311	Settlement	0.0757434834568	PopulatedPlace	0.06609327746	Place	0.06609327746	Country	0.0645309833326	Organisation	0.0632999154906	Agent	0.0568602867208	Region	0.0532405097967	AdministrativeRegion	0.0532405097967		GOLD_STANDARD:	Place	PopulatedPlace	Settlement	City
GERMAN_**_http://dbpedia.org/resource/Germany	Settlement	0.315243169655	City	0.304374343374	PopulatedPlace	0.223525977927	Place	0.223525977927	AdministrativeRegion	0.156884806728	Region	0.156884806728	Country	0.119649084583	Bank	0.043858439489	Organisation	0.03692634296	Company	0.0366104237572		GOLD_STANDARD:	Place	PopulatedPlace	Country
Reuters_**_http://dbpedia.org/resource/Reuters	Bank	0.162024039679	Company	0.148414085304	Organisation	0.133079910727	Agent	0.119654532828	City	0.0799825296389	Country	0.0610350958316	Settlement	0.0599501784826	Currency	0.058401842447	Place	0.0567914980761	PopulatedPlace	0.0567914980761		GOLD_STANDARD:	Agent	Organisation	Company
Gazprom_**_http://dbpedia.org/resource/Gazprom	Company	0.193634097285	Organisation	0.172692694744	Agent	0.155714466026	Bank	0.124590131224	Country	0.0861937707369	Currency	0.068973466561	OfficeHolder	0.0666285264945	Person	0.0666285264945	Town	0.0508433165919	PopulatedPlace	0.0482509903313		GOLD_STANDARD:	Agent	Organisation	Company
Munich Re_**_http://dbpedia.org/resource/Munich_Re	Country	0.119626392416	City	0.0961244071047	Place	0.0918877905976	PopulatedPlace	0.0918877905976	Company	0.0829526221825	Organisation	0.0788091808584	Settlement	0.0755725720386	Agent	0.0728929743112	OfficeHolder	0.0706270477369	Person	0.0706270477369		GOLD_STANDARD:	Agent	Organisation	Company	Bank
S&P_**_http://dbpedia.org/resource/Standard_&_Poor's	Bank	0.169656727262	Company	0.158781541522	Organisation	0.144487428546	Agent	0.13473761623	Currency	0.1303937758	City	0.0410704039969	OfficeHolder	0.0379875258549	Person	0.0379875258549	Settlement	0.0246809103135	Country	0.0239126365444		GOLD_STANDARD:	Agent	Organisation	Company	Bank
DAX_**_http://dbpedia.org/resource/DAX	Bank	0.246944210452	Company	0.183539669137	Organisation	0.164987511748	Agent	0.148232540937	Currency	0.0996288913839	Country	0.0594729327636	PopulatedPlace	0.0418534322059	Place	0.0418534322059	City	0.0401139301321	Settlement	0.0329447143585		GOLD_STANDARD:	
NEW DELHI_**_http://dbpedia.org/resource/New_Delhi	Settlement	0.349111482768	City	0.33555948505	PopulatedPlace	0.262080867586	Place	0.262080867586	Country	0.184546879655	AdministrativeRegion	0.170286247219	Region	0.170286247219	Company	0.0882009468449	OfficeHolder	0.0863645391839	Person	0.0863645391839		GOLD_STANDARD:	Place	PopulatedPlace	Settlement	City
RAO Gazprom_**_http://dbpedia.org/resource/Gazprom	Company	0.219183620599	Organisation	0.1960230258	Agent	0.184327075948	Bank	0.163561201429	OfficeHolder	0.147693278009	Person	0.147693278009	Country	0.113847534031	PopulatedPlace	0.0934628052564	Place	0.0934628052564	City	0.0920034808699		GOLD_STANDARD:	Agent	Organisation	Company
RBI_**_http://dbpedia.org/resource/Reserve_Bank_of_India	Bank	0.13366204638	Company	0.0988411505634	OfficeHolder	0.0947933538664	Person	0.0947933538664	Agent	0.0922065831423	Organisation	0.0919714221674	Currency	0.0720823910716	City	0.0431928658808	Settlement	0.0407440829579	PopulatedPlace	0.0275622119334		GOLD_STANDARD:	Agent
India_**_http://dbpedia.org/resource/India	OfficeHolder	0.194853385106	Person	0.194853385106	City	0.171324995291	Settlement	0.139997185858	Bank	0.130101427164	Country	0.125365122187	PopulatedPlace	0.120937673104	Place	0.120937673104	Agent	0.110832014555	Company	0.107970460277		GOLD_STANDARD:	Place	PopulatedPlace	Country
NEW YORK_**_http://dbpedia.org/resource/New_York_City	Settlement	0.323596008686	City	0.311134399533	PopulatedPlace	0.239796103528	Place	0.239796103528	AdministrativeRegion	0.163420441917	Region	0.163420441917	Country	0.160250846823	Organisation	0.0603263104623	Company	0.0599071705766	Bank	0.0560255524996		GOLD_STANDARD:	Place	PopulatedPlace	Settlement	City
MONTGOMERY_**_http://dbpedia.org/resource/Montgomery,_Alabama	City	0.262404062208	Settlement	0.254715547227	PopulatedPlace	0.19062293531	Place	0.19062293531	Region	0.175872600543	AdministrativeRegion	0.175872600543	Country	0.120204552823	Town	0.107920803296	Company	0.0542013739428	Agent	0.0528366006601		GOLD_STANDARD:	Place	PopulatedPlace	Settlement
Russian Trading System_**_http://dbpedia.org/resource/Russian_Trading_System	Company	0.212455552181	Bank	0.207850165753	Organisation	0.196843013584	Country	0.178042874193	Agent	0.176258806439	PopulatedPlace	0.122566849423	Place	0.122566849423	City	0.0946850985303	AdministrativeRegion	0.0857889918102	Region	0.0857889918102		GOLD_STANDARD:	
LIBOR_**_http://dbpedia.org/resource/London_Interbank_Offered_Rate	Bank	0.220738810733	Currency	0.181739606825	Company	0.133128484978	Organisation	0.11721710786	Agent	0.115896380021	OfficeHolder	0.0397418938363	Person	0.0397418938363	Country	0.0252161182111	PopulatedPlace	0.013271342956	Place	0.013271342956		GOLD_STANDARD:	
IPO_**_http://dbpedia.org/resource/Intellectual_Property_Owners_Association	Bank	0.259329719938	Currency	0.24956468299	Company	0.236480613175	Organisation	0.215801589697	Agent	0.196694242438	City	0.0800072921818	Settlement	0.0642195760096	OfficeHolder	0.0596503636877	Person	0.0596503636877	Place	0.053599402818		GOLD_STANDARD:	
New Delhi_**_http://dbpedia.org/resource/New_Delhi	OfficeHolder	0.176365334752	Person	0.176365334752	City	0.160879952451	Settlement	0.140872271381	Country	0.133984532359	Place	0.1269091585	PopulatedPlace	0.1269091585	Bank	0.10633796976	Agent	0.0975101640631	Company	0.0933631410246		GOLD_STANDARD:	Place	PopulatedPlace	Settlement	City
Russian_**_http://dbpedia.org/resource/Russia	Country	0.149807993974	Company	0.088593796582	AdministrativeRegion	0.0883518482624	Region	0.0883518482624	PopulatedPlace	0.0882101827039	Place	0.0882101827039	Organisation	0.0837636027555	Agent	0.0683653769417	City	0.0360716213539	Settlement	0.0358908588517		GOLD_STANDARD:	Place	PopulatedPlace	Country
Indian_**_http://dbpedia.org/resource/India	OfficeHolder	0.258711013219	Person	0.258711013219	City	0.125017645979	Settlement	0.103198157198	Country	0.101426584231	PopulatedPlace	0.0957439828535	Place	0.0957439828535	Agent	0.0738810023189	Bank	0.0719760162259	Organisation	0.0575341689269		GOLD_STANDARD:	Place	PopulatedPlace	Country
MOSCOW_**_http://dbpedia.org/resource/Moscow	Settlement	0.287669827443	City	0.281644123261	Place	0.222941114434	PopulatedPlace	0.222941114434	Country	0.188064927574	Currency	0.0999237860561	Company	0.0823338357128	Organisation	0.0752180743648	Agent	0.0621088638934	Bank	0.0517616522552		GOLD_STANDARD:	
Gujarat_**_http://dbpedia.org/resource/Gujarat	OfficeHolder	0.151332369564	Person	0.151332369564	City	0.121641852925	Country	0.0891827282602	Settlement	0.0780275328885	PopulatedPlace	0.0750171744674	Place	0.0750171744674	Agent	0.0692823704296	Bank	0.0643500595339	Company	0.0641633463061		GOLD_STANDARD:	Place	PopulatedPlace	Settlement
Polish_**_http://dbpedia.org/resource/Poland	Country	0.183877844627	PopulatedPlace	0.114671383698	Place	0.114671383698	Settlement	0.0792291325635	City	0.0507137401862	Region	0.0445835749185	AdministrativeRegion	0.0445835749185	Currency	0.0392076725297	Organisation	0.0269187731586	Bank	0.0251320548344		GOLD_STANDARD:	Place	PopulatedPlace	Country
Wash_**_http://dbpedia.org/resource/Washington_(U.S._state)	Town	0.0752494004792	City	0.0752388637272	AdministrativeRegion	0.0715121792535	Region	0.0715121792535	Settlement	0.0636474569795	PopulatedPlace	0.0476756391707	Place	0.0476756391707	Agent	0.0410594500685	Organisation	0.0410292530306	Company	0.0410073137007		GOLD_STANDARD:	
Germany_**_http://dbpedia.org/resource/Germany	Country	0.173234088469	Bank	0.125440155683	PopulatedPlace	0.0945974809931	Place	0.0945974809931	Company	0.0680582625052	Organisation	0.0627962261009	Agent	0.0555731601725	Region	0.0510171864119	AdministrativeRegion	0.0510171864119	City	0.0430615911051		GOLD_STANDARD:	Place	PopulatedPlace	Country
Russia_**_http://dbpedia.org/resource/Russia	Country	0.198566941985	PopulatedPlace	0.122113632356	Place	0.122113632356	Company	0.10965966814	Organisation	0.099263352834	Region	0.0925006248641	AdministrativeRegion	0.0925006248641	Agent	0.0852655830695	Settlement	0.064433301868	City	0.0641230978291		GOLD_STANDARD:	Place	PopulatedPlace	Country
Akron_**_http://dbpedia.org/resource/Akron,_Ohio	Region	0.196473331817	AdministrativeRegion	0.196473331817	Town	0.10881736887	PopulatedPlace	0.0740471930145	Place	0.0740471930145	City	0.0680294129091	Settlement	0.0659738013933	Organisation	0.059311626525	Bank	0.0555963990242	Agent	0.0543033228893		GOLD_STANDARD:	Place	PopulatedPlace	Settlement	City
European Union_**_http://dbpedia.org/resource/European_Union	Country	0.215929225789	PopulatedPlace	0.123401435516	Place	0.123401435516	Bank	0.105913823086	Organisation	0.10263721296	Company	0.0999157569916	Agent	0.0914885095165	Town	0.079133776337	City	0.0702385947264	Settlement	0.0652950390907		GOLD_STANDARD:	Place	PopulatedPlace	Country
GMT_**_http://dbpedia.org/resource/Greenwich_Mean_Time	Currency	0.0623556385454	City	0.0605360113451	Bank	0.0586615839306	Settlement	0.0501935002256	Company	0.0444958416798	Organisation	0.043251992831	PopulatedPlace	0.0404234809324	Place	0.0404234809324	Agent	0.0368965966754	Country	0.0348875586318		GOLD_STANDARD:	
