THE HAGUE_**_http://dbpedia.org/resource/The_Hague	City	0.181609788	Settlement	0.179706614038	Broadcaster	0.170343450963	BroadcastNetwork	0.170343450963	Park	0.150284344024	PopulatedPlace	0.146529477954	Place	0.141260907462	Politician	0.133688508051	Country	0.127545677006	Town	0.106015470985		GOLD_STANDARD:	Place	PopulatedPlace	Settlement	City
JOHANNESBURG_**_http://dbpedia.org/resource/Johannesburg	City	0.278066817934	Broadcaster	0.246406114088	BroadcastNetwork	0.246406114088	Settlement	0.240077766853	Lake	0.214069488731	PopulatedPlace	0.201681151442	Place	0.194594301141	Country	0.181838249964	HistoricPlace	0.164377560384	AdministrativeRegion	0.123103334835		GOLD_STANDARD:	Place	PopulatedPlace	Settlement
Liaoning_**_http://dbpedia.org/resource/Liaoning	Broadcaster	0.327350937552	BroadcastNetwork	0.327350937552	HistoricPlace	0.21736552571	Lake	0.203176714294	AdministrativeRegion	0.200132583242	Region	0.200132583242	Town	0.174801702374	Country	0.17316326551	PopulatedPlace	0.171408456145	Place	0.168433031876		GOLD_STANDARD:	Place	PopulatedPlace
New Zealand_**_http://dbpedia.org/resource/New_Zealand	Broadcaster	0.494626213518	BroadcastNetwork	0.494626213518	AdministrativeRegion	0.300585555889	Region	0.300585555889	Island	0.227373953737	Continent	0.226670367124	PopulatedPlace	0.204553928393	Country	0.20408154124	Place	0.198011645829	Park	0.189674431488		GOLD_STANDARD:	Place	PopulatedPlace	Country
Kiev_**_http://dbpedia.org/resource/Kiev	HistoricPlace	0.569027847216	Continent	0.303673709332	Country	0.274274542506	Lake	0.238983905632	PopulatedPlace	0.209171086744	Place	0.205977720877	City	0.178465136697	Region	0.176862301557	AdministrativeRegion	0.176862301557	Settlement	0.176316703904		GOLD_STANDARD:	Place	PopulatedPlace	Settlement	City
N.J._**_http://dbpedia.org/resource/New_Jersey	AdministrativeRegion	0.253620968935	Region	0.253620968935	Park	0.170839517483	Continent	0.162313376355	City	0.15969803729	Broadcaster	0.157583397509	BroadcastNetwork	0.157583397509	Town	0.149619350467	PopulatedPlace	0.144503326965	Settlement	0.143776447825		GOLD_STANDARD:	
BULGARIA_**_http://dbpedia.org/resource/Bulgaria	HistoricPlace	0.269579534519	Continent	0.269052370551	Country	0.244449577153	PopulatedPlace	0.196342312997	Place	0.190478754378	Settlement	0.184496172668	Broadcaster	0.181066027839	BroadcastNetwork	0.181066027839	City	0.177521681587	Region	0.126924213728		GOLD_STANDARD:	Place	PopulatedPlace	Country
OSLO_**_http://dbpedia.org/resource/Oslo	City	0.252416946662	Settlement	0.221681547366	Broadcaster	0.202832728249	BroadcastNetwork	0.202832728249	PopulatedPlace	0.177831877396	HistoricPlace	0.174701948107	Place	0.170487838124	Country	0.148484599186	Continent	0.144821653366	Lake	0.128524446267		GOLD_STANDARD:	Place	PopulatedPlace	Settlement
Kan_**_http://dbpedia.org/resource/Naoto_Kan	OfficeHolder	0.337434144458	Person	0.283918549877	HistoricPlace	0.214283408562	Broadcaster	0.177062909593	BroadcastNetwork	0.177062909593	Language	0.146922812911	River	0.140117373626	Stream	0.140117373626	Agent	0.125898334752	Island	0.123347475265		GOLD_STANDARD:	Agent	Person	OfficeHolder
Austrian_**_http://dbpedia.org/resource/Austria	Country	0.303883527493	Continent	0.28541146095	HistoricPlace	0.28239940533	PopulatedPlace	0.20345239555	Place	0.197138060117	OfficeHolder	0.184068772117	Lake	0.170270755551	Broadcaster	0.166487013282	BroadcastNetwork	0.166487013282	Settlement	0.156693498898		GOLD_STANDARD:	Place	PopulatedPlace	Country
Cambodia_**_http://dbpedia.org/resource/Cambodia	Country	0.246830087808	Broadcaster	0.240440057152	BroadcastNetwork	0.240440057152	River	0.195854959474	Stream	0.195854959474	HistoricPlace	0.188646897275	Politician	0.180306533556	Continent	0.178950459925	PopulatedPlace	0.175508108795	Place	0.173283746146		GOLD_STANDARD:	Place	PopulatedPlace	Country
Steyr_**_http://dbpedia.org/resource/Steyr	OfficeHolder	0.167709486436	Person	0.131410847222	Country	0.120575261287	HistoricPlace	0.103802841347	Lake	0.100327829836	Continent	0.0986035463003	PopulatedPlace	0.0953034748126	Place	0.0931199888764	Settlement	0.0917387355552	Broadcaster	0.0906517541931		GOLD_STANDARD:	Place	PopulatedPlace	Settlement
China_**_http://dbpedia.org/resource/People's_Republic_of_China	Continent	0.432614638043	Broadcaster	0.389156459596	BroadcastNetwork	0.389156459596	HistoricPlace	0.313730814439	Country	0.280445930675	Region	0.213081947275	AdministrativeRegion	0.213081947275	PopulatedPlace	0.208132769611	Place	0.203223708757	GovernmentAgency	0.158168078008		GOLD_STANDARD:	
Stephenville_**_http://dbpedia.org/resource/Stephenville_International_Airport	Lake	0.310949384442	ArchitecturalStructure	0.249477820173	Airport	0.249477820173	Infrastructure	0.249477820173	Politician	0.213956837934	Island	0.210919247558	Park	0.193791447014	Town	0.120178271921	AdministrativeRegion	0.118999784241	Region	0.118999784241		GOLD_STANDARD:	Place	ArchitecturalStructure	Infrastructure	Airport
Madagascar_**_http://dbpedia.org/resource/Madagascar	Country	0.234042926641	Island	0.219120659273	HistoricPlace	0.204983318635	Lake	0.193869685096	Continent	0.174575003278	Park	0.163942844504	PopulatedPlace	0.161065978672	Place	0.157226076885	Broadcaster	0.15356880265	BroadcastNetwork	0.15356880265		GOLD_STANDARD:	Place	PopulatedPlace	Country
Longyearbyen_**_http://dbpedia.org/resource/Longyearbyen	Lake	0.256671858699	Broadcaster	0.202304443866	BroadcastNetwork	0.202304443866	Continent	0.185585256996	Country	0.182482029039	Island	0.180890512536	PopulatedPlace	0.167032111377	HistoricPlace	0.164136457483	Place	0.163299847814	Settlement	0.157457227467		GOLD_STANDARD:	Place	PopulatedPlace	Settlement
ROMANIAN_**_http://dbpedia.org/resource/Romania	Country	0.207416528301	HistoricPlace	0.186234304741	Settlement	0.170138891535	PopulatedPlace	0.168738039149	City	0.166607047797	Place	0.162507100192	Continent	0.160986596919	Broadcaster	0.145326500615	BroadcastNetwork	0.145326500615	Language	0.127374483255		GOLD_STANDARD:	Place	PopulatedPlace	Country
Montserrat_**_http://dbpedia.org/resource/Montserrat	Island	0.221425696485	Language	0.200323662212	Lake	0.194661146214	Park	0.183332079316	Country	0.169534513794	Town	0.151563588295	Politician	0.12521217081	PopulatedPlace	0.124859908647	Place	0.122362918583	ArchitecturalStructure	0.11791028024		GOLD_STANDARD:	Place	PopulatedPlace	Country
Moscow_**_http://dbpedia.org/resource/Moscow	HistoricPlace	0.750746183193	Continent	0.33448379019	Country	0.266192657968	Lake	0.227427104249	PopulatedPlace	0.208408315164	Place	0.206230836928	City	0.192010842323	Settlement	0.182495507134	Broadcaster	0.17450677645	BroadcastNetwork	0.17450677645		GOLD_STANDARD:	
Plymouth_**_http://dbpedia.org/resource/Plymouth,_Montserrat	Park	0.279979736248	AdministrativeRegion	0.251253428839	Region	0.251253428839	Island	0.214614256799	Lake	0.20220871462	ArchitecturalStructure	0.197442863705	Airport	0.197442863705	Infrastructure	0.197442863705	Politician	0.183065080948	Town	0.16289549282		GOLD_STANDARD:	Place	PopulatedPlace	Settlement	Town
Christchurch_**_http://dbpedia.org/resource/Christchurch	Broadcaster	0.227888943564	BroadcastNetwork	0.227888943564	Politician	0.221418587877	Park	0.221287899274	Island	0.213549389481	City	0.212102828494	Town	0.211032810047	ArchitecturalStructure	0.204456064704	Airport	0.204456064704	Infrastructure	0.204456064704		GOLD_STANDARD:	Place	PopulatedPlace	Settlement
Manama_**_http://dbpedia.org/resource/Manama	HistoricPlace	0.238345962978	City	0.225562449931	Airline	0.213534852301	Settlement	0.205292860821	Lake	0.188654213505	PopulatedPlace	0.182787509872	Place	0.181977085467	NaturalPlace	0.181514388143	BodyOfWater	0.181514388143	River	0.179134446356		GOLD_STANDARD:	Place	PopulatedPlace	Settlement
Nelson_**_http://dbpedia.org/resource/Nelson,_New_Zealand	Politician	0.289729251686	Park	0.214133057146	ArchitecturalStructure	0.213359056775	Airport	0.213359056775	Infrastructure	0.213359056775	Person	0.184965409304	OfficeHolder	0.1818856141	Island	0.168060820464	Town	0.160645144749	Language	0.157565820851		GOLD_STANDARD:	Place	PopulatedPlace	Settlement
Jersey_**_http://dbpedia.org/resource/Jersey	AdministrativeRegion	0.302652370526	Region	0.302652370526	Park	0.28256306431	Island	0.216558705225	Lake	0.206507664672	Continent	0.192474042493	Town	0.179487656907	PopulatedPlace	0.138502927221	Place	0.137242275849	Broadcaster	0.136987742573		GOLD_STANDARD:	Place	PopulatedPlace	Country
Romanian_**_http://dbpedia.org/resource/Romania	Country	0.365978093374	HistoricPlace	0.345105385677	Continent	0.293450454742	Language	0.251912941121	PopulatedPlace	0.222144844458	Place	0.215809920173	Broadcaster	0.214125550051	BroadcastNetwork	0.214125550051	Lake	0.188507582754	AdministrativeRegion	0.14744662562		GOLD_STANDARD:	Place	PopulatedPlace	Country
LINZ_**_http://dbpedia.org/resource/Linz	Island	0.166893657447	Broadcaster	0.150804848946	BroadcastNetwork	0.150804848946	Park	0.150792412788	GovernmentAgency	0.135438126906	OfficeHolder	0.11615435674	Person	0.108594675604	Agent	0.103726860177	Country	0.0990308083606	Town	0.0976786320646		GOLD_STANDARD:	Place	PopulatedPlace	Settlement
North West_**_http://dbpedia.org/resource/North_West_(South_African_province)	Park	0.325082553194	Island	0.290187479495	Continent	0.269344461754	Lake	0.175127168064	AdministrativeRegion	0.157334270685	Region	0.157334270685	Town	0.133147216325	Politician	0.119809666735	GovernmentAgency	0.106810101877	Country	0.10509189359		GOLD_STANDARD:	Place	PopulatedPlace	Settlement
Ieng Mouly_**_http://dbpedia.org/resource/Ieng_Mouly	OfficeHolder	0.311633941187	Person	0.294756901882	Politician	0.210371705357	River	0.194947598847	Stream	0.194947598847	Town	0.178872693083	Language	0.17634543829	NaturalPlace	0.168351894284	BodyOfWater	0.168351894284	Airline	0.141929809856		GOLD_STANDARD:	Agent	Person
Lake Maracaibo_**_http://dbpedia.org/resource/Lake_Maracaibo	Park	0.40597290315	Island	0.275032994217	ArchitecturalStructure	0.230205496336	Airport	0.230205496336	Infrastructure	0.230205496336	HistoricPlace	0.201355550749	Town	0.186687251088	Settlement	0.166147301105	Place	0.16593177586	City	0.165465641071		GOLD_STANDARD:	Place	NaturalPlace	BodyOfWater	Lake
Television New Zealand_**_http://dbpedia.org/resource/Television_New_Zealand	Region	0.27487613807	AdministrativeRegion	0.27487613807	Island	0.273936404601	Broadcaster	0.246964797907	BroadcastNetwork	0.246964797907	Park	0.215699240764	Country	0.207069633145	Continent	0.203785827855	PopulatedPlace	0.203596526207	Language	0.20327603241		GOLD_STANDARD:	Agent	Organisation	Broadcaster	BroadcastNetwork
Ireland_**_http://dbpedia.org/resource/Republic_of_Ireland	Continent	0.426097015494	Country	0.244912883387	ArchitecturalStructure	0.242562219597	Airport	0.242562219597	Infrastructure	0.242562219597	Island	0.181284882331	Broadcaster	0.174767393514	BroadcastNetwork	0.174767393514	Language	0.172796108335	AdministrativeRegion	0.167415927908		GOLD_STANDARD:	Place	PopulatedPlace	Country
Dallas_**_http://dbpedia.org/resource/Dallas	ArchitecturalStructure	0.286704955658	Airport	0.286704955658	Infrastructure	0.286704955658	Lake	0.246501365345	AdministrativeRegion	0.220530395333	Region	0.220530395333	Politician	0.165130875442	City	0.140398602426	Settlement	0.121497537386	Continent	0.11352455371		GOLD_STANDARD:	Place	PopulatedPlace	Settlement	City
Rottweiler_**_http://dbpedia.org/resource/Rottweiler	Park	0.164181773638	Politician	0.136452627096	Language	0.112356315284	Person	0.0976801643252	OfficeHolder	0.0965078027917	Island	0.0898893169019	Town	0.0755593133719	HistoricPlace	0.0688067610474	ArchitecturalStructure	0.065726359043	Airport	0.065726359043		GOLD_STANDARD:	
Port Louis_**_http://dbpedia.org/resource/Port_Louis	Park	0.318683909124	Lake	0.244998708684	Politician	0.239506629618	Island	0.212591997431	ArchitecturalStructure	0.199466638107	Airport	0.199466638107	Infrastructure	0.199466638107	GovernmentAgency	0.151682127901	Person	0.142425188684	Airline	0.140068213521		GOLD_STANDARD:	Place	PopulatedPlace	Settlement	City
KATHMANDU_**_http://dbpedia.org/resource/Kathmandu	City	0.261359957854	Settlement	0.229069754471	River	0.2185664929	Stream	0.2185664929	Broadcaster	0.210616228065	BroadcastNetwork	0.210616228065	NaturalPlace	0.188416920931	BodyOfWater	0.188416920931	PopulatedPlace	0.181379178831	Place	0.1778335421		GOLD_STANDARD:	Place	PopulatedPlace	Settlement	City
Ukraine_**_http://dbpedia.org/resource/Ukraine	HistoricPlace	0.582392589146	Continent	0.443180282533	Country	0.355636041418	PopulatedPlace	0.225385998198	Place	0.220869887459	Region	0.214533631235	AdministrativeRegion	0.214533631235	Broadcaster	0.196108676558	BroadcastNetwork	0.196108676558	Lake	0.171117103771		GOLD_STANDARD:	Place	PopulatedPlace	Country
Norwegian_**_http://dbpedia.org/resource/Norway	Country	0.28515785053	HistoricPlace	0.225497320695	Continent	0.221987001838	Language	0.1997463966	PopulatedPlace	0.191197038542	Place	0.184928853528	OfficeHolder	0.173699068973	Broadcaster	0.173209999278	BroadcastNetwork	0.173209999278	Lake	0.142218978996		GOLD_STANDARD:	Place	PopulatedPlace	Country
Celsius_**_http://dbpedia.org/resource/Celsius	Broadcaster	0.152127497307	BroadcastNetwork	0.152127497307	HistoricPlace	0.136829130403	Continent	0.12328468594	Language	0.10785044294	Country	0.0727547866646	Island	0.0684528163257	Lake	0.066062180489	PopulatedPlace	0.0647140391497	Place	0.0642053509115		GOLD_STANDARD:	
JERUSALEM_**_http://dbpedia.org/resource/Jerusalem	HistoricPlace	0.293941532061	City	0.276912830756	Settlement	0.245840785354	Broadcaster	0.210727301777	BroadcastNetwork	0.210727301777	PopulatedPlace	0.209958812495	Place	0.202705445128	Country	0.189487630682	Region	0.16868786894	AdministrativeRegion	0.16868786894		GOLD_STANDARD:	Place	PopulatedPlace	Settlement	City
Tel Aviv_**_http://dbpedia.org/resource/Tel_Aviv	OfficeHolder	0.198592207894	Airline	0.197493124061	Person	0.192565481753	Continent	0.181882741276	Company	0.141904183078	Agent	0.139587294243	River	0.117274368414	Stream	0.117274368414	Park	0.114632292585	Politician	0.113575451641		GOLD_STANDARD:	Place	PopulatedPlace	Settlement
Garhi Habibullah_**_http://dbpedia.org/resource/Garhi_Habibullah	River	0.43811392346	Stream	0.43811392346	NaturalPlace	0.361408036788	BodyOfWater	0.361408036788	Airline	0.16353244916	Broadcaster	0.156188733722	BroadcastNetwork	0.156188733722	OfficeHolder	0.149896726639	Person	0.149717346566	Town	0.148073114144		GOLD_STANDARD:	Place	PopulatedPlace	Settlement	Town
Punjab_**_http://dbpedia.org/resource/Punjab,_Pakistan	River	0.442158393306	Stream	0.442158393306	NaturalPlace	0.368430931902	BodyOfWater	0.368430931902	Region	0.240392090618	AdministrativeRegion	0.240392090618	Country	0.197083120652	Town	0.190581134166	Place	0.17712196158	PopulatedPlace	0.174099472171		GOLD_STANDARD:	Place	PopulatedPlace	Settlement
Channel Islands_**_http://dbpedia.org/resource/Channel_Islands	Park	0.418082740711	Island	0.384369102035	Lake	0.231085820797	Broadcaster	0.193861514634	BroadcastNetwork	0.193861514634	Language	0.181949175323	Town	0.133410006487	Politician	0.127328824313	Continent	0.123646165592	ArchitecturalStructure	0.119663369233		GOLD_STANDARD:	
Chenab_**_http://dbpedia.org/resource/Chenab_River	River	0.322387234416	Stream	0.322387234416	NaturalPlace	0.279562985322	BodyOfWater	0.279562985322	Lake	0.193914487133	Town	0.183802103398	Country	0.138420896151	Broadcaster	0.137530812415	BroadcastNetwork	0.137530812415	Region	0.126931642105		GOLD_STANDARD:	
CAIRO_**_http://dbpedia.org/resource/Cairo	City	0.287834119442	Settlement	0.249638747659	HistoricPlace	0.237809669514	Broadcaster	0.216020075209	BroadcastNetwork	0.216020075209	PopulatedPlace	0.194781877121	Place	0.187479544161	Country	0.152837597115	Company	0.143274709058	Region	0.136826333839		GOLD_STANDARD:	Place	PopulatedPlace	Settlement	City
Kashmir_**_http://dbpedia.org/resource/Kashmir	River	0.405561252522	Stream	0.405561252522	NaturalPlace	0.327054003679	BodyOfWater	0.327054003679	Broadcaster	0.225930348894	BroadcastNetwork	0.225930348894	Region	0.22574606595	AdministrativeRegion	0.22574606595	HistoricPlace	0.198563401376	Country	0.177564143072		GOLD_STANDARD:	Place	PopulatedPlace
MANAMA_**_http://dbpedia.org/resource/Manama	City	0.276273528263	Settlement	0.233432911916	Broadcaster	0.19257033461	BroadcastNetwork	0.19257033461	PopulatedPlace	0.180527295625	Place	0.174308964859	Company	0.172979538162	Airline	0.171115542025	Country	0.141289608423	HistoricPlace	0.111851027		GOLD_STANDARD:	Place	PopulatedPlace	Settlement
PORT LOUIS_**_http://dbpedia.org/resource/Port_Louis	City	0.252230857383	Settlement	0.208852950605	Lake	0.169012776367	PopulatedPlace	0.137215835277	Place	0.132360280645	Broadcaster	0.128598304225	BroadcastNetwork	0.128598304225	AdministrativeRegion	0.123821536512	Region	0.123821536512	HistoricPlace	0.100107035147		GOLD_STANDARD:	Place	PopulatedPlace	Settlement	City
Muzaffarabad_**_http://dbpedia.org/resource/Muzaffarabad	River	0.321772412435	Stream	0.321772412435	NaturalPlace	0.277446562523	BodyOfWater	0.277446562523	Broadcaster	0.173245118133	BroadcastNetwork	0.173245118133	City	0.165282135507	Town	0.163737742181	Settlement	0.1618665547	Lake	0.144469012789		GOLD_STANDARD:	Place	PopulatedPlace	Settlement	City
Ecuador_**_http://dbpedia.org/resource/Ecuador	Lake	0.356296061941	Country	0.309599189072	Continent	0.243266302051	HistoricPlace	0.227963082366	PopulatedPlace	0.194027256704	Place	0.190868663486	Island	0.182304823905	Broadcaster	0.179761702253	BroadcastNetwork	0.179761702253	AdministrativeRegion	0.167774442563		GOLD_STANDARD:	Place	PopulatedPlace	Country
Lahore_**_http://dbpedia.org/resource/Lahore	River	0.346761587672	Stream	0.346761587672	NaturalPlace	0.300359011442	BodyOfWater	0.300359011442	Region	0.201629546354	AdministrativeRegion	0.201629546354	City	0.198467597768	Settlement	0.190950721991	Town	0.188402771686	HistoricPlace	0.18557817558		GOLD_STANDARD:	Place	PopulatedPlace	Settlement	City
Moslem_**_http://dbpedia.org/resource/Islam	HistoricPlace	0.190816771835	Continent	0.184414467684	River	0.182864908575	Stream	0.182864908575	Country	0.164740710616	Language	0.161063644512	NaturalPlace	0.1595848246	BodyOfWater	0.1595848246	Airline	0.15763561808	Broadcaster	0.123293529747		GOLD_STANDARD:	
Mauritian_**_http://dbpedia.org/resource/Mauritius	Country	0.242392990863	Island	0.186332632151	Language	0.184534714611	River	0.172988088238	Stream	0.172988088238	NaturalPlace	0.170722713753	BodyOfWater	0.170722713753	PopulatedPlace	0.169591139958	Place	0.166218696453	Lake	0.163926590299		GOLD_STANDARD:	Place	PopulatedPlace	Country
TOKYO_**_http://dbpedia.org/resource/Tokyo	City	0.285987987643	Broadcaster	0.276258456858	BroadcastNetwork	0.276258456858	Settlement	0.248515841897	HistoricPlace	0.21461785476	PopulatedPlace	0.202088529233	Place	0.194332489146	Continent	0.183738153834	Country	0.168376183373	OfficeHolder	0.137739622663		GOLD_STANDARD:	Place	PopulatedPlace	Settlement	City
U.S._**_http://dbpedia.org/resource/United_States	Continent	0.435540574343	Country	0.277136454649	GovernmentAgency	0.25178217361	Region	0.224901591452	AdministrativeRegion	0.224901591452	Broadcaster	0.196483130585	BroadcastNetwork	0.196483130585	HistoricPlace	0.195468154794	Organisation	0.177485649067	PopulatedPlace	0.174918915805		GOLD_STANDARD:	Place	PopulatedPlace	Country
VIENNA_**_http://dbpedia.org/resource/Vienna	City	0.266800398955	HistoricPlace	0.231122049638	Settlement	0.227635105505	Broadcaster	0.190807418938	BroadcastNetwork	0.190807418938	PopulatedPlace	0.174330719961	Place	0.16846929198	Country	0.140413151898	Continent	0.126938211862	Lake	0.1258647852		GOLD_STANDARD:	Place	PopulatedPlace	Settlement
Italy_**_http://dbpedia.org/resource/Italy	Continent	0.528311895424	Country	0.294045736566	Broadcaster	0.202548789537	BroadcastNetwork	0.202548789537	PopulatedPlace	0.187306761372	Place	0.181036292409	Lake	0.180428735059	AdministrativeRegion	0.174109146303	Region	0.174109146303	HistoricPlace	0.146060360465		GOLD_STANDARD:	Place	PopulatedPlace	Country
Linz_**_http://dbpedia.org/resource/Linz	Lake	0.285476567437	Continent	0.213401917177	OfficeHolder	0.213185111537	HistoricPlace	0.205880075054	Person	0.18685111104	Country	0.159320904313	PopulatedPlace	0.143072301566	Settlement	0.142658381499	Place	0.141160453387	City	0.124819342519		GOLD_STANDARD:	Place	PopulatedPlace	Settlement
MONTPELIER_**_http://dbpedia.org/resource/Montpelier,_Vermont	City	0.219181303149	Region	0.189953784093	AdministrativeRegion	0.189953784093	Settlement	0.182335328632	Broadcaster	0.143927781469	BroadcastNetwork	0.143927781469	PopulatedPlace	0.140739096781	Place	0.136344886827	Town	0.121552009125	Park	0.102866321221		GOLD_STANDARD:	Place	PopulatedPlace	Settlement	City
Amtrak_**_http://dbpedia.org/resource/Amtrak	Park	0.177725051732	Organisation	0.177594825312	GovernmentAgency	0.175481774981	AdministrativeRegion	0.152124296214	Region	0.152124296214	Airline	0.150915352075	HistoricPlace	0.144672124324	Company	0.138544160057	Agent	0.130335879851	Politician	0.115735774317		GOLD_STANDARD:	Agent	Organisation
Israel_**_http://dbpedia.org/resource/Israel	HistoricPlace	0.337263387117	Continent	0.27937987553	Country	0.237510325224	Region	0.205789054018	AdministrativeRegion	0.205789054018	PopulatedPlace	0.168662140582	Place	0.166793246607	River	0.165300170246	Stream	0.165300170246	NaturalPlace	0.145513682817		GOLD_STANDARD:	Place	PopulatedPlace	Country
ISLAMABAD_**_http://dbpedia.org/resource/Islamabad	City	0.266893368464	River	0.262628700892	Stream	0.262628700892	Settlement	0.23187697193	NaturalPlace	0.221175622874	BodyOfWater	0.221175622874	Broadcaster	0.211940864678	BroadcastNetwork	0.211940864678	PopulatedPlace	0.197130112698	Place	0.193859672538		GOLD_STANDARD:	Place	PopulatedPlace	Settlement	City
Britain_**_http://dbpedia.org/resource/United_Kingdom	Continent	0.540757901086	Country	0.290578322601	HistoricPlace	0.270680489316	Broadcaster	0.258559992217	BroadcastNetwork	0.258559992217	Language	0.227290736186	AdministrativeRegion	0.223077796142	Region	0.223077796142	PopulatedPlace	0.20511424376	Place	0.199088174416		GOLD_STANDARD:	Place	PopulatedPlace	Country
Venezuela_**_http://dbpedia.org/resource/Venezuela	HistoricPlace	0.39145378336	Lake	0.367371647499	Country	0.318338578118	Continent	0.274267192187	PopulatedPlace	0.200318771434	Place	0.198204110454	AdministrativeRegion	0.197811390447	Region	0.197811390447	Island	0.160860491377	Broadcaster	0.160169706837		GOLD_STANDARD:	Place	PopulatedPlace	Country
Nigeria_**_http://dbpedia.org/resource/Nigeria	Continent	0.292349784054	Country	0.267779030611	Broadcaster	0.187753528582	BroadcastNetwork	0.187753528582	PopulatedPlace	0.186211961567	Place	0.181452780834	AdministrativeRegion	0.167022443012	Region	0.167022443012	HistoricPlace	0.163939137798	Lake	0.138066748786		GOLD_STANDARD:	Place	PopulatedPlace	Country
France_**_http://dbpedia.org/resource/France	Continent	0.534179059869	Country	0.284048368701	Broadcaster	0.235319651847	BroadcastNetwork	0.235319651847	Language	0.195771094276	HistoricPlace	0.188258980948	PopulatedPlace	0.182292834497	Place	0.176228970361	Lake	0.167740015827	AdministrativeRegion	0.155146108621		GOLD_STANDARD:	Place	PopulatedPlace	Country
Public Transport Corporation_**_http://dbpedia.org/resource/Public_Transport_Corporation	GovernmentAgency	0.344710282319	Park	0.258653879509	Organisation	0.219250474561	Broadcaster	0.176610165881	BroadcastNetwork	0.176610165881	Agent	0.173595659425	Island	0.124839894616	Company	0.11964168792	Politician	0.101257962747	Lake	0.10063288723		GOLD_STANDARD:	Agent
Cairo_**_http://dbpedia.org/resource/Cairo	Airline	0.261173871143	HistoricPlace	0.223020400509	Company	0.21398710641	City	0.191766139259	Lake	0.186915947644	Settlement	0.176618687732	PopulatedPlace	0.158426805022	Place	0.156153906396	Country	0.15527700205	Continent	0.146180385378		GOLD_STANDARD:	Place	PopulatedPlace	Settlement	City
Vanderbijlpark_**_http://dbpedia.org/resource/Vanderbijlpark	Lake	0.235828785658	Settlement	0.149347002273	HistoricPlace	0.145969162569	NaturalPlace	0.143931138827	BodyOfWater	0.143931138827	OfficeHolder	0.143616369471	Town	0.142489168476	Park	0.135791974385	Continent	0.134585640632	PopulatedPlace	0.134197261922		GOLD_STANDARD:	Place	PopulatedPlace	Settlement
Egypt_**_http://dbpedia.org/resource/Egypt	Continent	0.316964580273	Country	0.282996472825	HistoricPlace	0.278905378381	Airline	0.234161045837	Broadcaster	0.219002284792	BroadcastNetwork	0.219002284792	PopulatedPlace	0.194174854358	Company	0.192000347154	Place	0.190264698669	Region	0.178162528116		GOLD_STANDARD:	Place	PopulatedPlace	Country
Preston_**_http://dbpedia.org/resource/Preston	Politician	0.329803059087	ArchitecturalStructure	0.294562927123	Airport	0.294562927123	Infrastructure	0.294562927123	Park	0.244226009982	AdministrativeRegion	0.13487675229	Region	0.13487675229	Island	0.131222258651	Town	0.124762735312	Person	0.123187584943		GOLD_STANDARD:	
Venezuelan_**_http://dbpedia.org/resource/Venezuela	HistoricPlace	0.38325696108	Lake	0.336512441417	Country	0.307641983407	PopulatedPlace	0.190373993884	AdministrativeRegion	0.189106832595	Region	0.189106832595	Place	0.187864902816	Language	0.157885137668	Continent	0.142912514771	Broadcaster	0.141390600935		GOLD_STANDARD:	Place	PopulatedPlace	Country
Dalian_**_http://dbpedia.org/resource/Dalian	Broadcaster	0.299766534328	BroadcastNetwork	0.299766534328	Lake	0.214518533015	Continent	0.203094627061	Region	0.168849225627	AdministrativeRegion	0.168849225627	PopulatedPlace	0.16511039861	HistoricPlace	0.163299401514	Settlement	0.162920317778	Place	0.161742166659		GOLD_STANDARD:	Place	PopulatedPlace	Settlement	City
Overseas Development Administration_**_http://dbpedia.org/resource/Department_for_International_Development	GovernmentAgency	0.359507735674	Broadcaster	0.217005742226	BroadcastNetwork	0.217005742226	Organisation	0.195125206624	Park	0.184445397307	Agent	0.164809399228	Language	0.129108034014	Continent	0.123698012808	Country	0.11632153393	Company	0.113368234032		GOLD_STANDARD:	Agent	Organisation	GovernmentAgency
Grand Rapids_**_http://dbpedia.org/resource/Grand_Rapids,_Michigan	Lake	0.429087845073	Park	0.389108968341	Island	0.196874629797	Town	0.189748273849	ArchitecturalStructure	0.186191295361	Airport	0.186191295361	Infrastructure	0.186191295361	NaturalPlace	0.18095965405	BodyOfWater	0.18095965405	GovernmentAgency	0.157797739251		GOLD_STANDARD:	Place	PopulatedPlace	Settlement	City
Veliko Tarnovo_**_http://dbpedia.org/resource/Veliko_Tarnovo	Lake	0.242845862881	Country	0.22679240253	HistoricPlace	0.222102859073	OfficeHolder	0.210059798955	Person	0.20297091107	Broadcaster	0.195222273191	BroadcastNetwork	0.195222273191	NaturalPlace	0.182291065563	BodyOfWater	0.182291065563	PopulatedPlace	0.172923553534		GOLD_STANDARD:	Place	PopulatedPlace	Settlement
Newfoundland_**_http://dbpedia.org/resource/Newfoundland_(island)	Island	0.279783080043	ArchitecturalStructure	0.2720734959	Airport	0.2720734959	Infrastructure	0.2720734959	Lake	0.251915037257	Park	0.208752049863	Region	0.202112003566	AdministrativeRegion	0.202112003566	Country	0.189937953327	Continent	0.172204749209		GOLD_STANDARD:	
Pakistani_**_http://dbpedia.org/resource/Pakistan	River	0.376746382479	Stream	0.376746382479	NaturalPlace	0.306828351307	BodyOfWater	0.306828351307	HistoricPlace	0.265570814589	Country	0.249203934268	Language	0.243931382824	Broadcaster	0.217894507395	BroadcastNetwork	0.217894507395	Region	0.21557632781		GOLD_STANDARD:	Place	PopulatedPlace	Country
Edouard_**_http://dbpedia.org/resource/Hurricane_Edouard_(1996)	Lake	0.165916172564	Person	0.128454771062	HistoricPlace	0.125362167298	OfficeHolder	0.11932885482	Country	0.113825909417	Continent	0.108271895064	Politician	0.102901932875	Airline	0.102430630436	ArchitecturalStructure	0.100040503009	Airport	0.100040503009		GOLD_STANDARD:	
EgyptAir_**_http://dbpedia.org/resource/EgyptAir	Airline	0.298275852816	Company	0.270956498952	Organisation	0.186032763159	Agent	0.131683735484	Broadcaster	0.12273232958	BroadcastNetwork	0.12273232958	Country	0.117390220533	HistoricPlace	0.106145195173	GovernmentAgency	0.105061594554	PopulatedPlace	0.097257246432		GOLD_STANDARD:	Agent	Organisation	Company	Airline
Czech_**_http://dbpedia.org/resource/Czech_Republic	HistoricPlace	0.360800654398	Country	0.33414511575	Continent	0.313300362452	Language	0.233009193183	PopulatedPlace	0.209963942874	OfficeHolder	0.206335620629	Place	0.204428384583	Person	0.170313205714	Broadcaster	0.166139945842	BroadcastNetwork	0.166139945842		GOLD_STANDARD:	Place	PopulatedPlace	Country
Michigan_**_http://dbpedia.org/resource/Michigan	AdministrativeRegion	0.247772176366	Region	0.247772176366	Lake	0.243263353424	Park	0.211543088667	Continent	0.193480919358	ArchitecturalStructure	0.138119770237	Airport	0.138119770237	Infrastructure	0.138119770237	GovernmentAgency	0.132858451136	City	0.129757524697		GOLD_STANDARD:	
Russians_**_http://dbpedia.org/resource/Russia	HistoricPlace	0.567473600414	Continent	0.268630296474	Country	0.26210864202	Language	0.174624049436	PopulatedPlace	0.154017091523	Place	0.152539391475	Lake	0.120915735811	Region	0.115938149025	AdministrativeRegion	0.115938149025	Broadcaster	0.115673109406		GOLD_STANDARD:	Place	PopulatedPlace	Country
Osaka_**_http://dbpedia.org/resource/Osaka	OfficeHolder	0.249376388174	Broadcaster	0.201833602931	BroadcastNetwork	0.201833602931	Person	0.199533566058	Continent	0.190742317389	Lake	0.159293195249	Settlement	0.158929745777	City	0.152984230135	Country	0.150530286676	PopulatedPlace	0.150290457052		GOLD_STANDARD:	Place	PopulatedPlace	Settlement	City
Bulgarian_**_http://dbpedia.org/resource/Bulgaria	HistoricPlace	0.383034527346	Country	0.353820877678	Continent	0.291314316256	PopulatedPlace	0.221981032727	Place	0.21683930458	Broadcaster	0.215185494383	BroadcastNetwork	0.215185494383	Language	0.206475353419	Lake	0.153539727619	Region	0.147909784061		GOLD_STANDARD:	Place	PopulatedPlace	Country
Russia_**_http://dbpedia.org/resource/Russia	HistoricPlace	0.704899042584	Continent	0.501518925136	Country	0.347033794962	Broadcaster	0.234222652288	BroadcastNetwork	0.234222652288	Region	0.226608647116	AdministrativeRegion	0.226608647116	PopulatedPlace	0.225744931725	Place	0.222255181794	Lake	0.165247212265		GOLD_STANDARD:	Place	PopulatedPlace	Country
Naoto Kan_**_http://dbpedia.org/resource/Naoto_Kan	OfficeHolder	0.376058961331	Person	0.335762273826	Broadcaster	0.166428453849	BroadcastNetwork	0.166428453849	River	0.152506625871	Stream	0.152506625871	Language	0.144962278617	Agent	0.13997878807	HistoricPlace	0.135471564132	Town	0.120558305919		GOLD_STANDARD:	Agent	Person	OfficeHolder
DALLAS_**_http://dbpedia.org/resource/Dallas	City	0.263181828824	Settlement	0.210349236454	Lake	0.159997420978	Region	0.156589060287	AdministrativeRegion	0.156589060287	PopulatedPlace	0.141588811342	Place	0.137737194639	ArchitecturalStructure	0.135813367786	Airport	0.135813367786	Infrastructure	0.135813367786		GOLD_STANDARD:	Place	PopulatedPlace	Settlement	City
Kunar_**_http://dbpedia.org/resource/Kunar_River	River	0.240688356318	Stream	0.240688356318	NaturalPlace	0.214979638806	BodyOfWater	0.214979638806	Town	0.182304402342	Lake	0.163562203784	Continent	0.134578052891	Region	0.132738591237	AdministrativeRegion	0.132738591237	Country	0.119997216995		GOLD_STANDARD:	
Massachusetts_**_http://dbpedia.org/resource/Massachusetts	Region	0.283361092225	AdministrativeRegion	0.283361092225	Continent	0.226994181309	Town	0.180651265552	Broadcaster	0.172652599273	BroadcastNetwork	0.172652599273	Island	0.136301343604	PopulatedPlace	0.1327764783	Place	0.129645127382	GovernmentAgency	0.125199359218		GOLD_STANDARD:	
SOFIA_**_http://dbpedia.org/resource/Sofia	City	0.195757511522	Settlement	0.175606253027	Broadcaster	0.153809344101	BroadcastNetwork	0.153809344101	PopulatedPlace	0.142504030645	Place	0.138419774498	Country	0.136189711157	Company	0.127150716816	HistoricPlace	0.125783754685	Lake	0.112428784163		GOLD_STANDARD:	Place	PopulatedPlace	Settlement	City
Boeing_**_http://dbpedia.org/resource/Boeing	Airline	0.278734107055	Company	0.232507721561	Organisation	0.182109122868	GovernmentAgency	0.164814210096	HistoricPlace	0.14481248212	Agent	0.138590322771	Lake	0.125771062308	ArchitecturalStructure	0.125765964178	Airport	0.125765964178	Infrastructure	0.125765964178		GOLD_STANDARD:	Agent	Organisation	Company
Himalayan_**_http://dbpedia.org/resource/Himalaya_Kingdom	River	0.262811380887	Stream	0.262811380887	Broadcaster	0.223037358323	BroadcastNetwork	0.223037358323	NaturalPlace	0.217720982819	BodyOfWater	0.217720982819	Country	0.167752467819	Island	0.143561259297	Language	0.142164389666	PopulatedPlace	0.140426215774		GOLD_STANDARD:	
Phnom Penh_**_http://dbpedia.org/resource/Phnom_Penh	River	0.227265227582	Stream	0.227265227582	NaturalPlace	0.211144640184	BodyOfWater	0.211144640184	Park	0.199186533353	Town	0.197718159198	Person	0.191090728742	Lake	0.162782877991	OfficeHolder	0.148110943267	Airline	0.134453679109		GOLD_STANDARD:	Place	PopulatedPlace	Settlement
Roxbury_**_http://dbpedia.org/resource/Roxbury,_Vermont	Region	0.250359181124	AdministrativeRegion	0.250359181124	Park	0.18919235975	Lake	0.173459007797	Town	0.165825889001	ArchitecturalStructure	0.162848423744	Airport	0.162848423744	Infrastructure	0.162848423744	Island	0.150164646825	City	0.129771274929		GOLD_STANDARD:	Place	PopulatedPlace	Settlement	Town
Bulgaria_**_http://dbpedia.org/resource/Bulgaria	Continent	0.452431688244	HistoricPlace	0.374513380463	Country	0.363714733309	PopulatedPlace	0.233182616255	Place	0.228490099678	Broadcaster	0.21907487086	BroadcastNetwork	0.21907487086	Lake	0.187786469775	AdministrativeRegion	0.177226418307	Region	0.177226418307		GOLD_STANDARD:	Place	PopulatedPlace	Country
Melbourne_**_http://dbpedia.org/resource/Melbourne	Park	0.212368331346	HistoricPlace	0.178693359032	Lake	0.175868795642	ArchitecturalStructure	0.170947313096	Airport	0.170947313096	Infrastructure	0.170947313096	City	0.169535879159	Continent	0.168923349159	Settlement	0.163317954819	Politician	0.161600677736		GOLD_STANDARD:	Place	PopulatedPlace	Settlement	City
National Hurricane Center_**_http://dbpedia.org/resource/National_Hurricane_Center	Park	0.369884818041	GovernmentAgency	0.363257241394	Island	0.183201803701	Organisation	0.180724790637	Broadcaster	0.158210842003	BroadcastNetwork	0.158210842003	Region	0.150244656667	AdministrativeRegion	0.150244656667	Agent	0.12624543961	Lake	0.118975215372		GOLD_STANDARD:	Agent	Organisation	GovernmentAgency
Austria_**_http://dbpedia.org/resource/Austria	Continent	0.5016196282	Country	0.309710014707	Lake	0.208810824344	PopulatedPlace	0.208595263756	HistoricPlace	0.206000494369	Place	0.202981835335	OfficeHolder	0.202854568828	Broadcaster	0.196216070811	BroadcastNetwork	0.196216070811	Region	0.162138429844		GOLD_STANDARD:	Place	PopulatedPlace	Country
Nepal_**_http://dbpedia.org/resource/Nepal	River	0.325367131384	Stream	0.325367131384	Country	0.278084055989	NaturalPlace	0.273875972051	BodyOfWater	0.273875972051	Broadcaster	0.251511126607	BroadcastNetwork	0.251511126607	PopulatedPlace	0.204558579098	Place	0.203100997611	Continent	0.194350729081		GOLD_STANDARD:	Place	PopulatedPlace	Country
Colombia_**_http://dbpedia.org/resource/Colombia	Continent	0.301233297112	Country	0.295085215968	Lake	0.289343158957	HistoricPlace	0.213513723191	PopulatedPlace	0.184307756384	Place	0.182012396778	Region	0.176204469142	AdministrativeRegion	0.176204469142	NaturalPlace	0.147452481799	BodyOfWater	0.147452481799		GOLD_STANDARD:	Place	PopulatedPlace	Country
New York_**_http://dbpedia.org/resource/New_York	Broadcaster	0.339931366834	BroadcastNetwork	0.339931366834	AdministrativeRegion	0.293659300599	Region	0.293659300599	Island	0.207584222878	Town	0.203783212904	Politician	0.183271497634	Park	0.176690916686	City	0.160179455754	Settlement	0.157631841999		GOLD_STANDARD:	
El Al_**_http://dbpedia.org/resource/El_Al	Lake	0.218685651644	Airline	0.204385109674	Park	0.147410060125	Company	0.141485093531	ArchitecturalStructure	0.121430642788	Airport	0.121430642788	Infrastructure	0.121430642788	NaturalPlace	0.120755494647	BodyOfWater	0.120755494647	Person	0.101170805303		GOLD_STANDARD:	Agent	Organisation	Company	Airline
Mafikeng_**_http://dbpedia.org/resource/Mafikeng	Lake	0.248816382754	Town	0.210981308566	Park	0.19193249915	HistoricPlace	0.180648928982	Settlement	0.171439232445	PopulatedPlace	0.157145924628	Place	0.156592503991	NaturalPlace	0.151178747189	BodyOfWater	0.151178747189	City	0.147191747553		GOLD_STANDARD:	
Shannon_**_http://dbpedia.org/resource/Shannon_Airport	Politician	0.475249490961	ArchitecturalStructure	0.249477820173	Airport	0.249477820173	Infrastructure	0.249477820173	Park	0.173057862049	Person	0.158314766504	Lake	0.14946160823	Island	0.144387622384	OfficeHolder	0.102473098005	Agent	0.0981347155422		GOLD_STANDARD:	Place	ArchitecturalStructure	Infrastructure	Airport
National Transportation Safety Board_**_http://dbpedia.org/resource/National_Transportation_Safety_Board	GovernmentAgency	0.412599725142	Park	0.320055836304	Organisation	0.228901244563	Agent	0.184500394649	Broadcaster	0.176956048207	BroadcastNetwork	0.176956048207	Politician	0.136936845938	Airline	0.132229340915	Company	0.129062219665	AdministrativeRegion	0.119765305417		GOLD_STANDARD:	Agent	Organisation	GovernmentAgency
BOGOTA_**_http://dbpedia.org/resource/Bogot√°	City	0.260469080355	Lake	0.253904327617	Settlement	0.233405551594	HistoricPlace	0.197479590891	PopulatedPlace	0.19186893326	Place	0.186358941913	Broadcaster	0.179807499975	BroadcastNetwork	0.179807499975	Country	0.159772550295	AdministrativeRegion	0.146253094354		GOLD_STANDARD:	
Texas_**_http://dbpedia.org/resource/Texas	ArchitecturalStructure	0.299819740427	Airport	0.299819740427	Infrastructure	0.299819740427	Lake	0.274510621986	Region	0.22122502179	AdministrativeRegion	0.22122502179	Continent	0.213423132132	Park	0.199025827229	Island	0.145628590344	City	0.136401910112		GOLD_STANDARD:	
Canadian_**_http://dbpedia.org/resource/Canada	Continent	0.255225604846	Country	0.250852233522	Island	0.217078499538	Language	0.206079459629	Region	0.188561502156	AdministrativeRegion	0.188561502156	Broadcaster	0.181386746218	BroadcastNetwork	0.181386746218	PopulatedPlace	0.172303106943	Place	0.168822595362		GOLD_STANDARD:	Place	PopulatedPlace	Country
GMT_**_http://dbpedia.org/resource/Greenwich_Mean_Time	Broadcaster	0.18471125382	BroadcastNetwork	0.18471125382	Company	0.14565092348	Language	0.107859958795	Organisation	0.102196721608	Airline	0.100762592154	Continent	0.0993501606529	HistoricPlace	0.08890041456	Country	0.0870538357642	Settlement	0.0869599447573		GOLD_STANDARD:	
Springfield_**_http://dbpedia.org/resource/Springfield,_Massachusetts	AdministrativeRegion	0.234475222154	Region	0.234475222154	ArchitecturalStructure	0.203870781877	Airport	0.203870781877	Infrastructure	0.203870781877	Lake	0.190866010788	Park	0.187764480075	Town	0.186558764833	City	0.137806019464	Settlement	0.126599801907		GOLD_STANDARD:	Place	PopulatedPlace	Settlement	City
Guernsey_**_http://dbpedia.org/resource/Guernsey	Island	0.23373962541	Park	0.228203185579	Politician	0.219461619226	Language	0.207855040108	Country	0.18611918927	Continent	0.165077073793	Region	0.160952839251	AdministrativeRegion	0.160952839251	PopulatedPlace	0.151278122932	Place	0.14845161213		GOLD_STANDARD:	Place	PopulatedPlace	Country
New Jersey_**_http://dbpedia.org/resource/New_Jersey	Broadcaster	0.333473523765	BroadcastNetwork	0.333473523765	Region	0.316711230468	AdministrativeRegion	0.316711230468	Park	0.274337694398	Island	0.245588434922	Continent	0.201320933121	Town	0.188692673891	Lake	0.167918537739	PopulatedPlace	0.162690846206		GOLD_STANDARD:	
Pakistani Kashmir_**_http://dbpedia.org/resource/Azad_Kashmir	River	0.443279236433	Stream	0.443279236433	NaturalPlace	0.359176969879	BodyOfWater	0.359176969879	HistoricPlace	0.262992523211	Broadcaster	0.251484626317	BroadcastNetwork	0.251484626317	Country	0.250328213936	Place	0.193584436037	PopulatedPlace	0.192135334226		GOLD_STANDARD:	
MIAMI_**_http://dbpedia.org/resource/Miami	City	0.256898661171	Settlement	0.211659230344	Lake	0.188252607745	Park	0.171484440607	PopulatedPlace	0.154194178671	Region	0.151783883569	AdministrativeRegion	0.151783883569	Place	0.149125095417	HistoricPlace	0.13278221723	Island	0.122104745676		GOLD_STANDARD:	Place	PopulatedPlace	Settlement	City
Long Island_**_http://dbpedia.org/resource/Long_Island	Park	0.572636700578	Island	0.43220734636	Lake	0.277166807503	Politician	0.235245462169	Town	0.198296332969	ArchitecturalStructure	0.186275714075	Airport	0.186275714075	Infrastructure	0.186275714075	Broadcaster	0.162030037645	BroadcastNetwork	0.162030037645		GOLD_STANDARD:	
Reuters_**_http://dbpedia.org/resource/Reuters	Broadcaster	0.378282051041	BroadcastNetwork	0.378282051041	Continent	0.1922582853	Country	0.131447456151	City	0.125343553158	Settlement	0.117429969082	PopulatedPlace	0.115592182309	Place	0.109463760243	HistoricPlace	0.107106826604	Organisation	0.0987029641765		GOLD_STANDARD:	Agent	Organisation	Company
Island Beach State Park_**_http://dbpedia.org/resource/Island_Beach_State_Park	Island	0.47474846449	Lake	0.40597290315	GovernmentAgency	0.238664602758	Town	0.195518017586	ArchitecturalStructure	0.183424654532	Airport	0.183424654532	Infrastructure	0.183424654532	AdministrativeRegion	0.154426103526	Region	0.154426103526	Politician	0.15231585372		GOLD_STANDARD:	
South African_**_http://dbpedia.org/resource/South_Africa	Park	0.300078947438	Island	0.262968350622	Continent	0.240689003625	Country	0.191473154531	Language	0.185709804531	Lake	0.173210560729	AdministrativeRegion	0.159487123279	Region	0.159487123279	Broadcaster	0.148205232951	BroadcastNetwork	0.148205232951		GOLD_STANDARD:	Place	PopulatedPlace	Country
Waiau_**_http://dbpedia.org/resource/Waiau,_Canterbury	Park	0.373108468494	Island	0.31955183339	Lake	0.288086703856	Town	0.21782009757	NaturalPlace	0.214308971806	BodyOfWater	0.214308971806	River	0.189716394456	Stream	0.189716394456	Broadcaster	0.176224173087	BroadcastNetwork	0.176224173087		GOLD_STANDARD:	
Barentsburg_**_http://dbpedia.org/resource/Barentsburg	HistoricPlace	0.308026473161	Lake	0.283869573629	Broadcaster	0.231446440927	BroadcastNetwork	0.231446440927	Continent	0.219865690053	Country	0.195095647567	Island	0.167938541818	PopulatedPlace	0.157641682647	Place	0.155876706162	NaturalPlace	0.143870756599		GOLD_STANDARD:	Place	PopulatedPlace	Settlement
Ukrainian_**_http://dbpedia.org/resource/Ukraine	HistoricPlace	0.546478558387	Country	0.340400920604	Continent	0.251433738928	Language	0.243293392323	PopulatedPlace	0.209717356873	Place	0.20542384471	Lake	0.194593805199	Broadcaster	0.171001150031	BroadcastNetwork	0.171001150031	Region	0.170469621303		GOLD_STANDARD:	Place	PopulatedPlace	Country
Istanbul_**_http://dbpedia.org/resource/Istanbul	Continent	0.32380711244	HistoricPlace	0.283805937841	Lake	0.22215802697	Country	0.215678034507	PopulatedPlace	0.188388116178	Place	0.185503052743	City	0.184651691381	Settlement	0.180657332963	Broadcaster	0.173438899917	BroadcastNetwork	0.173438899917		GOLD_STANDARD:	Place	PopulatedPlace	Settlement	City
John Deere_**_http://dbpedia.org/resource/Deere_&_Company	Politician	0.295463240953	ArchitecturalStructure	0.236760243421	Airport	0.236760243421	Infrastructure	0.236760243421	Person	0.14653772557	Company	0.144536504335	OfficeHolder	0.138155652727	Agent	0.11856279456	GovernmentAgency	0.114867725086	AdministrativeRegion	0.109518494528		GOLD_STANDARD:	
Japan_**_http://dbpedia.org/resource/Japan	Continent	0.511761301071	Broadcaster	0.273867251882	BroadcastNetwork	0.273867251882	Country	0.263431929991	OfficeHolder	0.2590679573	Person	0.209114574848	HistoricPlace	0.202872234549	PopulatedPlace	0.191798544221	Place	0.186135645834	AdministrativeRegion	0.165702539695		GOLD_STANDARD:	Place	PopulatedPlace	Country
Australian_**_http://dbpedia.org/resource/Australia	Country	0.247458990522	Broadcaster	0.245460085471	BroadcastNetwork	0.245460085471	Continent	0.243667423307	Language	0.199058621258	Island	0.179901241049	PopulatedPlace	0.176873025886	Place	0.171519685493	Politician	0.166041902098	Park	0.156961426729		GOLD_STANDARD:	Place	PopulatedPlace	Country
Washington_**_http://dbpedia.org/resource/Washington,_D.C.	HistoricPlace	0.276235893867	Region	0.246366689403	AdministrativeRegion	0.246366689403	GovernmentAgency	0.210519187593	Park	0.171803246171	City	0.169865431464	Organisation	0.153198131292	Broadcaster	0.14159650858	BroadcastNetwork	0.14159650858	Settlement	0.128715296703		GOLD_STANDARD:	Place	PopulatedPlace	Settlement
Tianjin_**_http://dbpedia.org/resource/Tianjin	Broadcaster	0.335550578932	BroadcastNetwork	0.335550578932	Lake	0.256238927573	Continent	0.203080714854	City	0.190346273213	Region	0.183146330381	AdministrativeRegion	0.183146330381	PopulatedPlace	0.182813753616	Settlement	0.180182345454	Place	0.178985453693		GOLD_STANDARD:	Place	PopulatedPlace	Settlement
LAGOS_**_http://dbpedia.org/resource/Lagos	City	0.244594633805	Settlement	0.213705359554	Broadcaster	0.179208024164	BroadcastNetwork	0.179208024164	PopulatedPlace	0.160317902163	Place	0.154019711011	Lake	0.126784589539	HistoricPlace	0.126462823241	Country	0.125868088766	Town	0.100484434207		GOLD_STANDARD:	Place	PopulatedPlace	Settlement
Arctic_**_http://dbpedia.org/resource/Arctic	HistoricPlace	0.314226191143	Island	0.258072952116	Continent	0.242017670122	Lake	0.199447893902	Country	0.174336203214	Region	0.169435570512	AdministrativeRegion	0.169435570512	Broadcaster	0.146104815496	BroadcastNetwork	0.146104815496	PopulatedPlace	0.142672109269		GOLD_STANDARD:	Place	PopulatedPlace
Nepali_**_http://dbpedia.org/resource/Nepal	Language	0.318056438089	River	0.300907335666	Stream	0.300907335666	Country	0.259466822119	NaturalPlace	0.245778212827	BodyOfWater	0.245778212827	Broadcaster	0.245190189316	BroadcastNetwork	0.245190189316	HistoricPlace	0.211100793087	PopulatedPlace	0.171996638416		GOLD_STANDARD:	Place	PopulatedPlace	Country
Rousse_**_http://dbpedia.org/resource/Ruse,_Bulgaria	Lake	0.185696161731	OfficeHolder	0.166026143216	HistoricPlace	0.165887043361	Person	0.148318291271	Country	0.125589958864	Continent	0.120382109977	ArchitecturalStructure	0.117827362214	Airport	0.117827362214	Infrastructure	0.117827362214	PopulatedPlace	0.114384773666		GOLD_STANDARD:	
Stung Treng_**_http://dbpedia.org/resource/Stung_Treng	Politician	0.206255059934	Broadcaster	0.192156546879	BroadcastNetwork	0.192156546879	Park	0.175854024173	River	0.162094943831	Stream	0.162094943831	Person	0.159464566865	NaturalPlace	0.155725974146	BodyOfWater	0.155725974146	Island	0.140016731592		GOLD_STANDARD:	Place	PopulatedPlace	Settlement	Town
FBI_**_http://dbpedia.org/resource/Federal_Bureau_of_Investigation	GovernmentAgency	0.194960446881	Organisation	0.142924167066	Company	0.128252315507	Airline	0.12200409398	HistoricPlace	0.120317115982	Region	0.104290922953	AdministrativeRegion	0.104290922953	Agent	0.0955577095062	Park	0.0802723593787	Politician	0.0762670099699		GOLD_STANDARD:	Agent	Organisation	GovernmentAgency
Europe_**_http://dbpedia.org/resource/Europe	Country	0.283982988738	HistoricPlace	0.248311392384	AdministrativeRegion	0.202704657512	Region	0.202704657512	PopulatedPlace	0.181669360813	Place	0.174982270217	Broadcaster	0.145894537617	BroadcastNetwork	0.145894537617	Island	0.124383454698	OfficeHolder	0.118801194745		GOLD_STANDARD:	Place	PopulatedPlace	Continent
ATLANTIC HIGHLANDS_**_http://dbpedia.org/resource/Atlantic_Highlands,_New_Jersey	City	0.195926753669	Park	0.192433813008	Island	0.173314431346	Settlement	0.171798012917	Town	0.146591507814	Lake	0.145538755475	PopulatedPlace	0.132191664246	Region	0.132000869908	AdministrativeRegion	0.132000869908	ArchitecturalStructure	0.130107828655		GOLD_STANDARD:	Place	PopulatedPlace	Settlement
Xinhua_**_http://dbpedia.org/resource/Xinhua_News_Agency	Broadcaster	0.246964797907	BroadcastNetwork	0.246964797907	HistoricPlace	0.222538816163	Company	0.177725896319	Country	0.173584025652	PopulatedPlace	0.152370374941	Language	0.151052892189	GovernmentAgency	0.148736136362	Organisation	0.147669043072	Place	0.147592452419		GOLD_STANDARD:	Agent	Organisation	Broadcaster	BroadcastNetwork
Montpelier_**_http://dbpedia.org/resource/Montpelier,_Vermont	AdministrativeRegion	0.217726711824	Region	0.217726711824	Park	0.217217681422	Town	0.199313134446	Lake	0.170173668545	Island	0.145018600073	ArchitecturalStructure	0.14365851985	Airport	0.14365851985	Infrastructure	0.14365851985	Settlement	0.134623677801		GOLD_STANDARD:	Place	PopulatedPlace	Settlement	City
TWA_**_http://dbpedia.org/resource/Trans_World_Airlines	Airline	0.257021553029	Company	0.209976197224	GovernmentAgency	0.164186475006	Organisation	0.16269774588	Politician	0.134503548075	Agent	0.115615110626	ArchitecturalStructure	0.104863820806	Airport	0.104863820806	Infrastructure	0.104863820806	River	0.0783657859196		GOLD_STANDARD:	Agent	Organisation	Company	Airline
Annemarie Jorritsma_**_http://dbpedia.org/resource/Annemarie_Jorritsma	Politician	0.514256772054	Person	0.371150084311	OfficeHolder	0.352497357268	ArchitecturalStructure	0.187316576838	Airport	0.187316576838	Infrastructure	0.187316576838	Agent	0.133016842011	Language	0.120996380243	Continent	0.114805958457	Lake	0.107558853841		GOLD_STANDARD:	Agent	Person	OfficeHolder
English_**_http://dbpedia.org/resource/English_language	Broadcaster	0.1771644623	BroadcastNetwork	0.1771644623	Country	0.152500987569	Island	0.128656605161	Person	0.126090196206	OfficeHolder	0.121742586812	Continent	0.117683609872	Park	0.101156321627	Politician	0.0975730010903	PopulatedPlace	0.0953954046976		GOLD_STANDARD:	Language
LONDON_**_http://dbpedia.org/resource/London	City	0.30062282714	Continent	0.257866575302	Broadcaster	0.237948232612	BroadcastNetwork	0.237948232612	Settlement	0.23744012415	PopulatedPlace	0.1986204314	Place	0.189489944682	HistoricPlace	0.186395710839	Country	0.170651379163	AdministrativeRegion	0.15448684815		GOLD_STANDARD:	Place	PopulatedPlace	Settlement
Ukrainians_**_http://dbpedia.org/resource/Ukraine	HistoricPlace	0.501990136244	Continent	0.272225035481	Country	0.266078459206	Lake	0.166984505191	OfficeHolder	0.16670427008	Language	0.164934625972	PopulatedPlace	0.164371178931	Place	0.161634221962	Person	0.12477177165	NaturalPlace	0.114418711229		GOLD_STANDARD:	Place	PopulatedPlace	Country
Bahraini_**_http://dbpedia.org/resource/Bahrain	Country	0.254014895545	HistoricPlace	0.244783572134	Airline	0.240383735237	Company	0.201117353586	Broadcaster	0.187900674816	BroadcastNetwork	0.187900674816	PopulatedPlace	0.185685638174	River	0.182927663705	Stream	0.182927663705	Place	0.182811811556		GOLD_STANDARD:	Place	PopulatedPlace	Country
WELLINGTON_**_http://dbpedia.org/resource/Wellington	Broadcaster	0.260976487856	BroadcastNetwork	0.260976487856	City	0.257356960733	Settlement	0.228551958651	PopulatedPlace	0.171173892992	Place	0.1651876485	Park	0.140827978053	Lake	0.13639624302	Island	0.135788344933	Country	0.122284169637		GOLD_STANDARD:	Place	PopulatedPlace	Settlement	City
Soviet_**_http://dbpedia.org/resource/Soviet_Union	HistoricPlace	0.55642620599	Continent	0.278804352333	Country	0.257014336325	Region	0.199736872951	AdministrativeRegion	0.199736872951	PopulatedPlace	0.160683471063	Place	0.158694919558	BroadcastNetwork	0.146117140324	Broadcaster	0.146117140324	OfficeHolder	0.143639053115		GOLD_STANDARD:	Place	PopulatedPlace	Country
South Island_**_http://dbpedia.org/resource/South_Island	Park	0.699522366809	Island	0.445005385788	Lake	0.339964311312	Town	0.199288851507	Politician	0.194713919155	Continent	0.158562372327	Region	0.149300038271	AdministrativeRegion	0.149300038271	Language	0.137904034442	Country	0.133779515829		GOLD_STANDARD:	
Jorritsma_**_http://dbpedia.org/resource/Annemarie_Jorritsma	Politician	0.389649302496	Person	0.325035268151	OfficeHolder	0.324031405805	Language	0.157321197176	ArchitecturalStructure	0.119259068602	Airport	0.119259068602	Infrastructure	0.119259068602	Agent	0.115500931078	Town	0.0931981484671	Continent	0.0903847715421		GOLD_STANDARD:	Agent	Person	OfficeHolder
Johannesburg_**_http://dbpedia.org/resource/Johannesburg	Lake	0.238706795534	City	0.205326506755	Settlement	0.197566574822	Broadcaster	0.186333366799	BroadcastNetwork	0.186333366799	Continent	0.179167137871	PopulatedPlace	0.176135539725	Place	0.171052358598	Country	0.17048975822	Park	0.126292836836		GOLD_STANDARD:	Place	PopulatedPlace	Settlement
Rochester_**_http://dbpedia.org/resource/Rochester,_New_Hampshire	AdministrativeRegion	0.253500578647	Region	0.253500578647	Lake	0.248924921644	ArchitecturalStructure	0.208357084699	Airport	0.208357084699	Infrastructure	0.208357084699	City	0.177440216893	Town	0.170669639568	Settlement	0.149009934852	Park	0.138704301288		GOLD_STANDARD:	Place	PopulatedPlace	Settlement	City
MUZAFFARABAD_**_http://dbpedia.org/resource/Muzaffarabad	River	0.252355350408	Stream	0.252355350408	Broadcaster	0.23498267099	BroadcastNetwork	0.23498267099	City	0.231487223613	NaturalPlace	0.216908721351	BodyOfWater	0.216908721351	Settlement	0.210087895692	PopulatedPlace	0.171045273545	Place	0.168160736454		GOLD_STANDARD:	Place	PopulatedPlace	Settlement	City
St. Albans_**_http://dbpedia.org/resource/St._Albans_(city),_Vermont	Park	0.288158899071	Lake	0.205919141682	Town	0.204733271467	AdministrativeRegion	0.175888099	Region	0.175888099	Island	0.168749113462	City	0.156534224372	Settlement	0.151610449179	ArchitecturalStructure	0.151267251356	Airport	0.151267251356		GOLD_STANDARD:	Place	PopulatedPlace	Settlement	City
Josef Stalin_**_http://dbpedia.org/resource/Joseph_Stalin	HistoricPlace	0.386666319391	Continent	0.200971311336	OfficeHolder	0.19129530785	Person	0.184305925338	Country	0.160959045702	Lake	0.121137802608	Place	0.113898310638	PopulatedPlace	0.113265346018	NaturalPlace	0.111298347812	BodyOfWater	0.111298347812		GOLD_STANDARD:	Agent	Person	OfficeHolder
Vienna_**_http://dbpedia.org/resource/Vienna	HistoricPlace	0.278535124383	Continent	0.257049044757	Country	0.211683667938	Lake	0.20583563636	City	0.181778008346	PopulatedPlace	0.179667216625	Place	0.175761090703	Settlement	0.17492756131	AdministrativeRegion	0.15825482435	Region	0.15825482435		GOLD_STANDARD:	Place	PopulatedPlace	Settlement
New York City_**_http://dbpedia.org/resource/New_York_City	Region	0.357763124111	AdministrativeRegion	0.357763124111	Park	0.34221624446	Broadcaster	0.308435710013	BroadcastNetwork	0.308435710013	Island	0.233022299501	GovernmentAgency	0.194663522589	Town	0.194474784819	Lake	0.186919090787	Language	0.177664760945		GOLD_STANDARD:	Place	PopulatedPlace	Settlement	City
Ravi_**_http://dbpedia.org/resource/Ravi_River	River	0.220216983122	Stream	0.220216983122	OfficeHolder	0.193745819868	Person	0.190902994269	NaturalPlace	0.175161421892	BodyOfWater	0.175161421892	Town	0.144789140321	AdministrativeRegion	0.109888312589	Region	0.109888312589	Agent	0.0988435893835		GOLD_STANDARD:	
Mauritius_**_http://dbpedia.org/resource/Mauritius	Island	0.242929259353	Country	0.235907086267	Continent	0.205329854386	Park	0.201631333532	River	0.177132665563	Stream	0.177132665563	NaturalPlace	0.172763980667	BodyOfWater	0.172763980667	PopulatedPlace	0.1657860399	Place	0.163001008153		GOLD_STANDARD:	Place	PopulatedPlace	Country
Yunnan_**_http://dbpedia.org/resource/Yunnan	Broadcaster	0.353072244849	BroadcastNetwork	0.353072244849	River	0.226990319129	Stream	0.226990319129	NaturalPlace	0.218105303634	BodyOfWater	0.218105303634	HistoricPlace	0.207511826612	Lake	0.191450257149	Country	0.180706055225	Town	0.17576165563		GOLD_STANDARD:	
New Hampshire_**_http://dbpedia.org/resource/New_Hampshire,_Ohio	Region	0.345216550232	AdministrativeRegion	0.345216550232	Broadcaster	0.324151192978	BroadcastNetwork	0.324151192978	Language	0.19736581507	Town	0.191405017277	Island	0.176412220454	Politician	0.176321943989	PopulatedPlace	0.150297876997	Continent	0.148270648231		GOLD_STANDARD:	
Amsterdam_**_http://dbpedia.org/resource/Amsterdam	Continent	0.345304487691	Lake	0.210233978507	Country	0.164363670349	PopulatedPlace	0.153893612555	Settlement	0.15381003944	OfficeHolder	0.150877022656	Place	0.149202089055	City	0.149182633088	Region	0.142390496606	AdministrativeRegion	0.142390496606		GOLD_STANDARD:	Place	PopulatedPlace	Settlement	City
Coast Guard_**_http://dbpedia.org/resource/Coast_guard	Park	0.367307520309	Island	0.251874749835	GovernmentAgency	0.194717180555	HistoricPlace	0.142387671676	Lake	0.139222136956	ArchitecturalStructure	0.135843318303	Airport	0.135843318303	Infrastructure	0.135843318303	Region	0.134298581669	AdministrativeRegion	0.134298581669		GOLD_STANDARD:	
Sakai_**_http://dbpedia.org/resource/Sakai,_Osaka	OfficeHolder	0.222748810895	Person	0.209419797619	Language	0.129917940642	Park	0.127502463673	Politician	0.125161883891	River	0.123814388918	Stream	0.123814388918	Broadcaster	0.118777137742	BroadcastNetwork	0.118777137742	Town	0.104956262403		GOLD_STANDARD:	Place	PopulatedPlace	Settlement	City
Buenaventura_**_http://dbpedia.org/resource/Buenaventura,_Valle_del_Cauca	Lake	0.188459638393	Island	0.152292390909	NaturalPlace	0.115934944506	BodyOfWater	0.115934944506	Country	0.115138255101	Broadcaster	0.111643962967	BroadcastNetwork	0.111643962967	Person	0.110333695243	Town	0.108910404155	OfficeHolder	0.0975332111681		GOLD_STANDARD:	Place	PopulatedPlace	Settlement	Town
Colombian_**_http://dbpedia.org/resource/Colombia	Country	0.302647147168	HistoricPlace	0.282936227467	Lake	0.279320619606	PopulatedPlace	0.187830104548	Place	0.18477604883	Language	0.172991527881	Region	0.16375989288	AdministrativeRegion	0.16375989288	Continent	0.156264815969	Broadcaster	0.136279699129		GOLD_STANDARD:	Place	PopulatedPlace	Country
Kathmandu_**_http://dbpedia.org/resource/Kathmandu	River	0.288273046187	Stream	0.288273046187	NaturalPlace	0.251799535306	BodyOfWater	0.251799535306	Broadcaster	0.226764996685	BroadcastNetwork	0.226764996685	HistoricPlace	0.203925567786	City	0.19307902959	Settlement	0.184759420038	PopulatedPlace	0.171951952132		GOLD_STANDARD:	Place	PopulatedPlace	Settlement	City
South Africa_**_http://dbpedia.org/resource/South_Africa	Continent	0.451379074488	Island	0.305186013062	Park	0.278771772619	Country	0.212881746228	Lake	0.180380814463	Region	0.180285005191	AdministrativeRegion	0.180285005191	Broadcaster	0.176602718295	BroadcastNetwork	0.176602718295	PopulatedPlace	0.165092510431		GOLD_STANDARD:	Place	PopulatedPlace	Country
MELBOURNE_**_http://dbpedia.org/resource/Melbourne	City	0.267366328369	Settlement	0.226998147166	Broadcaster	0.185886710509	BroadcastNetwork	0.185886710509	PopulatedPlace	0.165506840719	Place	0.160399890034	Lake	0.129170880345	Politician	0.128021101313	HistoricPlace	0.116559003089	Country	0.114603056022		GOLD_STANDARD:	Place	PopulatedPlace	Settlement	City
BEIJING_**_http://dbpedia.org/resource/Beijing	Broadcaster	0.358970942514	BroadcastNetwork	0.358970942514	City	0.313333058027	HistoricPlace	0.275136741898	Settlement	0.259252544606	PopulatedPlace	0.221591477656	Place	0.214002728532	Country	0.191060510262	Region	0.175620517178	AdministrativeRegion	0.175620517178		GOLD_STANDARD:	Place	PopulatedPlace	Settlement
Lynda Chalker_**_http://dbpedia.org/resource/Lynda_Chalker,_Baroness_Chalker_of_Wallasey	ArchitecturalStructure	0.344603164447	Airport	0.344603164447	Infrastructure	0.344603164447	OfficeHolder	0.223518839247	Person	0.221327650265	Island	0.174992493504	Park	0.15231585372	Town	0.128874538314	Lake	0.125490435831	Agent	0.115648793735		GOLD_STANDARD:	Agent	Person	Politician
Richter_**_http://dbpedia.org/resource/Richter_magnitude_scale	OfficeHolder	0.244426631855	Person	0.229080009036	Politician	0.218302921283	HistoricPlace	0.129613203074	ArchitecturalStructure	0.117130202129	Airport	0.117130202129	Infrastructure	0.117130202129	Agent	0.0920475362204	AdministrativeRegion	0.089100147468	Region	0.089100147468		GOLD_STANDARD:	
Dutch_**_http://dbpedia.org/resource/Netherlands	Language	0.29776496885	Country	0.297089627607	Continent	0.285663922404	OfficeHolder	0.21778122813	PopulatedPlace	0.193598882946	Place	0.186547098588	Broadcaster	0.183771341611	BroadcastNetwork	0.183771341611	Person	0.179269103491	HistoricPlace	0.178760796451		GOLD_STANDARD:	Place	PopulatedPlace	Country
ROCHESTER_**_http://dbpedia.org/resource/Rochester,_New_Hampshire	City	0.242061395284	Settlement	0.200544655132	Region	0.18781283742	AdministrativeRegion	0.18781283742	Lake	0.13988860867	PopulatedPlace	0.136320832776	Place	0.131927286345	Town	0.120102634213	Broadcaster	0.111269818383	BroadcastNetwork	0.111269818383		GOLD_STANDARD:	Place	PopulatedPlace	Settlement	City
God_**_http://dbpedia.org/resource/God	Park	0.112277513421	Language	0.112171836754	GovernmentAgency	0.1010783471	Island	0.0987919280785	HistoricPlace	0.0830582890061	Broadcaster	0.076418215602	BroadcastNetwork	0.076418215602	Politician	0.0760620037193	Lake	0.0728152677948	Organisation	0.0689358925785		GOLD_STANDARD:	
Boston_**_http://dbpedia.org/resource/Boston	Region	0.289144781351	AdministrativeRegion	0.289144781351	Town	0.184180965492	City	0.169397643155	Lake	0.14427361118	Settlement	0.139805998372	ArchitecturalStructure	0.138545155201	Airport	0.138545155201	Infrastructure	0.138545155201	PopulatedPlace	0.130157698027		GOLD_STANDARD:	Place	PopulatedPlace	Settlement
Czech Republic_**_http://dbpedia.org/resource/Czech_Republic	Country	0.317148037144	HistoricPlace	0.303941310373	Continent	0.286075106566	Broadcaster	0.248438798437	BroadcastNetwork	0.248438798437	Language	0.218219538277	PopulatedPlace	0.202974108744	Place	0.19818535347	GovernmentAgency	0.158757707835	OfficeHolder	0.148638465416		GOLD_STANDARD:	Place	PopulatedPlace	Country
Russian_**_http://dbpedia.org/resource/Russia	HistoricPlace	0.689034646717	Country	0.35294899577	Continent	0.298479641482	Language	0.283399729772	PopulatedPlace	0.220764928943	Place	0.21687981645	Broadcaster	0.216408511112	BroadcastNetwork	0.216408511112	Region	0.20124302804	AdministrativeRegion	0.20124302804		GOLD_STANDARD:	Place	PopulatedPlace	Country
Pakistan_**_http://dbpedia.org/resource/Pakistan	River	0.395620945473	Stream	0.395620945473	NaturalPlace	0.326451059257	BodyOfWater	0.326451059257	Country	0.270240440441	HistoricPlace	0.256840854709	Continent	0.251223075918	Broadcaster	0.250414406372	BroadcastNetwork	0.250414406372	Region	0.234117226999		GOLD_STANDARD:	Place	PopulatedPlace	Country
Kremlin_**_http://dbpedia.org/resource/Moscow_Kremlin	Country	0.257232847398	Continent	0.248311392384	Lake	0.201355550749	PopulatedPlace	0.182674658073	Place	0.176705060165	AdministrativeRegion	0.174979253173	Region	0.174979253173	Broadcaster	0.161713968563	BroadcastNetwork	0.161713968563	City	0.14075738193		GOLD_STANDARD:	Place	HistoricPlace
AMTRAK_**_http://dbpedia.org/resource/Amtrak	GovernmentAgency	0.183868635457	Organisation	0.158622750684	Airline	0.156959681806	Agent	0.104064875452	Company	0.101461966992	Region	0.0947152094776	AdministrativeRegion	0.0947152094776	Politician	0.0685273238106	City	0.067129832102	River	0.0528549044803		GOLD_STANDARD:	Agent	Organisation
Caribbean_**_http://dbpedia.org/resource/Caribbean	Continent	0.360574064788	Island	0.296568373549	Country	0.250953574863	Park	0.204293648384	Lake	0.182682938625	Language	0.175646376946	AdministrativeRegion	0.172614779	Region	0.172614779	PopulatedPlace	0.168114057013	Place	0.164639610888		GOLD_STANDARD:	Place	PopulatedPlace
Norway_**_http://dbpedia.org/resource/Norway	Continent	0.352168375371	Country	0.282673623308	Lake	0.196114245682	Broadcaster	0.194940584304	BroadcastNetwork	0.194940584304	PopulatedPlace	0.193975976312	Place	0.188395299052	HistoricPlace	0.169896136949	OfficeHolder	0.169831147834	Island	0.156086801645		GOLD_STANDARD:	Place	PopulatedPlace	Country
