American_**_http://dbpedia.org/resource/United_States	SocietalEvent	0.230584980067	Event	0.230584980067	MilitaryConflict	0.230584980067	Country	0.22728908397	Region	0.217322931387	AdministrativeRegion	0.217322931387	Legislature	0.199734667941	TelevisionStation	0.17511088685	PopulatedPlace	0.174567983827	Place	0.174339905834		GOLD_STANDARD:	Place	PopulatedPlace	Country
St. Louis_**_http://dbpedia.org/resource/St._Louis,_Missouri	Company	0.211665320706	OfficeHolder	0.189885661105	Person	0.182295266338	Governor	0.182164851128	ArchitecturalStructure	0.179846273598	Building	0.179846273598	Agent	0.145290812173	Region	0.144788605804	AdministrativeRegion	0.144788605804	Politician	0.131387617781		GOLD_STANDARD:	
Kentucky_**_http://dbpedia.org/resource/Kentucky	Region	0.41572823017	AdministrativeRegion	0.41572823017	Governor	0.246697337332	Island	0.212045295124	Town	0.199063067197	PopulatedPlace	0.194643253523	Place	0.194392348743	ArchitecturalStructure	0.172563632876	Building	0.172563632876	Country	0.16761724044		GOLD_STANDARD:	
Croatian_**_http://dbpedia.org/resource/Croatia	PrimeMinister	0.370504225275	Island	0.370380218983	Country	0.36742390724	PopulatedPlace	0.237141895608	Place	0.233929770613	SocietalEvent	0.213801735055	Event	0.213801735055	MilitaryConflict	0.213801735055	City	0.21291804921	Settlement	0.166869114519		GOLD_STANDARD:	Place	PopulatedPlace	Country
BOSTON_**_http://dbpedia.org/resource/Boston	City	0.239054822649	Settlement	0.225684289559	Region	0.201802851466	AdministrativeRegion	0.201802851466	PopulatedPlace	0.140884267087	Place	0.140169246856	Company	0.136372917162	ArchitecturalStructure	0.0779624866929	Building	0.0779624866929	Town	0.0676609346808		GOLD_STANDARD:	Place	PopulatedPlace	Settlement
Supreme Court_**_http://dbpedia.org/resource/Supreme_Court_of_the_United_States	MilitaryUnit	0.258545093943	ArchitecturalStructure	0.231409342872	Building	0.231409342872	PoliticalParty	0.178944619327	Legislature	0.171401036767	Organisation	0.162369012682	SocietalEvent	0.124555944998	Event	0.124555944998	MilitaryConflict	0.124555944998	BroadcastNetwork	0.109668464633		GOLD_STANDARD:	
Agent Orange_**_http://dbpedia.org/resource/Agent_Orange	GovernmentAgency	0.305882465839	MilitaryUnit	0.216466492407	Governor	0.204163642199	Town	0.145691364161	Region	0.142783489985	AdministrativeRegion	0.142783489985	ArchitecturalStructure	0.1205867015	Building	0.1205867015	OfficeHolder	0.115632820123	SocietalEvent	0.114375038435		GOLD_STANDARD:	
Soviet Union_**_http://dbpedia.org/resource/Soviet_Union	SocietalEvent	0.360452143886	Event	0.360452143886	MilitaryConflict	0.360452143886	Island	0.339886398325	Country	0.269188610938	Legislature	0.257210354697	PoliticalParty	0.204389823147	PopulatedPlace	0.196579773082	Place	0.196361643592	PrimeMinister	0.189861980672		GOLD_STANDARD:	Place	PopulatedPlace	Country
Democratic National Convention_**_http://dbpedia.org/resource/Democratic_National_Convention	Legislature	0.457108321899	PoliticalParty	0.446952006804	Organisation	0.354936738914	ArchitecturalStructure	0.261620965054	Building	0.261620965054	TelevisionStation	0.236361951487	Agent	0.228415220683	Broadcaster	0.210010270305	SocietalEvent	0.202976470276	Event	0.202976470276		GOLD_STANDARD:	
Carroll Campbell_**_http://dbpedia.org/resource/Carroll_A._Campbell,_Jr.	Town	0.363774985678	ArchitecturalStructure	0.342185618423	Building	0.342185618423	OfficeHolder	0.256797060468	Person	0.217858302253	Agent	0.177210285774	BroadcastNetwork	0.171416588054	Region	0.156670197473	AdministrativeRegion	0.156670197473	Company	0.151281409986		GOLD_STANDARD:	Agent	Person	Politician	Governor
SDA_**_http://dbpedia.org/resource/Party_of_Democratic_Action	Legislature	0.15286529444	PoliticalParty	0.139120278766	Organisation	0.12021086675	BroadcastNetwork	0.112280809543	President	0.106656294474	PrimeMinister	0.0868968825372	Broadcaster	0.0865207072001	Politician	0.0840921464939	Island	0.0820747074322	MilitaryUnit	0.0785891713355		GOLD_STANDARD:	Agent	Organisation	PoliticalParty
Kornblum_**_http://dbpedia.org/resource/John_C._Kornblum	Governor	0.276498471631	Town	0.186632759151	GovernmentAgency	0.185814269648	PrimeMinister	0.18538647028	OfficeHolder	0.150065781648	Person	0.143906027592	TelevisionStation	0.12387427131	Politician	0.120506447666	Agent	0.111615335441	SocietalEvent	0.108067120298		GOLD_STANDARD:	Agent	Person
National Human Rights Commission_**_http://dbpedia.org/resource/National_Human_Rights_Commission_(Mexico)	Legislature	0.342239893093	MilitaryUnit	0.278515552647	PoliticalParty	0.27410340329	Organisation	0.244574460583	ArchitecturalStructure	0.213605590446	Building	0.213605590446	SocietalEvent	0.186061918418	Event	0.186061918418	MilitaryConflict	0.186061918418	GovernmentAgency	0.177297954253		GOLD_STANDARD:	
Patriotic Salvation Movement_**_http://dbpedia.org/resource/Patriotic_Salvation_Movement	PoliticalParty	0.277304142748	SocietalEvent	0.271874708356	Event	0.271874708356	MilitaryConflict	0.271874708356	MilitaryUnit	0.269511072232	ArchitecturalStructure	0.235314117607	Building	0.235314117607	Organisation	0.216379314632	Legislature	0.192674930971	Island	0.137777481844		GOLD_STANDARD:	Agent	Organisation	PoliticalParty
Mexico City_**_http://dbpedia.org/resource/Mexico_City	Region	0.211881771141	AdministrativeRegion	0.211881771141	SocietalEvent	0.178334875209	Event	0.178334875209	MilitaryConflict	0.178334875209	Country	0.175464139851	ArchitecturalStructure	0.163705704014	Building	0.163705704014	Place	0.161818006002	PopulatedPlace	0.161796308324		GOLD_STANDARD:	Place	PopulatedPlace	Settlement
Bill Clinton_**_http://dbpedia.org/resource/Bill_Clinton	OfficeHolder	0.382407430318	Person	0.328441933029	ArchitecturalStructure	0.294221658077	Building	0.294221658077	Agent	0.288049346498	Legislature	0.240130623802	SocietalEvent	0.233661090038	Event	0.233661090038	MilitaryConflict	0.233661090038	TelevisionStation	0.231702674057		GOLD_STANDARD:	Agent	Person	Politician	President
Serbs_**_http://dbpedia.org/resource/Serbia	Island	0.467786186791	Country	0.291130022462	PrimeMinister	0.27018140021	City	0.216794141035	PopulatedPlace	0.20616484931	Place	0.203521186297	Settlement	0.174175462165	President	0.141308031636	Politician	0.130575191311	SocietalEvent	0.102566924674		GOLD_STANDARD:	Place	PopulatedPlace	Country
Senegal_**_http://dbpedia.org/resource/Senegal	Country	0.259411613308	Island	0.219402185021	PopulatedPlace	0.190386280008	Place	0.188247958721	SocietalEvent	0.180588390114	Event	0.180588390114	MilitaryConflict	0.180588390114	Settlement	0.157322811007	President	0.156428306964	City	0.15193253746		GOLD_STANDARD:	Place	PopulatedPlace	Country
NATO_**_http://dbpedia.org/resource/NATO	Island	0.506065744223	Country	0.245344993111	PrimeMinister	0.223310374944	MilitaryUnit	0.19608794448	SocietalEvent	0.177497869983	Event	0.177497869983	MilitaryConflict	0.177497869983	PopulatedPlace	0.171218844441	Place	0.169697243688	GovernmentAgency	0.169253086713		GOLD_STANDARD:	Agent	Organisation
Srinagar_**_http://dbpedia.org/resource/Srinagar	City	0.234700532036	Settlement	0.203452023167	Legislature	0.170271025826	PrimeMinister	0.161471970997	PopulatedPlace	0.161000736	Place	0.159801068512	Country	0.141670145681	MilitaryUnit	0.128199648203	Island	0.121107348468	Town	0.115367154515		GOLD_STANDARD:	Place	PopulatedPlace	Settlement	City
Banja Luka_**_http://dbpedia.org/resource/Banja_Luka	Island	0.318533269286	PrimeMinister	0.283483378664	President	0.206371636959	Politician	0.179793504394	Country	0.172368099152	City	0.158412857004	Settlement	0.121447938687	PopulatedPlace	0.116005198573	Place	0.114274388711	Person	0.0686333193015		GOLD_STANDARD:	Place	PopulatedPlace	Settlement	City
Colorado_**_http://dbpedia.org/resource/Colorado	Region	0.343618655742	AdministrativeRegion	0.343618655742	Governor	0.174371684062	OfficeHolder	0.170007643531	PopulatedPlace	0.167842114764	Place	0.1676039236	GovernmentAgency	0.158397706893	Town	0.148727340415	ArchitecturalStructure	0.146881292392	Building	0.146881292392		GOLD_STANDARD:	
Mobutu Sese Seko_**_http://dbpedia.org/resource/Mobutu_Sese_Seko	President	0.228647996376	Politician	0.183624151969	SocietalEvent	0.181822882837	Event	0.181822882837	MilitaryConflict	0.181822882837	Island	0.15851155153	PrimeMinister	0.156824125648	ArchitecturalStructure	0.122572122277	Building	0.122572122277	Country	0.121053796968		GOLD_STANDARD:	Agent	Person	Politician	President
Balkans_**_http://dbpedia.org/resource/Balkans	SocietalEvent	0.324199398829	Event	0.324199398829	MilitaryConflict	0.324199398829	Country	0.298726675286	PrimeMinister	0.286258324814	PopulatedPlace	0.199840673392	Place	0.197148699465	President	0.166199967184	City	0.159128046147	Politician	0.148929352665		GOLD_STANDARD:	Place	PopulatedPlace	Island
Transcendental Meditation_**_http://dbpedia.org/resource/Transcendental_Meditation	SocietalEvent	0.133305293509	Event	0.133305293509	MilitaryConflict	0.133305293509	ArchitecturalStructure	0.114288325604	Building	0.114288325604	MilitaryUnit	0.110857886817	PoliticalParty	0.0884541133677	President	0.0831594766562	Organisation	0.0695298552911	Agent	0.062934911863		GOLD_STANDARD:	
Toomas Savi_**_http://dbpedia.org/resource/Toomas_Savi	PrimeMinister	0.226724165774	President	0.187247747023	Politician	0.157262381674	SocietalEvent	0.105665902063	Event	0.105665902063	MilitaryConflict	0.105665902063	Country	0.101656412027	Island	0.099286717998	Person	0.0901362392515	OfficeHolder	0.0743332275556		GOLD_STANDARD:	Agent	Person
Hungarian_**_http://dbpedia.org/resource/Hungary	Country	0.346770668186	Island	0.325191128708	PrimeMinister	0.288375759485	SocietalEvent	0.235708514401	Event	0.235708514401	MilitaryConflict	0.235708514401	PopulatedPlace	0.220070227409	Place	0.218318803431	City	0.179512282541	Settlement	0.135742472794		GOLD_STANDARD:	Place	PopulatedPlace	Country
Biljana Plavsic_**_http://dbpedia.org/resource/Biljana_Plavšić	Island	0.351982374861	PrimeMinister	0.284238040597	President	0.239573943243	Country	0.229063369662	Politician	0.208662325269	City	0.183643049107	PopulatedPlace	0.15736396463	Place	0.155886166126	Settlement	0.140632425288	SocietalEvent	0.134325734124		GOLD_STANDARD:	
Republican Party_**_http://dbpedia.org/resource/Republican_Party_(United_States)	PoliticalParty	0.585809796385	Organisation	0.419917649277	Legislature	0.384356550782	ArchitecturalStructure	0.376071244439	Building	0.376071244439	Agent	0.254097856292	SocietalEvent	0.22102042807	Event	0.22102042807	MilitaryConflict	0.22102042807	OfficeHolder	0.209566314774		GOLD_STANDARD:	Agent	Organisation	PoliticalParty
Mobutu_**_http://dbpedia.org/resource/Mobutu_Sese_Seko	SocietalEvent	0.259791863402	Event	0.259791863402	MilitaryConflict	0.259791863402	Island	0.240496511085	President	0.213227390991	PrimeMinister	0.16841411843	Politician	0.161487270969	OfficeHolder	0.148832885918	Country	0.147638647471	Person	0.13973388026		GOLD_STANDARD:	Agent	Person	Politician	President
Daschle_**_http://dbpedia.org/resource/Tom_Daschle	Legislature	0.361988941442	OfficeHolder	0.283646385231	President	0.250141480752	Person	0.243772441144	PoliticalParty	0.24199275553	TelevisionStation	0.236587599085	Agent	0.23318267935	Broadcaster	0.226540703436	Politician	0.224324767274	BroadcastNetwork	0.221517255611		GOLD_STANDARD:	Agent	Person	OfficeHolder
Congress_**_http://dbpedia.org/resource/United_States_Congress	ArchitecturalStructure	0.33493903479	Building	0.33493903479	PoliticalParty	0.301348159545	Organisation	0.24077424465	TelevisionStation	0.193275765375	SocietalEvent	0.190661649611	Event	0.190661649611	MilitaryConflict	0.190661649611	GovernmentAgency	0.173041555104	Broadcaster	0.144326729975		GOLD_STANDARD:	Agent	Organisation	Legislature
North_**_http://dbpedia.org/resource/North_Kivu	SocietalEvent	0.153947533359	Event	0.153947533359	MilitaryConflict	0.153947533359	ArchitecturalStructure	0.1424348878	Building	0.1424348878	Governor	0.139881561645	Region	0.122588677066	AdministrativeRegion	0.122588677066	Legislature	0.0775122619769	MilitaryUnit	0.072770347597		GOLD_STANDARD:	Place	PopulatedPlace	Settlement
Guerrero_**_http://dbpedia.org/resource/Guerrero	Governor	0.243653308861	Town	0.206971135191	PrimeMinister	0.199249372122	Region	0.152855591163	AdministrativeRegion	0.152855591163	OfficeHolder	0.115430601224	ArchitecturalStructure	0.107493240776	Building	0.107493240776	Politician	0.106241011336	Country	0.104536182097		GOLD_STANDARD:	Place	PopulatedPlace	Settlement
Sarah_**_http://dbpedia.org/resource/Sarah_Brady	OfficeHolder	0.220080246711	Person	0.212460655903	President	0.191811016346	Company	0.186632880585	Politician	0.179863274989	Agent	0.165917652057	BroadcastNetwork	0.122936175972	Broadcaster	0.112517306525	TelevisionStation	0.0916795676324	Region	0.0872556905494		GOLD_STANDARD:	Agent	Person
Dayton_**_http://dbpedia.org/resource/Dayton,_Ohio	Region	0.290372475864	AdministrativeRegion	0.290372475864	Governor	0.251050581873	OfficeHolder	0.18212365811	Island	0.177983704234	City	0.153306776566	Person	0.15306433136	PopulatedPlace	0.150897254305	Place	0.150312733575	GovernmentAgency	0.150307749144		GOLD_STANDARD:	Place	PopulatedPlace	Settlement	City
IRVINE_**_http://dbpedia.org/resource/Irvine,_California	Settlement	0.166445143448	City	0.156731744631	Governor	0.135742159138	Region	0.132162651543	AdministrativeRegion	0.132162651543	PopulatedPlace	0.10594514292	Place	0.105306136488	Company	0.08653835801	ArchitecturalStructure	0.0497125768477	Building	0.0497125768477		GOLD_STANDARD:	Place	PopulatedPlace	Settlement	City
ABC_**_http://dbpedia.org/resource/American_Broadcasting_Company	BroadcastNetwork	0.828420903635	Broadcaster	0.693376621712	TelevisionStation	0.558332339789	PrimeMinister	0.191034879518	Company	0.174932857291	Organisation	0.16543477065	Governor	0.162507090382	GovernmentAgency	0.147142332276	OfficeHolder	0.145140691463	Agent	0.140402184592		GOLD_STANDARD:	Agent	Organisation	Broadcaster	BroadcastNetwork
Mass_**_http://dbpedia.org/resource/Massachusetts	BroadcastNetwork	0.145493140069	PrimeMinister	0.13066660379	SocietalEvent	0.128035684191	Event	0.128035684191	MilitaryConflict	0.128035684191	Broadcaster	0.119572493499	Region	0.10638623523	AdministrativeRegion	0.10638623523	Organisation	0.0834870488071	Country	0.0829608906415		GOLD_STANDARD:	
Gephardt_**_http://dbpedia.org/resource/Dick_Gephardt	Legislature	0.286975948311	PoliticalParty	0.285161671592	OfficeHolder	0.284795077098	SocietalEvent	0.272823324762	Event	0.272823324762	MilitaryConflict	0.272823324762	TelevisionStation	0.260704950883	Person	0.241598923537	President	0.238049178738	Agent	0.235562588042		GOLD_STANDARD:	Agent	Person	OfficeHolder
Democratic_**_http://dbpedia.org/resource/Democratic_Party_(United_States)	PoliticalParty	0.486458107121	Legislature	0.407892357879	Organisation	0.36079299302	ArchitecturalStructure	0.282537031133	Building	0.282537031133	TelevisionStation	0.275102114386	Agent	0.245308158616	OfficeHolder	0.226436042575	GovernmentAgency	0.211044385257	President	0.210582857836		GOLD_STANDARD:	Agent	Organisation	PoliticalParty
BELGRADE_**_http://dbpedia.org/resource/Belgrade	City	0.290206235734	Island	0.268552855422	Settlement	0.259660055988	Country	0.212225032454	PopulatedPlace	0.203067476474	Place	0.20128613517	PrimeMinister	0.128098251865	Company	0.12492312279	PoliticalParty	0.107251833231	Region	0.0970787771221		GOLD_STANDARD:	Place	PopulatedPlace	Settlement	City
Estonian_**_http://dbpedia.org/resource/Estonia	Country	0.316797893747	Island	0.283320187386	PrimeMinister	0.25322430984	PopulatedPlace	0.216379474061	Place	0.214700703804	City	0.192301271902	SocietalEvent	0.182027940574	Event	0.182027940574	MilitaryConflict	0.182027940574	Settlement	0.156096239707		GOLD_STANDARD:	Place	PopulatedPlace	Country
European Union_**_http://dbpedia.org/resource/European_Union	Island	0.374544710938	Country	0.296393834317	Legislature	0.247210072114	PrimeMinister	0.247040504086	PopulatedPlace	0.221151399266	Place	0.220112566092	Region	0.1904766504	AdministrativeRegion	0.1904766504	SocietalEvent	0.181661746854	Event	0.181661746854		GOLD_STANDARD:	Place	PopulatedPlace	Country
Croat_**_http://dbpedia.org/resource/Croatia	Island	0.353319514455	Country	0.319360023746	PrimeMinister	0.269661201919	PopulatedPlace	0.212901038922	Place	0.20999975328	SocietalEvent	0.199769276407	Event	0.199769276407	MilitaryConflict	0.199769276407	City	0.194614993571	Settlement	0.163852044223		GOLD_STANDARD:	Place	PopulatedPlace	Country
Hungary_**_http://dbpedia.org/resource/Hungary	Island	0.435662502146	Country	0.310886795721	PrimeMinister	0.267478093961	SocietalEvent	0.263417240909	Event	0.263417240909	MilitaryConflict	0.263417240909	PopulatedPlace	0.212442125991	Place	0.210385069831	City	0.168463324006	Region	0.158413494453		GOLD_STANDARD:	Place	PopulatedPlace	Country
Wisconsin_**_http://dbpedia.org/resource/Wisconsin	Region	0.39396502425	AdministrativeRegion	0.39396502425	PopulatedPlace	0.183736286968	Place	0.183221818305	Town	0.177582356178	OfficeHolder	0.163277700152	City	0.153229815498	SocietalEvent	0.152665408439	Event	0.152665408439	MilitaryConflict	0.152665408439		GOLD_STANDARD:	
Doboj_**_http://dbpedia.org/resource/Doboj	Island	0.40302509638	PrimeMinister	0.224215537941	Country	0.221351824504	City	0.218367289434	PopulatedPlace	0.161346505877	Place	0.158728884438	Settlement	0.156163848837	SocietalEvent	0.142847625515	Event	0.142847625515	MilitaryConflict	0.142847625515		GOLD_STANDARD:	Place	PopulatedPlace	Settlement
Newt Gingrich_**_http://dbpedia.org/resource/Newt_Gingrich	TelevisionStation	0.335377670383	PoliticalParty	0.32549214421	ArchitecturalStructure	0.321315305549	Building	0.321315305549	Legislature	0.311073756552	OfficeHolder	0.294181103364	Organisation	0.260030211212	PrimeMinister	0.259653731094	Broadcaster	0.259406015378	Town	0.257845420791		GOLD_STANDARD:	Agent	Person	OfficeHolder
U.N._**_http://dbpedia.org/resource/United_Nations	Island	0.268563023306	Legislature	0.249430875314	TelevisionStation	0.230687893313	SocietalEvent	0.227796449566	Event	0.227796449566	MilitaryConflict	0.227796449566	Broadcaster	0.18061438533	GovernmentAgency	0.179427655537	PrimeMinister	0.17334869413	Country	0.171408597268		GOLD_STANDARD:	Place	PopulatedPlace	Country
Moslem_**_http://dbpedia.org/resource/Islam	Island	0.317086374441	Country	0.21059708353	SocietalEvent	0.203027301939	Event	0.203027301939	MilitaryConflict	0.203027301939	PrimeMinister	0.187814546948	PoliticalParty	0.163173070229	PopulatedPlace	0.136281507197	Place	0.13532526906	Organisation	0.135301018602		GOLD_STANDARD:	
Serb_**_http://dbpedia.org/resource/Serbia	Island	0.431277350053	Country	0.354372872254	PrimeMinister	0.266864050978	City	0.249922598179	PopulatedPlace	0.248705303278	Place	0.245823470904	Settlement	0.202100479846	SocietalEvent	0.150841970279	Event	0.150841970279	MilitaryConflict	0.150841970279		GOLD_STANDARD:	Place	PopulatedPlace	Country
Islamic_**_http://dbpedia.org/resource/Islam	PoliticalParty	0.206621695955	Island	0.190641078286	SocietalEvent	0.189812412575	Event	0.189812412575	MilitaryConflict	0.189812412575	GovernmentAgency	0.189203996862	Organisation	0.166814548778	Country	0.16548455448	PopulatedPlace	0.116304730484	Place	0.115438409666		GOLD_STANDARD:	
Scotland_**_http://dbpedia.org/resource/Scotland	Island	0.236222229271	Governor	0.22724113656	Country	0.20168200751	PopulatedPlace	0.173456144277	Place	0.172741930117	Region	0.152397202941	AdministrativeRegion	0.152397202941	PoliticalParty	0.145678769899	City	0.135203822264	Settlement	0.133935163682		GOLD_STANDARD:	Place	PopulatedPlace
Kurt Schork_**_http://dbpedia.org/resource/Kurt_Schork	OfficeHolder	0.209278707045	Person	0.1961825998	Town	0.164111371212	Island	0.152476418936	Politician	0.146896470171	Agent	0.146443978899	President	0.134934393121	Company	0.108510346979	PrimeMinister	0.104055185673	Region	0.101728103894		GOLD_STANDARD:	Agent	Person
Republicans_**_http://dbpedia.org/resource/Republican_Party_(United_States)	Legislature	0.492124736265	PoliticalParty	0.408104097703	ArchitecturalStructure	0.327606729788	Building	0.327606729788	Organisation	0.31099349958	OfficeHolder	0.263421355787	Agent	0.246995446295	GovernmentAgency	0.238295507412	TelevisionStation	0.226736596022	Person	0.216139242032		GOLD_STANDARD:	Agent	Organisation	PoliticalParty
Ohio_**_http://dbpedia.org/resource/Ohio	Region	0.413041582386	AdministrativeRegion	0.413041582386	Governor	0.206133501363	Island	0.196848410392	PopulatedPlace	0.194381430432	Place	0.194029814476	GovernmentAgency	0.168400267528	City	0.166934393692	ArchitecturalStructure	0.163439226332	Building	0.163439226332		GOLD_STANDARD:	
Weld_**_http://dbpedia.org/resource/William_Weld	Governor	0.282929423263	ArchitecturalStructure	0.229787992301	Building	0.229787992301	OfficeHolder	0.227563673905	Person	0.181430747315	Region	0.181008559151	AdministrativeRegion	0.181008559151	Agent	0.157623184955	PoliticalParty	0.152017396183	Politician	0.133832609307		GOLD_STANDARD:	Agent	Person	OfficeHolder
Popular Revolutionary Army_**_http://dbpedia.org/resource/Popular_Revolutionary_Army	SocietalEvent	0.360514718052	Event	0.360514718052	MilitaryConflict	0.360514718052	MilitaryUnit	0.296583114344	Legislature	0.235228983987	PoliticalParty	0.233294872502	Organisation	0.204063692385	ArchitecturalStructure	0.191703343099	Building	0.191703343099	Country	0.143024350929		GOLD_STANDARD:	
Slobodan Milosevic_**_http://dbpedia.org/resource/Slobodan_Milošević	Island	0.431476286205	PrimeMinister	0.35021458578	Country	0.27459020373	President	0.248809596103	City	0.227399286913	Politician	0.216575778659	PopulatedPlace	0.190865638473	Place	0.188260628946	Settlement	0.175231457344	SocietalEvent	0.17173271539		GOLD_STANDARD:	
Britain_**_http://dbpedia.org/resource/United_Kingdom	Island	0.321287746409	Country	0.237732817498	SocietalEvent	0.212762729863	Event	0.212762729863	MilitaryConflict	0.212762729863	Company	0.205115942337	PopulatedPlace	0.193763264878	Place	0.193726711381	ArchitecturalStructure	0.190546557166	Building	0.190546557166		GOLD_STANDARD:	Place	PopulatedPlace	Country
White House_**_http://dbpedia.org/resource/White_House	Governor	0.342185618423	Legislature	0.33493903479	PoliticalParty	0.279979477787	Town	0.267789795354	Company	0.236627969105	Organisation	0.230029619608	OfficeHolder	0.198558667636	Agent	0.188259596796	Person	0.16737458539	MilitaryUnit	0.153221981066		GOLD_STANDARD:	
Zaire_**_http://dbpedia.org/resource/Democratic_Republic_of_the_Congo	Island	0.301734314618	President	0.223365960917	SocietalEvent	0.211971770907	Event	0.211971770907	MilitaryConflict	0.211971770907	Politician	0.174725670988	Country	0.153372431671	PrimeMinister	0.116116776626	PopulatedPlace	0.108507589535	Place	0.1079473215		GOLD_STANDARD:	Place	PopulatedPlace	Country
John Kerry_**_http://dbpedia.org/resource/John_Kerry	OfficeHolder	0.356522605564	Person	0.328225535826	SocietalEvent	0.305953839489	Event	0.305953839489	MilitaryConflict	0.305953839489	Agent	0.268924305754	Politician	0.249711292929	Governor	0.233407865489	President	0.230679982383	Company	0.223538848696		GOLD_STANDARD:	Agent	Person	OfficeHolder
KINSHASA_**_http://dbpedia.org/resource/Kinshasa	Settlement	0.266933336102	City	0.265299404491	PopulatedPlace	0.189246535975	Place	0.1877581997	Company	0.16487561875	Country	0.164438422431	Island	0.114183429762	Region	0.100468572391	AdministrativeRegion	0.100468572391	Legislature	0.0948886097388		GOLD_STANDARD:	Place	PopulatedPlace	Settlement	City
Meri_**_http://dbpedia.org/resource/Lennart_Meri	President	0.205052116858	Politician	0.159493113657	Person	0.1167459768	Island	0.114742296266	SocietalEvent	0.113327372829	Event	0.113327372829	MilitaryConflict	0.113327372829	OfficeHolder	0.103222031747	Agent	0.0902032677986	Town	0.0844965977759		GOLD_STANDARD:	Agent	Person	Politician	President
Ruutel_**_http://dbpedia.org/resource/Arnold_Rüütel	PrimeMinister	0.311347766107	President	0.219348137172	Island	0.209108763906	PoliticalParty	0.200793511277	Politician	0.192965508284	Country	0.18153970565	Organisation	0.15127524461	Legislature	0.131399392847	Agent	0.126927897165	PopulatedPlace	0.115036702039		GOLD_STANDARD:	
GREEK_**_http://dbpedia.org/resource/Greece	PrimeMinister	0.325176516464	Island	0.17524765197	Country	0.152915084674	City	0.151258661689	BroadcastNetwork	0.143509341107	Settlement	0.134318060762	PopulatedPlace	0.129381290983	Place	0.127710151413	Broadcaster	0.102199657119	Region	0.0787726484697		GOLD_STANDARD:	Place	PopulatedPlace	Country
Gupta_**_http://dbpedia.org/resource/Indrajit_Gupta	Legislature	0.219006329492	PrimeMinister	0.17955084288	President	0.140989464708	Politician	0.131835036773	Governor	0.0967562909738	Person	0.0933191644796	TelevisionStation	0.0916139847513	City	0.0826556377634	OfficeHolder	0.0800943387335	MilitaryUnit	0.0787134945765		GOLD_STANDARD:	Agent	Person	OfficeHolder
West Virginia_**_http://dbpedia.org/resource/West_Virginia	Region	0.343537826822	AdministrativeRegion	0.343537826822	Governor	0.249552067089	ArchitecturalStructure	0.205188740364	Building	0.205188740364	SocietalEvent	0.184291861972	Event	0.184291861972	MilitaryConflict	0.184291861972	Town	0.183940797326	Place	0.177395330534		GOLD_STANDARD:	
South Dakota_**_http://dbpedia.org/resource/South_Dakota	Region	0.230951184435	AdministrativeRegion	0.230951184435	ArchitecturalStructure	0.226722607699	Building	0.226722607699	Governor	0.215097936859	OfficeHolder	0.179263600374	SocietalEvent	0.174028848268	Event	0.174028848268	MilitaryConflict	0.174028848268	Island	0.161311451566		GOLD_STANDARD:	
Belgrade_**_http://dbpedia.org/resource/Belgrade	Island	0.432251740422	Country	0.297985200682	City	0.258829233202	PrimeMinister	0.257408029727	PopulatedPlace	0.226810665197	Place	0.224706028675	Settlement	0.207480280722	President	0.132087589458	Politician	0.131422025443	Region	0.113270288829		GOLD_STANDARD:	Place	PopulatedPlace	Settlement	City
Costis Stephanopoulos_**_http://dbpedia.org/resource/Konstantinos_Stephanopoulos	PrimeMinister	0.546646718032	BroadcastNetwork	0.280590228293	Broadcaster	0.272882573136	TelevisionStation	0.25746726282	Politician	0.209697768833	OfficeHolder	0.204429826308	Person	0.189522177597	President	0.188676185185	Island	0.184190966052	Agent	0.178441800937		GOLD_STANDARD:	Agent	Person	Politician	President
SRINAGAR_**_http://dbpedia.org/resource/Srinagar	City	0.243244343628	Settlement	0.232620219478	Legislature	0.188117628191	PopulatedPlace	0.164799215155	Place	0.163176697704	MilitaryUnit	0.130344366711	Country	0.125138620517	Region	0.104563623983	AdministrativeRegion	0.104563623983	PoliticalParty	0.0979559485251		GOLD_STANDARD:	Place	PopulatedPlace	Settlement	City
Costas Simitis_**_http://dbpedia.org/resource/Costas_Simitis	Island	0.286258324814	Country	0.197019646452	TelevisionStation	0.194650016931	President	0.189620720572	Broadcaster	0.183121012323	OfficeHolder	0.180111540846	BroadcastNetwork	0.177356510019	Town	0.175005015629	Politician	0.163929046348	Person	0.157819840755		GOLD_STANDARD:	Agent	Person	Politician	PrimeMinister
Reeve_**_http://dbpedia.org/resource/Christopher_Reeve	Governor	0.327011438687	Town	0.216296664127	OfficeHolder	0.205067731814	Person	0.187083181675	ArchitecturalStructure	0.172575934453	Building	0.172575934453	SocietalEvent	0.15976032616	Event	0.15976032616	MilitaryConflict	0.15976032616	Agent	0.143319326802		GOLD_STANDARD:	Agent	Person
William Weld_**_http://dbpedia.org/resource/William_Weld	OfficeHolder	0.339652470047	Company	0.323808892339	Person	0.293751299529	Governor	0.275928030566	ArchitecturalStructure	0.252055131893	Building	0.252055131893	Agent	0.234248338509	Politician	0.193381404471	President	0.193333658491	Region	0.187247606563		GOLD_STANDARD:	Agent	Person	OfficeHolder
Reagan_**_http://dbpedia.org/resource/Ronald_Reagan	SocietalEvent	0.367000620978	Event	0.367000620978	MilitaryConflict	0.367000620978	OfficeHolder	0.315180962103	Person	0.280543394809	President	0.261562552009	Agent	0.250289066256	Legislature	0.246480265181	PrimeMinister	0.24050362589	Politician	0.240027409308		GOLD_STANDARD:	Agent	Person	OfficeHolder
Michigan_**_http://dbpedia.org/resource/Michigan	Region	0.411709643487	AdministrativeRegion	0.411709643487	Town	0.205573384533	PopulatedPlace	0.190629410038	Place	0.190039502472	Island	0.17742219757	City	0.172329271541	Settlement	0.158625741243	Governor	0.14545355818	Country	0.142587472435		GOLD_STANDARD:	
New Delhi_**_http://dbpedia.org/resource/New_Delhi	Legislature	0.220894918407	City	0.191523150728	Settlement	0.190274150777	MilitaryUnit	0.180392702819	Region	0.173728701431	AdministrativeRegion	0.173728701431	PopulatedPlace	0.170535432425	Place	0.17050637828	ArchitecturalStructure	0.167978667632	Building	0.167978667632		GOLD_STANDARD:	Place	PopulatedPlace	Settlement	City
Alija Izetbegovic_**_http://dbpedia.org/resource/Alija_Izetbegović	Island	0.414911785626	PrimeMinister	0.293946969378	President	0.257807617678	Country	0.240098358617	Politician	0.223064533304	City	0.200175578213	PopulatedPlace	0.16440672929	Place	0.162294294752	SocietalEvent	0.151732133049	Event	0.151732133049		GOLD_STANDARD:	
Serbia_**_http://dbpedia.org/resource/Serbia	Island	0.556465475915	Country	0.366614336452	PrimeMinister	0.282660615828	PopulatedPlace	0.260440405662	Place	0.257193092154	City	0.252629559933	Settlement	0.205979932711	SocietalEvent	0.178020248697	Event	0.178020248697	MilitaryConflict	0.178020248697		GOLD_STANDARD:	Place	PopulatedPlace	Country
Chicago_**_http://dbpedia.org/resource/Chicago	Region	0.255333925612	AdministrativeRegion	0.255333925612	Town	0.192477081881	GovernmentAgency	0.184775602297	City	0.165848055913	ArchitecturalStructure	0.164283755624	Building	0.164283755624	Settlement	0.156085387932	Place	0.149964851605	PopulatedPlace	0.149800266501		GOLD_STANDARD:	Place	PopulatedPlace	Settlement	City
Scottish_**_http://dbpedia.org/resource/Scotland	Country	0.237711939725	Governor	0.207698132524	PoliticalParty	0.199405177862	PopulatedPlace	0.185090658809	Place	0.184621341144	Island	0.183173691162	Organisation	0.147065464937	ArchitecturalStructure	0.143790704263	Building	0.143790704263	City	0.14243411542		GOLD_STANDARD:	Place	PopulatedPlace
Moslems_**_http://dbpedia.org/resource/Islam	Island	0.281938367216	PrimeMinister	0.169900303641	Country	0.150877989137	GovernmentAgency	0.148121037564	PoliticalParty	0.144972506287	SocietalEvent	0.13684486285	Event	0.13684486285	MilitaryConflict	0.13684486285	President	0.118831436119	Organisation	0.117605166358		GOLD_STANDARD:	
Tom Daschle_**_http://dbpedia.org/resource/Tom_Daschle	OfficeHolder	0.390861312581	Person	0.343553475855	Agent	0.291707708456	Politician	0.266169066594	President	0.260052380675	ArchitecturalStructure	0.235833536034	Building	0.235833536034	GovernmentAgency	0.229375073429	PoliticalParty	0.213122087074	SocietalEvent	0.209053589247		GOLD_STANDARD:	Agent	Person	OfficeHolder
GMT_**_http://dbpedia.org/resource/Greenwich_Mean_Time	TelevisionStation	0.159213633833	Company	0.150720667134	Broadcaster	0.132071109488	BroadcastNetwork	0.118499847316	City	0.0845235364958	Country	0.0843939501421	Settlement	0.0842724398402	Organisation	0.083412224804	PopulatedPlace	0.0755746138532	Place	0.0746028843758		GOLD_STANDARD:	
Massachusetts_**_http://dbpedia.org/resource/Massachusetts	Region	0.327798783529	AdministrativeRegion	0.327798783529	OfficeHolder	0.157961172868	PopulatedPlace	0.14778854656	Place	0.147145039738	Person	0.137482802331	Settlement	0.121508116487	Agent	0.119454910134	Country	0.112824573382	City	0.112258449182		GOLD_STANDARD:	
Scottish Labour Party_**_http://dbpedia.org/resource/Scottish_Labour_Party	PoliticalParty	0.50209974719	Organisation	0.354209403681	ArchitecturalStructure	0.287246274273	Building	0.287246274273	Legislature	0.221601050149	Agent	0.196879952378	PrimeMinister	0.193672020469	SocietalEvent	0.176427234743	Event	0.176427234743	MilitaryConflict	0.176427234743		GOLD_STANDARD:	Agent	Organisation	PoliticalParty
Serbian_**_http://dbpedia.org/resource/Serbia	Island	0.433456090618	Country	0.391830898424	PrimeMinister	0.311697425274	PopulatedPlace	0.266405334997	City	0.265579885688	Place	0.263319045072	Settlement	0.209502654451	SocietalEvent	0.140665005406	Event	0.140665005406	MilitaryConflict	0.140665005406		GOLD_STANDARD:	Place	PopulatedPlace	Country
Greek_**_http://dbpedia.org/resource/Greece	PrimeMinister	0.570642232195	Country	0.268973849	Island	0.265620591013	PopulatedPlace	0.165877685575	Place	0.164861465912	City	0.126605603128	Politician	0.114038649348	SocietalEvent	0.104174354947	Event	0.104174354947	MilitaryConflict	0.104174354947		GOLD_STANDARD:	Place	PopulatedPlace	Country
Perot_**_http://dbpedia.org/resource/Ross_Perot	OfficeHolder	0.244660904781	Person	0.210685030145	SocietalEvent	0.210361007382	Event	0.210361007382	MilitaryConflict	0.210361007382	Agent	0.187001911249	PoliticalParty	0.168816751884	TelevisionStation	0.165119316155	Broadcaster	0.163862883233	BroadcastNetwork	0.163234666772		GOLD_STANDARD:	Agent	Person
ATHENS_**_http://dbpedia.org/resource/Athens	City	0.246386486379	PrimeMinister	0.242498047003	Settlement	0.235346967296	PopulatedPlace	0.155063455226	Place	0.154066321369	Town	0.126080062755	Country	0.119340250327	Company	0.119096909917	Island	0.10596494397	Governor	0.0969115341764		GOLD_STANDARD:	
John Kornblum_**_http://dbpedia.org/resource/John_C._Kornblum	OfficeHolder	0.345360504967	Governor	0.33250372811	Person	0.32100314014	Company	0.265686129867	Agent	0.243582051652	SocietalEvent	0.225402322799	Event	0.225402322799	MilitaryConflict	0.225402322799	Politician	0.223991416616	GovernmentAgency	0.202748175973		GOLD_STANDARD:	Agent	Person
DAKAR_**_http://dbpedia.org/resource/Dakar	City	0.264448439098	Settlement	0.250426185546	PopulatedPlace	0.173339325142	Place	0.17139825477	Country	0.15044289924	Island	0.0984817844866	Region	0.0911049042636	AdministrativeRegion	0.0911049042636	Company	0.0827704600783	President	0.0733769927999		GOLD_STANDARD:	Place	PopulatedPlace	Settlement
Gingrich_**_http://dbpedia.org/resource/Newt_Gingrich	TelevisionStation	0.345570219487	PoliticalParty	0.301251096335	PrimeMinister	0.300898045562	Legislature	0.298573400036	ArchitecturalStructure	0.287459426533	Building	0.287459426533	Town	0.280362899038	Broadcaster	0.273163642695	OfficeHolder	0.269603393276	Organisation	0.248262600812		GOLD_STANDARD:	Agent	Person	OfficeHolder
ABC News_**_http://dbpedia.org/resource/American_Broadcasting_Company	BroadcastNetwork	0.828420903635	Broadcaster	0.719181094143	TelevisionStation	0.609941284651	Company	0.201026858376	Organisation	0.187633013497	Governor	0.180326085727	GovernmentAgency	0.165548612583	PrimeMinister	0.163678140519	SocietalEvent	0.160697738139	Event	0.160697738139		GOLD_STANDARD:	Agent	Organisation	Broadcaster	BroadcastNetwork
Dole_**_http://dbpedia.org/resource/Bob_Dole	SocietalEvent	0.317705487174	Event	0.317705487174	MilitaryConflict	0.317705487174	TelevisionStation	0.251061406542	OfficeHolder	0.239319344869	Broadcaster	0.218151666586	Person	0.209362882734	Governor	0.202342127726	BroadcastNetwork	0.201696796608	Agent	0.19175936504		GOLD_STANDARD:	Agent	Person	OfficeHolder
Conservative_**_http://dbpedia.org/resource/Conservative_Party_(UK)	PoliticalParty	0.442880489575	Organisation	0.310731451036	ArchitecturalStructure	0.23860719193	Building	0.23860719193	Agent	0.195042091204	Legislature	0.183883765738	PrimeMinister	0.166584384926	OfficeHolder	0.161090198647	Governor	0.151784474963	Person	0.139263292714		GOLD_STANDARD:	Agent	Organisation	PoliticalParty
British Labour Party_**_http://dbpedia.org/resource/Labour_Party_(UK)	PoliticalParty	0.49668016948	Organisation	0.365091637714	ArchitecturalStructure	0.320225422065	Building	0.320225422065	Legislature	0.261707225694	SocietalEvent	0.242792932381	Event	0.242792932381	MilitaryConflict	0.242792932381	Agent	0.202501489738	Country	0.199501514608		GOLD_STANDARD:	Agent	Organisation	PoliticalParty
Bosnia_**_http://dbpedia.org/resource/Bosnia	Island	0.705760375205	SocietalEvent	0.360899130736	Event	0.360899130736	MilitaryConflict	0.360899130736	Country	0.331277682275	PopulatedPlace	0.236946608809	Place	0.234479287255	City	0.202084214236	President	0.193637979626	Settlement	0.17404580952		GOLD_STANDARD:	
Zagreb_**_http://dbpedia.org/resource/Zagreb	Island	0.372859300822	PrimeMinister	0.327336230072	Country	0.298229155512	City	0.254577429916	PopulatedPlace	0.219555150789	Place	0.216598268177	Settlement	0.19641457052	SocietalEvent	0.138377058896	Event	0.138377058896	MilitaryConflict	0.138377058896		GOLD_STANDARD:	Place	PopulatedPlace	Settlement	City
Lebanese_**_http://dbpedia.org/resource/Lebanon	Country	0.295984289147	PrimeMinister	0.283684362188	Island	0.23523185605	PopulatedPlace	0.190912308369	Place	0.189262995082	SocietalEvent	0.175134441708	Event	0.175134441708	MilitaryConflict	0.175134441708	City	0.144313570025	Settlement	0.133864671867		GOLD_STANDARD:	Place	PopulatedPlace	Country
Ross Perot_**_http://dbpedia.org/resource/Ross_Perot	Governor	0.470390181529	OfficeHolder	0.338261866424	Person	0.299487534605	Agent	0.247347025458	ArchitecturalStructure	0.228054194058	Building	0.228054194058	Town	0.208197154517	Politician	0.206804576957	BroadcastNetwork	0.198693521621	Broadcaster	0.186347643801		GOLD_STANDARD:	Agent	Person
Culpepper_**_http://dbpedia.org/resource/Culpeper,_Virginia	Governor	0.363774985678	ArchitecturalStructure	0.267789795354	Building	0.267789795354	PrimeMinister	0.175005015629	OfficeHolder	0.168147150451	GovernmentAgency	0.162702351082	Person	0.146829016946	Region	0.128366072738	AdministrativeRegion	0.128366072738	Agent	0.126282627922		GOLD_STANDARD:	Place	PopulatedPlace	Settlement	Town
Tony Blair_**_http://dbpedia.org/resource/Tony_Blair	Governor	0.373880286103	OfficeHolder	0.321623411149	Person	0.291820404781	ArchitecturalStructure	0.267451196013	Building	0.267451196013	Agent	0.241647005205	Politician	0.229233130494	Company	0.223575266044	PrimeMinister	0.22022310334	President	0.176458159158		GOLD_STANDARD:	Agent	Person	OfficeHolder
Richard Gephardt_**_http://dbpedia.org/resource/Dick_Gephardt	OfficeHolder	0.409552691254	Person	0.363455482031	Agent	0.306630711761	President	0.271589481578	SocietalEvent	0.262919647359	Event	0.262919647359	MilitaryConflict	0.262919647359	Politician	0.260394151984	Company	0.249528532646	PoliticalParty	0.229810917103		GOLD_STANDARD:	Agent	Person	OfficeHolder
Reuters_**_http://dbpedia.org/resource/Reuters	TelevisionStation	0.361642235707	Broadcaster	0.290825783095	BroadcastNetwork	0.25541755679	City	0.132474078436	Settlement	0.122119661352	Country	0.114191499756	PopulatedPlace	0.105530695122	Place	0.104531352942	Organisation	0.100057989359	GovernmentAgency	0.087109346507		GOLD_STANDARD:	Agent	Organisation	Company
John Major_**_http://dbpedia.org/resource/John_Major	Company	0.292763497506	OfficeHolder	0.249823637294	Person	0.238103915035	SocietalEvent	0.227151668002	Event	0.227151668002	MilitaryConflict	0.227151668002	Agent	0.19815361536	Governor	0.174651149208	MilitaryUnit	0.174561786347	Politician	0.163100884752		GOLD_STANDARD:	Agent	Person	OfficeHolder
Republican_**_http://dbpedia.org/resource/Republican_Party_(United_States)	PoliticalParty	0.497079375937	Organisation	0.361733596871	Legislature	0.358381901027	ArchitecturalStructure	0.309152311285	Building	0.309152311285	OfficeHolder	0.267661358137	Agent	0.265704611402	GovernmentAgency	0.251816616188	TelevisionStation	0.244431735194	Person	0.219404921979		GOLD_STANDARD:	Agent	Organisation	PoliticalParty
English_**_http://dbpedia.org/resource/England	Governor	0.191712667593	Country	0.150517028762	SocietalEvent	0.135772681628	Event	0.135772681628	MilitaryConflict	0.135772681628	ArchitecturalStructure	0.113586967427	Building	0.113586967427	Company	0.106211835334	BroadcastNetwork	0.102836962296	Broadcaster	0.0999317950719		GOLD_STANDARD:	Place	PopulatedPlace
Thomas Daschle_**_http://dbpedia.org/resource/Tom_Daschle	Governor	0.410080618875	OfficeHolder	0.388364816868	Person	0.345628226441	ArchitecturalStructure	0.30158194321	Building	0.30158194321	Agent	0.290628420618	Town	0.267502141908	Politician	0.265248613366	Legislature	0.256977452309	Company	0.240411011341		GOLD_STANDARD:	Agent	Person	OfficeHolder
Soviet_**_http://dbpedia.org/resource/Soviet_Union	Island	0.412417890258	SocietalEvent	0.380124673432	Event	0.380124673432	MilitaryConflict	0.380124673432	Country	0.271074108426	President	0.182497306599	PopulatedPlace	0.179983556878	Place	0.178950806904	PrimeMinister	0.167913937097	GovernmentAgency	0.165799652128		GOLD_STANDARD:	Place	PopulatedPlace	Country
Rep._**_http://dbpedia.org/resource/Republican_Party_(United_States)	Legislature	0.330344883594	ArchitecturalStructure	0.317125012199	Building	0.317125012199	PoliticalParty	0.287620032299	TelevisionStation	0.25626664499	GovernmentAgency	0.24177151759	Organisation	0.225340433687	SocietalEvent	0.169780856483	Event	0.169780856483	MilitaryConflict	0.169780856483		GOLD_STANDARD:	Agent	Organisation	PoliticalParty
Conservative Party_**_http://dbpedia.org/resource/Conservative_Party_(UK)	PoliticalParty	0.560593724473	Organisation	0.3943937098	ArchitecturalStructure	0.337765930953	Building	0.337765930953	Legislature	0.283205813758	Agent	0.21443269019	SocietalEvent	0.167990773341	Event	0.167990773341	MilitaryConflict	0.167990773341	PrimeMinister	0.159685484687		GOLD_STANDARD:	Agent	Organisation	PoliticalParty
Kashmir_**_http://dbpedia.org/resource/Kashmir	Island	0.313250643335	SocietalEvent	0.18698813827	Event	0.18698813827	MilitaryConflict	0.18698813827	Country	0.185673556764	Legislature	0.185492792516	City	0.183111908722	Settlement	0.162389385416	MilitaryUnit	0.162249050919	PopulatedPlace	0.162020183873		GOLD_STANDARD:	Place	PopulatedPlace
San Diego_**_http://dbpedia.org/resource/San_Diego	PrimeMinister	0.175699727137	Company	0.0852908859505	Country	0.0791223298593	Politician	0.0759023053	Governor	0.0729301505316	President	0.0659753981106	Person	0.0656560429015	Settlement	0.0654975792988	PopulatedPlace	0.064439841334	Place	0.064311198609		GOLD_STANDARD:	Place	PopulatedPlace	Settlement	City
Washington_**_http://dbpedia.org/resource/Washington,_D.C.	Governor	0.356579818921	Legislature	0.270587971138	TelevisionStation	0.265662006093	Region	0.250149804807	AdministrativeRegion	0.250149804807	GovernmentAgency	0.228215143632	Broadcaster	0.223251319628	BroadcastNetwork	0.202045976396	OfficeHolder	0.185481384602	ArchitecturalStructure	0.176276223016		GOLD_STANDARD:	Place	PopulatedPlace	Settlement
Texas_**_http://dbpedia.org/resource/Texas	Region	0.336379923473	AdministrativeRegion	0.336379923473	Governor	0.168134601504	ArchitecturalStructure	0.167741020668	Building	0.167741020668	Place	0.155065921429	PopulatedPlace	0.154920230633	Town	0.149728992932	OfficeHolder	0.142853120613	Legislature	0.123629931826		GOLD_STANDARD:	
Milosevic_**_http://dbpedia.org/resource/Slobodan_Milošević	Island	0.413195526742	PrimeMinister	0.319449803324	Country	0.235647431603	President	0.233778701225	SocietalEvent	0.210170248857	Event	0.210170248857	MilitaryConflict	0.210170248857	Politician	0.200723836231	City	0.186625028996	PopulatedPlace	0.165144908621		GOLD_STANDARD:	
Brady_**_http://dbpedia.org/resource/James_Brady	Governor	0.488532981611	Town	0.469134547459	OfficeHolder	0.285582425316	Person	0.256327188241	ArchitecturalStructure	0.248940287316	Building	0.248940287316	Agent	0.202947293444	PrimeMinister	0.179689610082	Politician	0.172262076728	Region	0.152210542645		GOLD_STANDARD:	Agent	Person	OfficeHolder
India_**_http://dbpedia.org/resource/India	Island	0.227612195613	Legislature	0.22069097126	Country	0.212466487825	SocietalEvent	0.211443590146	Event	0.211443590146	MilitaryConflict	0.211443590146	MilitaryUnit	0.199214539246	PopulatedPlace	0.168900220558	Place	0.167897208116	TelevisionStation	0.133586866342		GOLD_STANDARD:	Place	PopulatedPlace	Country
Commission on Presidential Debates_**_http://dbpedia.org/resource/Commission_on_Presidential_Debates	Legislature	0.353163046444	ArchitecturalStructure	0.3069965967	Building	0.3069965967	PoliticalParty	0.259231680102	Organisation	0.228346641675	TelevisionStation	0.216071700969	MilitaryUnit	0.214299085162	SocietalEvent	0.211394295102	Event	0.211394295102	MilitaryConflict	0.211394295102		GOLD_STANDARD:	Agent	Organisation
Lebanon_**_http://dbpedia.org/resource/Lebanon	Island	0.351722248734	SocietalEvent	0.331608179175	Event	0.331608179175	MilitaryConflict	0.331608179175	Country	0.225333593165	PrimeMinister	0.168337684824	PopulatedPlace	0.167092788624	Place	0.165990909018	Governor	0.165758895431	Region	0.150518759368		GOLD_STANDARD:	Place	PopulatedPlace	Country
John Hagelin_**_http://dbpedia.org/resource/John_Hagelin	OfficeHolder	0.326696893943	Person	0.297241018745	Governor	0.280449386135	Agent	0.237056249961	Company	0.22897852912	Politician	0.223790596438	President	0.190708620539	SocietalEvent	0.177469654628	Event	0.177469654628	MilitaryConflict	0.177469654628		GOLD_STANDARD:	Agent	Person
TRIPOLI_**_http://dbpedia.org/resource/Tripoli,_Lebanon	City	0.222734215769	Settlement	0.22103026002	Company	0.218786409413	PopulatedPlace	0.142351985564	Place	0.140720266296	Country	0.101628323582	PrimeMinister	0.100391698026	TelevisionStation	0.091695399508	Island	0.0905816970003	Region	0.0889864372862		GOLD_STANDARD:	Place	PopulatedPlace	Settlement	City
Virginia_**_http://dbpedia.org/resource/Virginia	Region	0.385394660848	AdministrativeRegion	0.385394660848	Governor	0.198980977493	Town	0.187578978822	PopulatedPlace	0.164706861244	Place	0.164026537333	OfficeHolder	0.157901626338	GovernmentAgency	0.145876537126	Person	0.142010306805	SocietalEvent	0.136939687659		GOLD_STANDARD:	
William Hill_**_http://dbpedia.org/resource/William_Hill_(bookmaker)	ArchitecturalStructure	0.45666669705	Building	0.45666669705	Governor	0.326575811039	OfficeHolder	0.288733515989	Person	0.258307045715	Agent	0.200942135423	Politician	0.162538236464	President	0.138874524243	Region	0.125886369159	AdministrativeRegion	0.125886369159		GOLD_STANDARD:	Agent	Organisation	Company
Natural Law Party_**_http://dbpedia.org/resource/Natural_Law_Party_(United_States)	PoliticalParty	0.385117974249	ArchitecturalStructure	0.334874175248	Building	0.334874175248	Organisation	0.296236968382	MilitaryUnit	0.26871796522	Legislature	0.201062252369	BroadcastNetwork	0.181252368911	SocietalEvent	0.170232878013	Event	0.170232878013	MilitaryConflict	0.170232878013		GOLD_STANDARD:	Agent	Organisation	PoliticalParty
FBI_**_http://dbpedia.org/resource/Federal_Bureau_of_Investigation	TelevisionStation	0.229143519059	Broadcaster	0.180611487973	Legislature	0.173041555104	Town	0.162702351082	BroadcastNetwork	0.156345472429	MilitaryUnit	0.153903303621	OfficeHolder	0.137727636791	Organisation	0.137655024286	PoliticalParty	0.131163710905	Agent	0.122896130323		GOLD_STANDARD:	Agent	Organisation	GovernmentAgency
Mexican_**_http://dbpedia.org/resource/Mexico	Country	0.255878410495	PopulatedPlace	0.193702142009	Place	0.19222883709	Region	0.186793198268	AdministrativeRegion	0.186793198268	SocietalEvent	0.176586029989	Event	0.176586029989	MilitaryConflict	0.176586029989	GovernmentAgency	0.172655991087	Settlement	0.137659125319		GOLD_STANDARD:	Place	PopulatedPlace	Country
James Brady_**_http://dbpedia.org/resource/James_Brady	Governor	0.477031409524	Town	0.35248611651	OfficeHolder	0.35093304368	Person	0.321535584937	ArchitecturalStructure	0.26071991118	Building	0.26071991118	Agent	0.244519505137	Company	0.236723641753	Politician	0.202014011739	Region	0.174538728061		GOLD_STANDARD:	Agent	Person	OfficeHolder
Richard Lamm_**_http://dbpedia.org/resource/Richard_Lamm	OfficeHolder	0.345982915702	Person	0.311013328491	Governor	0.252460926655	Agent	0.239571097221	Company	0.225164643842	ArchitecturalStructure	0.194227307103	Building	0.194227307103	Politician	0.190673481245	Town	0.174903877257	President	0.166618434161		GOLD_STANDARD:	Agent	Person	OfficeHolder
U.S._**_http://dbpedia.org/resource/United_States	Legislature	0.269829973149	Country	0.258079014651	SocietalEvent	0.24971706679	Event	0.24971706679	MilitaryConflict	0.24971706679	GovernmentAgency	0.247869508948	Island	0.227598486405	Region	0.219759925689	AdministrativeRegion	0.219759925689	Company	0.194372472806		GOLD_STANDARD:	Place	PopulatedPlace	Country
Mike McCurry_**_http://dbpedia.org/resource/Mike_McCurry_(press_secretary)	Governor	0.31706207019	OfficeHolder	0.271085185726	Person	0.250308296041	Agent	0.195725208855	Company	0.174383954736	Politician	0.167140554535	President	0.164887435419	ArchitecturalStructure	0.155107386503	Building	0.155107386503	Region	0.143070033957		GOLD_STANDARD:	Agent	Person	Politician
America_**_http://dbpedia.org/resource/United_States	SocietalEvent	0.235693131428	Event	0.235693131428	MilitaryConflict	0.235693131428	Island	0.22335912093	Region	0.219242067699	AdministrativeRegion	0.219242067699	Legislature	0.191427340653	BroadcastNetwork	0.159297664214	Broadcaster	0.157435483304	TelevisionStation	0.153711121484		GOLD_STANDARD:	Place	PopulatedPlace	Country
TALLINN_**_http://dbpedia.org/resource/Tallinn	City	0.228119276146	Settlement	0.210686951058	PopulatedPlace	0.161606951723	Place	0.160947346154	Country	0.160484523787	Island	0.155974571306	PrimeMinister	0.126846231716	Company	0.111698770717	ArchitecturalStructure	0.103561661722	Building	0.103561661722		GOLD_STANDARD:	Place	PopulatedPlace	Settlement	City
Franklin Roosevelt_**_http://dbpedia.org/resource/Franklin_D._Roosevelt	Governor	0.382936987485	OfficeHolder	0.304239658838	Person	0.267749505191	ArchitecturalStructure	0.259034610067	Building	0.259034610067	Region	0.227456795878	AdministrativeRegion	0.227456795878	Agent	0.213436374031	Politician	0.20352313688	SocietalEvent	0.203294542762		GOLD_STANDARD:	Agent	Person	OfficeHolder
Gore_**_http://dbpedia.org/resource/Al_Gore	Governor	0.393421294352	OfficeHolder	0.284060335855	ArchitecturalStructure	0.268303506921	Building	0.268303506921	Town	0.257270352029	Person	0.245873100739	Politician	0.208947379169	PrimeMinister	0.208222812829	Agent	0.207893163416	President	0.186508079427		GOLD_STANDARD:	Agent	Person	OfficeHolder
Lennart Meri_**_http://dbpedia.org/resource/Lennart_Meri	President	0.222327941337	Island	0.21839434146	Politician	0.179094996578	PrimeMinister	0.160921990612	Person	0.150983002735	OfficeHolder	0.143789135237	Country	0.113488389604	SocietalEvent	0.113064690123	Event	0.113064690123	MilitaryConflict	0.113064690123		GOLD_STANDARD:	Agent	Person	Politician	President
Blair_**_http://dbpedia.org/resource/Tony_Blair	Governor	0.436990876056	ArchitecturalStructure	0.298387043003	Building	0.298387043003	PrimeMinister	0.260824464945	OfficeHolder	0.253687487159	Person	0.225771445004	Agent	0.203145435025	Town	0.201286646034	Politician	0.195304099607	PoliticalParty	0.184061734273		GOLD_STANDARD:	Agent	Person	OfficeHolder
LONDON_**_http://dbpedia.org/resource/London	City	0.277466548469	Settlement	0.254356311726	Company	0.226335981889	PopulatedPlace	0.180915526122	Place	0.180147304765	Country	0.141878543274	Region	0.114229263304	AdministrativeRegion	0.114229263304	ArchitecturalStructure	0.113312046623	Building	0.113312046623		GOLD_STANDARD:	Place	PopulatedPlace	Settlement
Theodore Roosevelt_**_http://dbpedia.org/resource/Theodore_Roosevelt	OfficeHolder	0.320992224184	Person	0.299333270344	President	0.251459410443	Politician	0.239230027406	Agent	0.22798860213	SocietalEvent	0.222565110664	Event	0.222565110664	MilitaryConflict	0.222565110664	Governor	0.222084278125	ArchitecturalStructure	0.181675981214		GOLD_STANDARD:	Agent	Person	OfficeHolder
Sarajevo_**_http://dbpedia.org/resource/Sarajevo	Island	0.516017995565	Country	0.286085663645	PrimeMinister	0.276130631571	City	0.242890670315	PopulatedPlace	0.215789894654	Place	0.213614812902	Settlement	0.193417113901	SocietalEvent	0.173711183727	Event	0.173711183727	MilitaryConflict	0.173711183727		GOLD_STANDARD:	Place	PopulatedPlace	Settlement	City
Clinton_**_http://dbpedia.org/resource/Bill_Clinton	OfficeHolder	0.311540220454	TelevisionStation	0.29591887142	Person	0.261359867567	Governor	0.250631583887	Agent	0.243124087496	Legislature	0.242559280568	Broadcaster	0.236291163412	SocietalEvent	0.234589755626	Event	0.234589755626	MilitaryConflict	0.234589755626		GOLD_STANDARD:	Agent	Person	Politician	President
Democrat_**_http://dbpedia.org/resource/Democratic_Party_(United_States)	PoliticalParty	0.439844104482	Legislature	0.330760621659	Organisation	0.324177631292	ArchitecturalStructure	0.315066481197	Building	0.315066481197	TelevisionStation	0.244089734881	Agent	0.230961088401	OfficeHolder	0.223040569055	Broadcaster	0.197746653742	SocietalEvent	0.197069279972		GOLD_STANDARD:	Agent	Organisation	PoliticalParty
Maniema_**_http://dbpedia.org/resource/Maniema	Island	0.273328187315	Country	0.16423255965	City	0.163088525639	Settlement	0.155603146034	SocietalEvent	0.154370388808	Event	0.154370388808	MilitaryConflict	0.154370388808	President	0.153791972376	PopulatedPlace	0.14109316263	Place	0.139799294802		GOLD_STANDARD:	Place	PopulatedPlace	Settlement
Mr Clean_**_http://dbpedia.org/resource/Mr._Clean	BroadcastNetwork	0.184172121327	President	0.177209713847	PoliticalParty	0.168970224989	Broadcaster	0.168065207619	Organisation	0.155489567081	Politician	0.14713472213	Company	0.145576861199	OfficeHolder	0.143254940787	Agent	0.141592367601	PrimeMinister	0.137615665722		GOLD_STANDARD:	
United Nations_**_http://dbpedia.org/resource/United_Nations	MilitaryUnit	0.261556374004	Legislature	0.206255330777	SocietalEvent	0.194672693515	Event	0.194672693515	MilitaryConflict	0.194672693515	Country	0.177613151425	Governor	0.177436382279	PoliticalParty	0.163596960845	Organisation	0.145323313336	PopulatedPlace	0.142688548346		GOLD_STANDARD:	Place	PopulatedPlace	Country
Bandundu_**_http://dbpedia.org/resource/Bandundu	President	0.18366770306	Island	0.180053431788	City	0.172298231541	PrimeMinister	0.170165291974	Settlement	0.163218549561	Country	0.16149981935	Politician	0.147404110422	PopulatedPlace	0.138956977526	Place	0.137172516966	MilitaryUnit	0.0814766962061		GOLD_STANDARD:	
Air Force_**_http://dbpedia.org/resource/United_States_Air_Force	GovernmentAgency	0.153903303621	ArchitecturalStructure	0.153221981066	Building	0.153221981066	SocietalEvent	0.139458104566	Event	0.139458104566	MilitaryConflict	0.139458104566	Island	0.127648477379	Legislature	0.112407247385	Organisation	0.109785386042	PoliticalParty	0.109102612816		GOLD_STANDARD:	Agent	Organisation	MilitaryUnit
South Kivu_**_http://dbpedia.org/resource/South_Kivu	SocietalEvent	0.212141011172	Event	0.212141011172	MilitaryConflict	0.212141011172	Island	0.202688326554	ArchitecturalStructure	0.174474744582	Building	0.174474744582	Region	0.160888051335	AdministrativeRegion	0.160888051335	Place	0.146543574174	PopulatedPlace	0.146222526239		GOLD_STANDARD:	Place	PopulatedPlace	Settlement
Bosnian Serb_**_http://dbpedia.org/resource/Republika_Srpska	Island	0.49951732586	Country	0.380910381376	PopulatedPlace	0.2679459911	Place	0.264985756049	City	0.263148669397	PrimeMinister	0.249656060225	SocietalEvent	0.217910168901	Event	0.217910168901	MilitaryConflict	0.217910168901	Settlement	0.215719066398		GOLD_STANDARD:	Place	PopulatedPlace	Country
Cambridge_**_http://dbpedia.org/resource/Cambridge,_Massachusetts	ArchitecturalStructure	0.190410126728	Building	0.190410126728	Region	0.159673231076	AdministrativeRegion	0.159673231076	Company	0.121616511896	Governor	0.11869660489	OfficeHolder	0.117241418085	City	0.112451434669	Settlement	0.111992234634	Person	0.107538219068		GOLD_STANDARD:	Place	PopulatedPlace	Settlement	City
Jack Kemp_**_http://dbpedia.org/resource/Jack_Kemp	Governor	0.430324060793	ArchitecturalStructure	0.35339659135	Building	0.35339659135	OfficeHolder	0.318130780365	Person	0.289371292282	Agent	0.232877761207	Politician	0.202705673972	Company	0.202680458678	Town	0.178154788582	PrimeMinister	0.150728555373		GOLD_STANDARD:	Agent	Person	OfficeHolder
United States_**_http://dbpedia.org/resource/United_States	Legislature	0.323996531737	MilitaryUnit	0.271784521554	Island	0.197523333872	PoliticalParty	0.186318341957	Region	0.177699202988	AdministrativeRegion	0.177699202988	Country	0.176452417322	Organisation	0.168807914991	SocietalEvent	0.154982978683	Event	0.154982978683		GOLD_STANDARD:	Place	PopulatedPlace	Country
Kinshasa_**_http://dbpedia.org/resource/Kinshasa	Island	0.258097734332	Country	0.212518531046	City	0.193562483468	President	0.193008372832	Settlement	0.184465999311	PopulatedPlace	0.173200905629	Place	0.171929872787	Politician	0.143748287132	PrimeMinister	0.137840668345	SocietalEvent	0.126062013172		GOLD_STANDARD:	Place	PopulatedPlace	Settlement	City
Miltiadis Evert_**_http://dbpedia.org/resource/Miltiadis_Evert	PrimeMinister	0.285862697284	Politician	0.181041082441	President	0.180564642111	Person	0.158713752968	OfficeHolder	0.153817535927	City	0.124482264466	Agent	0.122553996356	Country	0.115358119586	Governor	0.112749348763	Company	0.112444734408		GOLD_STANDARD:	Agent	Person	OfficeHolder
Pakistan_**_http://dbpedia.org/resource/Pakistan	Island	0.27261767115	Country	0.228522978709	Legislature	0.201381531143	PopulatedPlace	0.181244987749	Place	0.180511894666	SocietalEvent	0.171053286703	Event	0.171053286703	MilitaryConflict	0.171053286703	MilitaryUnit	0.168195729821	GovernmentAgency	0.167855529302		GOLD_STANDARD:	Place	PopulatedPlace	Country
Bob Dole_**_http://dbpedia.org/resource/Bob_Dole	OfficeHolder	0.357405461956	Person	0.315555511994	SocietalEvent	0.285367131795	Event	0.285367131795	MilitaryConflict	0.285367131795	Agent	0.262883006516	Politician	0.239594724069	TelevisionStation	0.23410057555	President	0.232083464338	Governor	0.202421358916		GOLD_STANDARD:	Agent	Person	OfficeHolder
CHICAGO_**_http://dbpedia.org/resource/Chicago	Settlement	0.245615464667	City	0.245201485244	Region	0.183539018064	AdministrativeRegion	0.183539018064	PopulatedPlace	0.155090680408	Place	0.15436201984	Company	0.116075160332	Legislature	0.101354142319	Town	0.0970058043111	ArchitecturalStructure	0.0909685504764		GOLD_STANDARD:	Place	PopulatedPlace	Settlement	City
Bosnian_**_http://dbpedia.org/resource/Bosnia	Island	0.480339121048	Country	0.355027969995	PopulatedPlace	0.246939028061	SocietalEvent	0.246842933622	Event	0.246842933622	MilitaryConflict	0.246842933622	Place	0.244372113012	City	0.23032232836	Settlement	0.191585673049	PrimeMinister	0.188756932948		GOLD_STANDARD:	
New York_**_http://dbpedia.org/resource/New_York_City	ArchitecturalStructure	0.249780162641	Building	0.249780162641	Governor	0.249637519729	Region	0.248109779766	AdministrativeRegion	0.248109779766	Settlement	0.151835328816	Place	0.141207948377	PopulatedPlace	0.139959991891	OfficeHolder	0.135264773127	Town	0.135200923042		GOLD_STANDARD:	Place	PopulatedPlace	Settlement	City
Sarah Brady_**_http://dbpedia.org/resource/Sarah_Brady	Governor	0.351277681568	OfficeHolder	0.341167276459	Town	0.326184545386	Person	0.30778454601	Agent	0.241523619355	Politician	0.227220992794	President	0.193954672068	ArchitecturalStructure	0.186649516758	Building	0.186649516758	Company	0.174804545903		GOLD_STANDARD:	Agent	Person
Indiana_**_http://dbpedia.org/resource/Indiana	Region	0.411310960484	AdministrativeRegion	0.411310960484	PopulatedPlace	0.191105243798	Place	0.190954386854	ArchitecturalStructure	0.17782983275	Building	0.17782983275	City	0.173695622533	Town	0.165508222092	Governor	0.165090862908	Settlement	0.154695756859		GOLD_STANDARD:	
interior ministry_**_http://dbpedia.org/resource/Interior_ministry	MilitaryUnit	0.165340495911	PrimeMinister	0.151786290527	PoliticalParty	0.107650828753	TelevisionStation	0.104628061439	Organisation	0.0996960450457	Country	0.0921269076331	Legislature	0.0900967691759	President	0.0867375468557	Politician	0.0849386609719	ArchitecturalStructure	0.0824862350732		GOLD_STANDARD:	Agent	Organisation
Costas Skandalidis_**_http://dbpedia.org/resource/Kostas_Skandalidis	PrimeMinister	0.834149785184	Island	0.255628362707	Politician	0.243769600557	TelevisionStation	0.230267456272	Broadcaster	0.229565931784	BroadcastNetwork	0.22921516954	Country	0.210080625322	President	0.199800253306	PoliticalParty	0.169467378941	Organisation	0.168537360864		GOLD_STANDARD:	Agent	Person	OfficeHolder
CNN_**_http://dbpedia.org/resource/CNN	BroadcastNetwork	0.58413681222	Broadcaster	0.58413681222	GovernmentAgency	0.229143519059	Company	0.212690847893	PrimeMinister	0.194650016931	Legislature	0.193275765375	Organisation	0.191278700733	SocietalEvent	0.153442971342	Event	0.153442971342	MilitaryConflict	0.153442971342		GOLD_STANDARD:	
Republika Srpska_**_http://dbpedia.org/resource/Republika_Srpska	Island	0.405179130906	PrimeMinister	0.378827385867	Country	0.262826511167	City	0.195487871325	President	0.174467876043	PopulatedPlace	0.170752507372	Place	0.168336753484	Politician	0.149974069424	Settlement	0.145837064771	SocietalEvent	0.140294701938		GOLD_STANDARD:	Place	PopulatedPlace	Country
Ronald Reagan_**_http://dbpedia.org/resource/Ronald_Reagan	OfficeHolder	0.36807813636	Person	0.340316973362	SocietalEvent	0.287385890163	Event	0.287385890163	MilitaryConflict	0.287385890163	President	0.28111895685	Agent	0.27608478516	Politician	0.26113287154	Company	0.185928555469	GovernmentAgency	0.181846008586		GOLD_STANDARD:	Agent	Person	OfficeHolder
South Carolina_**_http://dbpedia.org/resource/Governor_of_South_Carolina	Region	0.310998613178	AdministrativeRegion	0.310998613178	Governor	0.21831067178	ArchitecturalStructure	0.216381865201	Building	0.216381865201	BroadcastNetwork	0.180517490466	Town	0.173086199217	Broadcaster	0.162748840499	Place	0.149287290237	PopulatedPlace	0.148524851886		GOLD_STANDARD:	Agent	Person
Scottish National Party_**_http://dbpedia.org/resource/Scottish_National_Party	PoliticalParty	0.429135550021	Organisation	0.325529440984	ArchitecturalStructure	0.307723108876	Building	0.307723108876	Legislature	0.285589159083	MilitaryUnit	0.221460978799	Country	0.193430319641	Agent	0.180698370971	SocietalEvent	0.174204597091	Event	0.174204597091		GOLD_STANDARD:	Agent	Organisation	PoliticalParty
Al Gore_**_http://dbpedia.org/resource/Al_Gore	OfficeHolder	0.306714759443	Governor	0.285656125634	Person	0.269815866223	Politician	0.247655883661	President	0.235980844722	Town	0.230488025811	Agent	0.223733212573	ArchitecturalStructure	0.212348887406	Building	0.212348887406	PrimeMinister	0.18739825131		GOLD_STANDARD:	Agent	Person	OfficeHolder
Estonia_**_http://dbpedia.org/resource/Estonia	Island	0.39172717162	Country	0.294813357421	PrimeMinister	0.269392456183	PopulatedPlace	0.208760961669	Place	0.207053612289	SocietalEvent	0.205319763258	Event	0.205319763258	MilitaryConflict	0.205319763258	City	0.18250395408	Settlement	0.156688343554		GOLD_STANDARD:	Place	PopulatedPlace	Country
Superman_**_http://dbpedia.org/resource/Superman_(film)	GovernmentAgency	0.195257961829	SocietalEvent	0.182409686066	Event	0.182409686066	MilitaryConflict	0.182409686066	TelevisionStation	0.154288912295	OfficeHolder	0.129048529345	Broadcaster	0.128716980394	Town	0.122519920327	Person	0.122098145593	BroadcastNetwork	0.115931014444		GOLD_STANDARD:	
Labour_**_http://dbpedia.org/resource/Labour_Party_(UK)	PoliticalParty	0.401276542565	Organisation	0.276783472439	Legislature	0.198317555019	PrimeMinister	0.195512986827	Agent	0.159583313104	ArchitecturalStructure	0.147153583429	Building	0.147153583429	SocietalEvent	0.146828732585	Event	0.146828732585	MilitaryConflict	0.146828732585		GOLD_STANDARD:	Agent	Organisation	PoliticalParty
Christopher Reeve_**_http://dbpedia.org/resource/Christopher_Reeve	OfficeHolder	0.310574990655	Person	0.290075287816	Company	0.288380852817	Governor	0.27853911064	Agent	0.21817990464	ArchitecturalStructure	0.197337075156	Building	0.197337075156	Politician	0.19302331744	SocietalEvent	0.185134614242	Event	0.185134614242		GOLD_STANDARD:	Agent	Person
STIRLING_**_http://dbpedia.org/resource/Stirling	Governor	0.241126074359	City	0.191015915031	Settlement	0.174518513441	PopulatedPlace	0.125701860081	Place	0.124833279853	Region	0.105313882214	AdministrativeRegion	0.105313882214	PoliticalParty	0.0831682638938	Country	0.0779532448181	Company	0.0764047257484		GOLD_STANDARD:	Place	PopulatedPlace	Settlement
Janet Reno_**_http://dbpedia.org/resource/Janet_Reno	OfficeHolder	0.258714577249	Person	0.2374608189	Governor	0.195358939606	Region	0.185241902695	AdministrativeRegion	0.185241902695	Agent	0.183893118512	Politician	0.174909058589	President	0.174574074706	Company	0.15473106718	GovernmentAgency	0.150095592146		GOLD_STANDARD:	Agent	Person	OfficeHolder
French_**_http://dbpedia.org/resource/France	Country	0.285535063421	PrimeMinister	0.195547992896	PopulatedPlace	0.18037953062	Place	0.179009998973	SocietalEvent	0.16752362255	Event	0.16752362255	MilitaryConflict	0.16752362255	Island	0.155084832613	Company	0.129688771481	City	0.121561027518		GOLD_STANDARD:	Place	PopulatedPlace	Country
Lamm_**_http://dbpedia.org/resource/Richard_Lamm	Governor	0.287079959146	Town	0.230286933728	OfficeHolder	0.211107316201	Person	0.181542973713	ArchitecturalStructure	0.170188499646	Building	0.170188499646	Agent	0.151140350801	Region	0.149906421207	AdministrativeRegion	0.149906421207	GovernmentAgency	0.142460765223		GOLD_STANDARD:	Agent	Person	OfficeHolder
Idriss Deby_**_http://dbpedia.org/resource/Idriss_Déby	President	0.238903886323	Politician	0.202845634228	PrimeMinister	0.183670179115	Country	0.180115910933	Island	0.169924461299	Governor	0.141679776915	Person	0.135529289889	OfficeHolder	0.13363815891	PopulatedPlace	0.124855725747	Place	0.123438789062		GOLD_STANDARD:	
Senegalese_**_http://dbpedia.org/resource/Senegal	Country	0.267721383367	PopulatedPlace	0.18296155705	Place	0.18035958294	City	0.151439093009	PrimeMinister	0.150716369122	Settlement	0.148327405147	Island	0.138647276861	President	0.134359456851	Politician	0.112338170987	SocietalEvent	0.0974062043804		GOLD_STANDARD:	Place	PopulatedPlace	Country
Arnold Ruutel_**_http://dbpedia.org/resource/Arnold_Rüütel	Governor	0.369651255472	PrimeMinister	0.338832213768	OfficeHolder	0.275756185897	Politician	0.270455102488	Person	0.26510076227	President	0.25398381145	Agent	0.230852309854	ArchitecturalStructure	0.220788139556	Building	0.220788139556	Town	0.207427532939		GOLD_STANDARD:	
Democrats_**_http://dbpedia.org/resource/Democratic_Party_(United_States)	Legislature	0.501228564187	PoliticalParty	0.433262936098	Organisation	0.329458759061	ArchitecturalStructure	0.319211274976	Building	0.319211274976	Agent	0.241966731492	OfficeHolder	0.241070622951	TelevisionStation	0.227208135468	GovernmentAgency	0.202409183216	Person	0.199783075343		GOLD_STANDARD:	Agent	Organisation	PoliticalParty
Roosevelts_**_http://dbpedia.org/resource/Roosevelt_family	OfficeHolder	0.204644354217	SocietalEvent	0.193702259213	Event	0.193702259213	MilitaryConflict	0.193702259213	Legislature	0.192965992352	President	0.184539362075	ArchitecturalStructure	0.18361794358	Building	0.18361794358	Person	0.171296342947	Agent	0.154074385877		GOLD_STANDARD:	Agent	Person
Reform Party_**_http://dbpedia.org/resource/Reform_Party_of_the_United_States_of_America	PoliticalParty	0.483635817125	Organisation	0.354059235656	Legislature	0.336922049654	ArchitecturalStructure	0.288607701971	Building	0.288607701971	MilitaryUnit	0.21840327127	SocietalEvent	0.18998296015	Event	0.18998296015	MilitaryConflict	0.18998296015	Agent	0.184311356332		GOLD_STANDARD:	Agent	Organisation	PoliticalParty
SARAJEVO_**_http://dbpedia.org/resource/Sarajevo	Island	0.303978332714	City	0.297740393262	Settlement	0.267898260955	Country	0.211232317426	PopulatedPlace	0.20491132553	Place	0.20279622028	Company	0.13001587766	PrimeMinister	0.128210537694	SocietalEvent	0.0802385521788	Event	0.0802385521788		GOLD_STANDARD:	Place	PopulatedPlace	Settlement	City
Vietnam War_**_http://dbpedia.org/resource/Vietnam_War	Island	0.324199398829	Country	0.195895371758	Legislature	0.190661649611	OfficeHolder	0.180628224278	President	0.177735474865	PoliticalParty	0.175821541834	Person	0.165438930333	Agent	0.162814184812	Organisation	0.157564693769	TelevisionStation	0.153442971342		GOLD_STANDARD:	Event	SocietalEvent	MilitaryConflict
Susan Roosevelt Weld_**_http://dbpedia.org/resource/Susan_Roosevelt_Weld	OfficeHolder	0.394307287508	Person	0.348222239465	Agent	0.281539022733	President	0.279592441432	Governor	0.268015657924	Politician	0.261687207278	ArchitecturalStructure	0.214914819494	Building	0.214914819494	Region	0.204762295086	AdministrativeRegion	0.204762295086		GOLD_STANDARD:	Agent	Person	OfficeHolder
WASHINGTON_**_http://dbpedia.org/resource/Washington,_D.C.	Legislature	0.324104579551	City	0.244760276649	Settlement	0.236282987023	ArchitecturalStructure	0.18701325204	Building	0.18701325204	Region	0.185806934735	AdministrativeRegion	0.185806934735	Company	0.170777185457	Place	0.16748706106	PopulatedPlace	0.167262622084		GOLD_STANDARD:	Place	PopulatedPlace	Settlement
Michigan City_**_http://dbpedia.org/resource/Michigan_City,_Indiana	Region	0.366821600576	AdministrativeRegion	0.366821600576	ArchitecturalStructure	0.234376318951	Building	0.234376318951	Place	0.185420252752	PopulatedPlace	0.184857539348	Governor	0.183091180576	Town	0.182920346162	Legislature	0.170258592604	GovernmentAgency	0.152130069123		GOLD_STANDARD:	Place	PopulatedPlace	Settlement	City
Democratic Convention_**_http://dbpedia.org/resource/Democratic_National_Convention	PoliticalParty	0.447877785379	Legislature	0.421506783851	Organisation	0.345957730957	TelevisionStation	0.267171391687	ArchitecturalStructure	0.251186477657	Building	0.251186477657	Agent	0.234273167216	OfficeHolder	0.211760128817	Broadcaster	0.195963700199	SocietalEvent	0.194414888813		GOLD_STANDARD:	
Calif_**_http://dbpedia.org/resource/California	Region	0.194180417512	AdministrativeRegion	0.194180417512	Governor	0.156009471635	GovernmentAgency	0.131983278507	City	0.119350907638	Settlement	0.11537796559	Company	0.114175189236	PopulatedPlace	0.113006103163	Place	0.112605017782	OfficeHolder	0.104098158807		GOLD_STANDARD:	
Midwest_**_http://dbpedia.org/resource/Midwestern_United_States	Region	0.328739103318	AdministrativeRegion	0.328739103318	Island	0.195643902468	PopulatedPlace	0.1570147542	Place	0.156192441015	GovernmentAgency	0.1513095119	OfficeHolder	0.132125554492	Country	0.13139865336	SocietalEvent	0.127810307939	Event	0.127810307939		GOLD_STANDARD:	Place	PopulatedPlace
Medicare_**_http://dbpedia.org/resource/Medicare_(United_States)	Legislature	0.295601164279	PoliticalParty	0.181502917773	ArchitecturalStructure	0.167102052379	Building	0.167102052379	GovernmentAgency	0.161075510903	Organisation	0.155873547729	OfficeHolder	0.151872587631	SocietalEvent	0.145460584663	Event	0.145460584663	MilitaryConflict	0.145460584663		GOLD_STANDARD:	Agent	Person
John Hinckley Jr_**_http://dbpedia.org/resource/John_Hinckley,_Jr.	OfficeHolder	0.32185971361	Person	0.28959072953	Company	0.270543199433	Governor	0.226178002295	Agent	0.217911229067	Politician	0.198052121541	President	0.179279617003	SocietalEvent	0.139187851413	Event	0.139187851413	MilitaryConflict	0.139187851413		GOLD_STANDARD:	Agent	Person
Mexico_**_http://dbpedia.org/resource/Mexico	Region	0.24802195489	AdministrativeRegion	0.24802195489	SocietalEvent	0.192784172868	Event	0.192784172868	MilitaryConflict	0.192784172868	PopulatedPlace	0.17402797972	Country	0.173691813148	Place	0.172635860689	Settlement	0.146962366504	TelevisionStation	0.144528534045		GOLD_STANDARD:	Place	PopulatedPlace	Country
