Hungary_**_http://dbpedia.org/resource/Hungary	Continent	0.467185217205	Country	0.330632990437	City	0.194011392482	PopulatedPlace	0.185787581323	Place	0.185787581323	Settlement	0.165240199086	Bank	0.154686138488	AdministrativeRegion	0.140804418564	Region	0.140804418564	Company	0.113826674282		GOLD_STANDARD:	Place	PopulatedPlace	Country
Siam Commercial Bank_**_http://dbpedia.org/resource/Siam_Commercial_Bank	Bank	0.549407363791	Company	0.270708969051	Organisation	0.235956198665	Agent	0.221764978098	GovernmentAgency	0.204482506098	Country	0.156875917657	LawFirm	0.151153865121	Person	0.150808875261	Continent	0.122513335243	Town	0.0987037037351		GOLD_STANDARD:	Agent	Organisation	Company	Bank
Avalon Borough_**_http://dbpedia.org/resource/Avalon,_New_Jersey	Town	0.377895019849	Person	0.217691263735	Settlement	0.165007898622	City	0.147861696625	PopulatedPlace	0.12201263084	Place	0.12201263084	Bank	0.121384267271	Agent	0.108275857831	Organisation	0.090039956847	LawFirm	0.0880575057984		GOLD_STANDARD:	Place	PopulatedPlace	Settlement
Robert W. Baird_**_http://dbpedia.org/resource/Robert_W._Baird	LawFirm	0.371573815004	Town	0.277123129859	Company	0.195391947543	Organisation	0.167811223739	Agent	0.167811223739	Bank	0.159973666941	Region	0.136969024744	AdministrativeRegion	0.136969024744	Settlement	0.131673427779	PopulatedPlace	0.124085044689		GOLD_STANDARD:	Agent	Person
N.J._**_http://dbpedia.org/resource/New_Jersey	AdministrativeRegion	0.253878774353	Region	0.253878774353	Settlement	0.229149210074	PopulatedPlace	0.223307553074	Place	0.223307553074	City	0.213835807682	Country	0.16328835594	Town	0.154820450794	Continent	0.131429407237	Person	0.106026627751		GOLD_STANDARD:	
Colo._**_http://dbpedia.org/resource/Colorado	Town	0.280142897859	Region	0.223184616491	AdministrativeRegion	0.223184616491	Person	0.168057438665	PopulatedPlace	0.15733626164	Place	0.15733626164	Country	0.148213239433	Settlement	0.136705447495	City	0.132010676291	LawFirm	0.103377193326		GOLD_STANDARD:	
Budapest_**_http://dbpedia.org/resource/Budapest	Continent	0.35736231628	Country	0.274072910117	City	0.227709863944	PopulatedPlace	0.195463609288	Place	0.195463609288	Settlement	0.195432491124	AdministrativeRegion	0.140028212685	Region	0.140028212685	Town	0.129263651935	Bank	0.108309864888		GOLD_STANDARD:	Place	PopulatedPlace	Settlement	City
HARTFORD_**_http://dbpedia.org/resource/Hartford,_Connecticut	Region	0.244831785587	AdministrativeRegion	0.244831785587	Settlement	0.200529711809	City	0.191917633598	PopulatedPlace	0.186425841851	Place	0.186425841851	LawFirm	0.156126480064	Company	0.0930378653203	Organisation	0.0802233742059	Agent	0.0786606498672		GOLD_STANDARD:	Place	PopulatedPlace	Settlement
YMCA_**_http://dbpedia.org/resource/YMCA	Town	0.251723752453	Bank	0.194218346368	Person	0.158777901588	Company	0.106406500238	LawFirm	0.103128303588	Agent	0.100192994156	Organisation	0.0884760126692	Settlement	0.0707722138508	PopulatedPlace	0.0482516754344	Place	0.0482516754344		GOLD_STANDARD:	Agent	Organisation
Ala_**_http://dbpedia.org/resource/Alabama	Bank	0.132903461434	Company	0.0976549314907	AdministrativeRegion	0.0880266762852	Region	0.0880266762852	City	0.0740581545539	Organisation	0.069717236625	Agent	0.0682701187174	Settlement	0.0680591512361	PopulatedPlace	0.0663722656469	Place	0.0663722656469		GOLD_STANDARD:	
Ohio_**_http://dbpedia.org/resource/Ohio	AdministrativeRegion	0.230776032998	Region	0.230776032998	Town	0.228878700066	Bank	0.227800495671	Settlement	0.207593579459	PopulatedPlace	0.207462449927	Place	0.207462449927	Continent	0.201244476152	City	0.196762314795	Person	0.170952815774		GOLD_STANDARD:	
Charleston_**_http://dbpedia.org/resource/Charleston,_West_Virginia	Town	0.242090144682	Settlement	0.216970514854	City	0.213581869105	Person	0.178769628441	LawFirm	0.173576778806	PopulatedPlace	0.172436168073	Place	0.172436168073	Region	0.16426664941	AdministrativeRegion	0.16426664941	Company	0.0778923458813		GOLD_STANDARD:	Place	PopulatedPlace	Settlement
Bangkok_**_http://dbpedia.org/resource/Bangkok	Country	0.297868163007	City	0.19602935685	Bank	0.192413473894	Settlement	0.166702128644	PopulatedPlace	0.165143515419	Place	0.165143515419	Company	0.125145623831	Continent	0.0982269319932	AdministrativeRegion	0.0953791910851	Region	0.0953791910851		GOLD_STANDARD:	
Texas_**_http://dbpedia.org/resource/Texas	LawFirm	0.287327336139	Region	0.180036957032	AdministrativeRegion	0.180036957032	Country	0.167780705812	Company	0.162908249348	Person	0.161054031211	Continent	0.158703770425	PopulatedPlace	0.156103061167	Place	0.156103061167	Bank	0.15110502555		GOLD_STANDARD:	
London Stock Exchange_**_http://dbpedia.org/resource/London_Stock_Exchange	Continent	0.25664006056	Bank	0.248472653984	Company	0.226831109678	GovernmentAgency	0.224653554748	LawFirm	0.216269085644	City	0.214322452839	Organisation	0.199878313037	Agent	0.194027675006	Settlement	0.192634171709	PopulatedPlace	0.171149765305		GOLD_STANDARD:	
Pakistan_**_http://dbpedia.org/resource/Pakistan	Country	0.296230904916	Continent	0.199934398099	Bank	0.153323400381	Company	0.14129544042	City	0.134742297268	PopulatedPlace	0.131978313681	Place	0.131978313681	Organisation	0.1169968413	Settlement	0.110826978433	Region	0.101784339239		GOLD_STANDARD:	Place	PopulatedPlace	Country
KARACHI_**_http://dbpedia.org/resource/Karachi	Country	0.224682599382	City	0.164453107525	PopulatedPlace	0.15401007271	Place	0.15401007271	Continent	0.149889762276	AdministrativeRegion	0.142661402419	Region	0.142661402419	Settlement	0.141601882182	Company	0.119141515746	Bank	0.097629243798		GOLD_STANDARD:	Place	PopulatedPlace	Settlement	City
European_**_http://dbpedia.org/resource/Europe	Country	0.368302374423	Bank	0.18538929325	GovernmentAgency	0.184138227774	Company	0.178097075133	Organisation	0.147139585044	City	0.146320478844	PopulatedPlace	0.141110106182	Place	0.141110106182	Agent	0.137832249821	Settlement	0.112785002516		GOLD_STANDARD:	Place	PopulatedPlace	Continent
New York City_**_http://dbpedia.org/resource/New_York_City	Town	0.327075637758	Bank	0.291168096175	Settlement	0.217059118924	Company	0.204321013326	LawFirm	0.204164638162	Person	0.19012400741	Agent	0.187451658469	PopulatedPlace	0.187350891738	Place	0.187350891738	Organisation	0.187006266978		GOLD_STANDARD:	Place	PopulatedPlace	Settlement	City
Reuters_**_http://dbpedia.org/resource/Reuters	Continent	0.27261056972	Country	0.174791419884	Bank	0.137821394318	Company	0.0957284666996	AdministrativeRegion	0.0942582181243	Region	0.0942582181243	PopulatedPlace	0.0942325148621	Place	0.0942325148621	Person	0.0900466412877	City	0.0877231878825		GOLD_STANDARD:	Agent	Organisation	Company
Wisc._**_http://dbpedia.org/resource/Wisconsin	Town	0.253694719517	Person	0.236857385082	Bank	0.174766723218	AdministrativeRegion	0.144259982282	Region	0.144259982282	Agent	0.127979658815	Company	0.120880838288	Settlement	0.113068625835	PopulatedPlace	0.109859928714	Place	0.109859928714		GOLD_STANDARD:	
Michigan National Bank_**_http://dbpedia.org/resource/Michigan_National_Bank	Bank	0.549407363791	Company	0.286414373037	Organisation	0.250919202827	Continent	0.248265251257	Agent	0.237289078793	Country	0.202486974757	Region	0.174814773827	AdministrativeRegion	0.174814773827	GovernmentAgency	0.17008778236	Person	0.169138458621		GOLD_STANDARD:	Agent	Organisation	Company	Bank
Clarksburg_**_http://dbpedia.org/resource/Clarksburg,_West_Virginia	Town	0.431606055162	Settlement	0.196543029828	PopulatedPlace	0.150933402423	Place	0.150933402423	Region	0.147229292555	AdministrativeRegion	0.147229292555	City	0.137397241757	Person	0.105886457451	LawFirm	0.0865632632037	Agent	0.0472125720852		GOLD_STANDARD:	Place	PopulatedPlace	Settlement	City
Amsterdam_**_http://dbpedia.org/resource/Amsterdam	Continent	0.286832572627	City	0.250195756399	Country	0.230006946495	Settlement	0.217863534287	PopulatedPlace	0.193777086519	Place	0.193777086519	Town	0.175598007912	Person	0.127915809175	Region	0.12059235716	AdministrativeRegion	0.12059235716		GOLD_STANDARD:	Place	PopulatedPlace	Settlement	City
NYC_**_http://dbpedia.org/resource/New_York_City	City	0.252234581374	Settlement	0.250058333312	Region	0.249358032172	AdministrativeRegion	0.249358032172	PopulatedPlace	0.232473531185	Place	0.232473531185	Country	0.161536153445	LawFirm	0.125969985527	Person	0.124897185874	Town	0.110029265033		GOLD_STANDARD:	Place	PopulatedPlace	Settlement	City
Thailand_**_http://dbpedia.org/resource/Thailand	Country	0.338239593074	Bank	0.242744913062	Continent	0.230118762336	AdministrativeRegion	0.190069688456	Region	0.190069688456	Company	0.160952965198	PopulatedPlace	0.160260451868	Place	0.160260451868	City	0.126969399152	Settlement	0.10626708981		GOLD_STANDARD:	Place	PopulatedPlace	Country
STATE OF OHIO_**_http://dbpedia.org/resource/Ohio	Region	0.195367353698	AdministrativeRegion	0.195367353698	Person	0.144290225414	Settlement	0.141112035067	PopulatedPlace	0.140682085229	Place	0.140682085229	City	0.133859359059	Town	0.133554695104	LawFirm	0.13102258037	Company	0.086037856283		GOLD_STANDARD:	
Fairmont_**_http://dbpedia.org/resource/Fairmont,_West_Virginia	Town	0.412636495018	Person	0.174485885778	Bank	0.17106841205	Settlement	0.169877785504	City	0.14291024599	PopulatedPlace	0.123945751789	Place	0.123945751789	AdministrativeRegion	0.105271676671	Region	0.105271676671	Company	0.0951877642449		GOLD_STANDARD:	Place	PopulatedPlace	Settlement	City
Steptoe & Johnson_**_http://dbpedia.org/resource/Steptoe_&_Johnson	Person	0.371573815004	GovernmentAgency	0.184028848184	Agent	0.161197681381	Bank	0.148456255023	Organisation	0.119122454656	Settlement	0.111496443355	Company	0.102818373836	City	0.0996863192668	PopulatedPlace	0.0993732056421	Place	0.0993732056421		GOLD_STANDARD:	Agent	Organisation	Company	LawFirm
NEW YORK_**_http://dbpedia.org/resource/New_York_City	Region	0.260069609105	AdministrativeRegion	0.260069609105	PopulatedPlace	0.186540362429	Place	0.186540362429	Settlement	0.176535675009	City	0.164323443059	LawFirm	0.155964691069	Company	0.106787074397	Organisation	0.101046874988	Agent	0.098049602334		GOLD_STANDARD:	Place	PopulatedPlace	Settlement	City
Dutch_**_http://dbpedia.org/resource/Netherlands	Continent	0.474888290026	Country	0.268202555032	City	0.187065574249	PopulatedPlace	0.166731943809	Place	0.166731943809	Settlement	0.158515583273	GovernmentAgency	0.129412244259	Company	0.129302571176	Person	0.113144379096	Bank	0.112483392357		GOLD_STANDARD:	Place	PopulatedPlace	Country
AMSTERDAM_**_http://dbpedia.org/resource/Amsterdam	Continent	0.267520005131	City	0.228213751504	Country	0.20672582826	Settlement	0.200928247592	PopulatedPlace	0.200077313233	Place	0.200077313233	AdministrativeRegion	0.188392011247	Region	0.188392011247	Company	0.126078881521	GovernmentAgency	0.0956603436493		GOLD_STANDARD:	Place	PopulatedPlace	Settlement	City
Eau Claire_**_http://dbpedia.org/resource/Eau_Claire,_Wisconsin	Person	0.257581920472	Town	0.186887432478	LawFirm	0.158112580933	GovernmentAgency	0.116539974195	Agent	0.109244936475	Settlement	0.087920663506	City	0.0878721025758	Organisation	0.0845221058084	Bank	0.080793345183	Company	0.078049238773		GOLD_STANDARD:	Place	PopulatedPlace	Settlement	City
Karachi_**_http://dbpedia.org/resource/Karachi	Country	0.25576482084	City	0.173160018984	PopulatedPlace	0.154172966104	Place	0.154172966104	Settlement	0.152807728665	Bank	0.121056631546	Region	0.112843866272	AdministrativeRegion	0.112843866272	Company	0.0977915865227	Continent	0.0854442020879		GOLD_STANDARD:	Place	PopulatedPlace	Settlement	City
Detroit_**_http://dbpedia.org/resource/Detroit	Bank	0.207636409636	Town	0.202429998807	Settlement	0.197271717916	AdministrativeRegion	0.196908533897	Region	0.196908533897	City	0.193473921473	PopulatedPlace	0.185917799832	Place	0.185917799832	Company	0.150678162913	Country	0.134145287248		GOLD_STANDARD:	Place	PopulatedPlace	Settlement	City
Fairview_**_http://dbpedia.org/resource/Fairview,_Texas	Person	0.277123129859	Settlement	0.178908352699	City	0.16757638875	PopulatedPlace	0.140244856014	Place	0.140244856014	AdministrativeRegion	0.139938185825	Region	0.139938185825	Bank	0.132599729413	Agent	0.122363463082	Organisation	0.0965701852857		GOLD_STANDARD:	Place	PopulatedPlace	Settlement	Town
N.Y._**_http://dbpedia.org/resource/New_York	Region	0.246466179137	AdministrativeRegion	0.246466179137	Settlement	0.220557737634	City	0.219287354912	PopulatedPlace	0.211761222267	Place	0.211761222267	Person	0.177065243809	Country	0.1451512229	Town	0.113878325654	Bank	0.10637420003		GOLD_STANDARD:	
BUDAPEST_**_http://dbpedia.org/resource/Budapest	Continent	0.264110041936	Country	0.210155712227	City	0.203579199495	PopulatedPlace	0.189765913553	Place	0.189765913553	AdministrativeRegion	0.185910884076	Region	0.185910884076	Settlement	0.18251629108	Company	0.0964855960745	Person	0.0905175143825		GOLD_STANDARD:	Place	PopulatedPlace	Settlement	City
Hartford_**_http://dbpedia.org/resource/Hartford,_Connecticut	LawFirm	0.239572817303	Settlement	0.223675750758	Town	0.218624017482	City	0.193236292076	Person	0.185415433342	PopulatedPlace	0.183790536093	Place	0.183790536093	Region	0.175018725412	AdministrativeRegion	0.175018725412	Agent	0.145311809575		GOLD_STANDARD:	Place	PopulatedPlace	Settlement
BANGKOK_**_http://dbpedia.org/resource/Bangkok	Country	0.228835875974	City	0.204873128481	PopulatedPlace	0.18057967955	Place	0.18057967955	Settlement	0.180461516665	AdministrativeRegion	0.161266011163	Region	0.161266011163	Company	0.121716057418	Continent	0.115484970593	Bank	0.0858243450763		GOLD_STANDARD:	
Paris_**_http://dbpedia.org/resource/Paris,_Arkansas	Continent	0.320184047716	City	0.213723496965	Settlement	0.181970076872	PopulatedPlace	0.159738406443	Place	0.159738406443	Country	0.155339875238	LawFirm	0.112737454962	Region	0.103652934104	AdministrativeRegion	0.103652934104	Company	0.0992312311658		GOLD_STANDARD:	Place	PopulatedPlace	Settlement	City
U.S._**_http://dbpedia.org/resource/United_States	Continent	0.469385204447	Country	0.320877265475	Bank	0.235169386749	Company	0.219766395455	Person	0.20480713901	AdministrativeRegion	0.188381483694	Region	0.188381483694	Agent	0.158442789098	LawFirm	0.156486441504	PopulatedPlace	0.152736410174		GOLD_STANDARD:	Place	PopulatedPlace	Country
FSA_**_http://dbpedia.org/resource/Financial_Services_Authority	Bank	0.187285144229	Continent	0.184138227774	LawFirm	0.184028848184	Company	0.153600671034	Organisation	0.126231349307	Agent	0.116279732868	Country	0.0725877158136	Person	0.0665216506725	Town	0.0584558638501	Settlement	0.0490408221874		GOLD_STANDARD:	Agent	Organisation	GovernmentAgency
Akron_**_http://dbpedia.org/resource/Akron,_Ohio	Town	0.374461738539	Settlement	0.225760938106	Region	0.225033048626	AdministrativeRegion	0.225033048626	PopulatedPlace	0.205350309171	Place	0.205350309171	Person	0.203181796202	City	0.190600007383	LawFirm	0.151326632791	Continent	0.134045809332		GOLD_STANDARD:	Place	PopulatedPlace	Settlement	City
GMT_**_http://dbpedia.org/resource/Greenwich_Mean_Time	Continent	0.189016053048	Company	0.143321437827	Country	0.124840360196	Bank	0.115755395225	Organisation	0.0977595172625	Agent	0.0950426031151	Region	0.0802711279656	AdministrativeRegion	0.0802711279656	Person	0.0787411182307	City	0.0765602662476		GOLD_STANDARD:	
