Scotland_**_http://dbpedia.org/resource/Scotland	Continent	0.277006644499	Country	0.249932627863	PopulatedPlace	0.208052296125	Place	0.20480278985	University	0.201057580431	EducationalInstitution	0.181055793784	Region	0.156077264056	AdministrativeRegion	0.156077264056	City	0.15589872585	School	0.14105222049		GOLD_STANDARD:	Place	PopulatedPlace
Missouri_**_http://dbpedia.org/resource/Missouri	Region	0.431631785872	AdministrativeRegion	0.431631785872	Town	0.193617215589	University	0.191959794216	City	0.17530407403	PopulatedPlace	0.167998709282	Place	0.167616654636	OfficeHolder	0.159687572384	PoliticalParty	0.159582095072	Continent	0.158294284421		GOLD_STANDARD:	
Wales_**_http://dbpedia.org/resource/Wales	Continent	0.248350867299	University	0.22566963948	EducationalInstitution	0.204106079635	Country	0.201256331902	PopulatedPlace	0.193100538585	Place	0.190539465742	Region	0.188795310703	AdministrativeRegion	0.188795310703	BroadcastNetwork	0.161718455952	School	0.160978959947		GOLD_STANDARD:	Place	PopulatedPlace
Malaysia_**_http://dbpedia.org/resource/Malaysia	BroadcastNetwork	0.599908158305	Broadcaster	0.368971624361	Continent	0.273940492693	Country	0.266833455869	Company	0.195189170018	PopulatedPlace	0.183160929266	Place	0.180466327948	TelevisionStation	0.138035090416	Settlement	0.133253765089	Town	0.105169980134		GOLD_STANDARD:	Place	PopulatedPlace	Country
Kan_**_http://dbpedia.org/resource/Naoto_Kan	OfficeHolder	0.247048850042	BroadcastNetwork	0.230870480795	PoliticalParty	0.176702658934	Broadcaster	0.176347468221	TelevisionStation	0.121824455646	Country	0.113457789984	Organisation	0.103867276816	Person	0.102199066607	Agent	0.101672567944	City	0.0916293647902		GOLD_STANDARD:	Agent	Person	OfficeHolder
Cardiff_**_http://dbpedia.org/resource/Cardiff	University	0.370582623263	EducationalInstitution	0.313245845507	School	0.198572289995	PopulatedPlace	0.178131156762	Place	0.176070586556	City	0.169061655295	Settlement	0.161052210647	Country	0.15651975927	Congressman	0.152893816038	Continent	0.12917676007		GOLD_STANDARD:	Place	PopulatedPlace	Settlement	City
China_**_http://dbpedia.org/resource/People's_Republic_of_China	Continent	0.381811501789	Country	0.286702056754	BroadcastNetwork	0.268376087816	PopulatedPlace	0.212402094672	Place	0.208924328616	Company	0.19738016497	Broadcaster	0.187273254673	Region	0.173962255938	AdministrativeRegion	0.173962255938	Settlement	0.151982053604		GOLD_STANDARD:	
Sale Grammar School_**_http://dbpedia.org/resource/Sale_Grammar_School	ArchitecturalStructure	0.370768536779	Hospital	0.370768536779	Building	0.370768536779	University	0.3053882433	EducationalInstitution	0.3053882433	Congressman	0.148984427491	Athlete	0.121590769763	BaseballPlayer	0.121590769763	Politician	0.115083134961	Agent	0.112866602899		GOLD_STANDARD:	Agent	Organisation	EducationalInstitution	School
Brazilian_**_http://dbpedia.org/resource/Brazil	Country	0.358061376449	Continent	0.288257763192	PopulatedPlace	0.209450229891	Place	0.205939408856	Company	0.185697867181	BroadcastNetwork	0.171456710957	Broadcaster	0.155742473461	Town	0.15412170659	TelevisionStation	0.140028235966	Settlement	0.127573603853		GOLD_STANDARD:	Place	PopulatedPlace	Country
Brazil_**_http://dbpedia.org/resource/Brazil	Continent	0.423078497511	Country	0.366854864873	PopulatedPlace	0.229430751324	Place	0.22546108266	Company	0.170936182555	Region	0.163804627888	AdministrativeRegion	0.163804627888	Town	0.15860735143	TelevisionStation	0.142940126148	Broadcaster	0.134809589719		GOLD_STANDARD:	Place	PopulatedPlace	Country
European_**_http://dbpedia.org/resource/European_Union	Continent	0.524900373204	Country	0.379105980333	Company	0.27261056972	PopulatedPlace	0.25503653146	Place	0.250981657137	TelevisionStation	0.224753263025	Broadcaster	0.20026975775	BroadcastNetwork	0.175786252474	Region	0.163666162766	AdministrativeRegion	0.163666162766		GOLD_STANDARD:	Place	PopulatedPlace	Country
Bucharest_**_http://dbpedia.org/resource/Bucharest	Country	0.242291967944	Continent	0.209859514613	PopulatedPlace	0.205996490135	Place	0.203550354566	TelevisionStation	0.197896784356	Settlement	0.19336331463	Town	0.191427353962	City	0.18732984587	Broadcaster	0.167571016472	BroadcastNetwork	0.137245248588		GOLD_STANDARD:	Place	PopulatedPlace	Settlement	City
Tony Hall_**_http://dbpedia.org/resource/Tony_P._Hall	Congressman	0.577483251207	Athlete	0.413966726691	BaseballPlayer	0.413966726691	Politician	0.393669293673	Governor	0.372725345634	Person	0.234952160393	OfficeHolder	0.172904918082	School	0.160586625114	Agent	0.160298879293	EducationalInstitution	0.148545038634		GOLD_STANDARD:	Agent	Person	Politician	Congressman
Casey_**_http://dbpedia.org/resource/Robert_P._Casey	Governor	0.799629654649	Politician	0.310709020143	Athlete	0.273932948186	BaseballPlayer	0.273932948186	Congressman	0.228354222731	Person	0.22496690147	OfficeHolder	0.178102453096	Region	0.171649478675	AdministrativeRegion	0.171649478675	Agent	0.153619226313		GOLD_STANDARD:	Agent	Person	Politician	Governor
Philadelphia_**_http://dbpedia.org/resource/Philadelphia	Region	0.293601622051	AdministrativeRegion	0.293601622051	Athlete	0.224388512711	BaseballPlayer	0.224388512711	City	0.204629013692	Continent	0.189838446435	University	0.177205484302	Congressman	0.161738352214	PopulatedPlace	0.160076339671	Place	0.158457312954		GOLD_STANDARD:	Place	PopulatedPlace	Settlement	City
German_**_http://dbpedia.org/resource/Germany	TelevisionStation	0.449997932921	Country	0.339001095332	Broadcaster	0.309525210052	Continent	0.301176521403	Company	0.229437686113	PopulatedPlace	0.22385230631	Place	0.220041828318	BroadcastNetwork	0.169052487184	Settlement	0.162017269544	City	0.152293814401		GOLD_STANDARD:	Place	PopulatedPlace	Country
Republican Party_**_http://dbpedia.org/resource/Republican_Party_(United_States)	PoliticalParty	0.676144769027	Organisation	0.34300021039	Agent	0.228402619637	OfficeHolder	0.207022591026	School	0.171299633873	Congressman	0.151043708003	Governor	0.137736386888	Region	0.128808464646	AdministrativeRegion	0.128808464646	ArchitecturalStructure	0.128549969737		GOLD_STANDARD:	Agent	Organisation	PoliticalParty
Kate Michelman_**_http://dbpedia.org/resource/Kate_Michelman	Governor	0.328972031831	Athlete	0.317092065904	BaseballPlayer	0.317092065904	Person	0.228800829844	Politician	0.227570392775	OfficeHolder	0.227518702533	Congressman	0.199679295044	PoliticalParty	0.195078270107	Agent	0.164693430506	Region	0.122510471381		GOLD_STANDARD:	Agent	Person
CJD_**_http://dbpedia.org/resource/Creutzfeldt–Jakob_disease	Disease	0.352810595499	ArchitecturalStructure	0.157836099209	Hospital	0.157836099209	Building	0.157836099209	Athlete	0.132128085517	BaseballPlayer	0.132128085517	AcademicJournal	0.120781501927	PeriodicalLiterature	0.120781501927	Work	0.120781501927	WrittenWork	0.120781501927		GOLD_STANDARD:	
Minn_**_http://dbpedia.org/resource/Minnesota	Governor	0.158862100991	City	0.127628471888	Region	0.124229090467	AdministrativeRegion	0.124229090467	PoliticalParty	0.121078797177	Settlement	0.113206966085	Politician	0.107593535456	Person	0.102547226634	ArchitecturalStructure	0.09550280781	Hospital	0.09550280781		GOLD_STANDARD:	
Puerto Rico_**_http://dbpedia.org/resource/Puerto_Rico	Athlete	0.261886485896	BaseballPlayer	0.261886485896	Congressman	0.188112523273	Politician	0.183454888641	Town	0.165903127199	Governor	0.146864400271	Country	0.138972934473	Person	0.138875825243	Continent	0.103745183046	OfficeHolder	0.0964488395399		GOLD_STANDARD:	Place	PopulatedPlace	Country
Crohn_**_http://dbpedia.org/resource/Crohn's_disease	AcademicJournal	0.159254277776	PeriodicalLiterature	0.159254277776	Work	0.159254277776	WrittenWork	0.159254277776	Athlete	0.12589998103	BaseballPlayer	0.12589998103	Town	0.103896768332	Continent	0.0971147598649	ArchitecturalStructure	0.0944475237921	Hospital	0.0944475237921		GOLD_STANDARD:	Disease
PHILADELPHIA_**_http://dbpedia.org/resource/Philadelphia	Settlement	0.285716973037	City	0.281165355211	BroadcastNetwork	0.201110995673	Region	0.198564130232	AdministrativeRegion	0.198564130232	PopulatedPlace	0.177215377871	Place	0.175035152714	Company	0.172713391041	Continent	0.0991175109689	Athlete	0.0977213942356		GOLD_STANDARD:	Place	PopulatedPlace	Settlement	City
ZDF_**_http://dbpedia.org/resource/ZDF	Company	0.265105116084	Broadcaster	0.198825691491	BroadcastNetwork	0.198825691491	Country	0.180047394322	Continent	0.160214053883	AcademicJournal	0.148507291006	PeriodicalLiterature	0.148507291006	Work	0.148507291006	WrittenWork	0.148507291006	Athlete	0.107185735339		GOLD_STANDARD:	
Senegal_**_http://dbpedia.org/resource/Senegal	Town	0.509456291846	Continent	0.317821566622	Country	0.313214404425	PopulatedPlace	0.216052889536	Place	0.212814658754	BroadcastNetwork	0.200467681669	Broadcaster	0.183509206892	TelevisionStation	0.166550732115	Settlement	0.163404731079	University	0.137262078259		GOLD_STANDARD:	Place	PopulatedPlace	Country
Democratic_**_http://dbpedia.org/resource/Democratic_Party_(United_States)	PoliticalParty	0.704599040349	Organisation	0.341292039542	Agent	0.224141938612	OfficeHolder	0.187963216074	Region	0.146471822215	AdministrativeRegion	0.146471822215	Person	0.123334013672	Governor	0.117341021057	Company	0.114447994649	Athlete	0.110543586055		GOLD_STANDARD:	Agent	Organisation	PoliticalParty
Bonn_**_http://dbpedia.org/resource/Bonn	TelevisionStation	0.292863463627	Broadcaster	0.198902114212	University	0.184619732064	Company	0.180083683799	Town	0.175806917771	Country	0.173311450418	AcademicJournal	0.171696582265	PeriodicalLiterature	0.171696582265	Work	0.171696582265	WrittenWork	0.171696582265		GOLD_STANDARD:	Place	PopulatedPlace	Settlement	City
European Union_**_http://dbpedia.org/resource/European_Union	Continent	0.431163908166	Country	0.314045241568	PopulatedPlace	0.219376106769	Place	0.218149275158	University	0.217022944389	Organisation	0.214467961568	TelevisionStation	0.20509926009	Company	0.193504475276	EducationalInstitution	0.170796241253	Region	0.16423611625		GOLD_STANDARD:	Place	PopulatedPlace	Country
Geoffrey Fieger_**_http://dbpedia.org/resource/Geoffrey_Fieger	Governor	0.405719516033	Politician	0.290968585316	Congressman	0.280520035465	Person	0.245920984153	OfficeHolder	0.224529122668	Athlete	0.217386946937	BaseballPlayer	0.217386946937	Agent	0.165684525454	Region	0.123848223748	AdministrativeRegion	0.123848223748		GOLD_STANDARD:	Agent	Person	OfficeHolder
Newt Gingrich_**_http://dbpedia.org/resource/Newt_Gingrich	PoliticalParty	0.420144272376	Organisation	0.219958063129	Agent	0.183264548832	OfficeHolder	0.173789105281	Region	0.169571093692	AdministrativeRegion	0.169571093692	Person	0.158582414794	University	0.148299375624	Congressman	0.144936976275	EducationalInstitution	0.14067808557		GOLD_STANDARD:	Agent	Person	OfficeHolder
TOKYO_**_http://dbpedia.org/resource/Tokyo	BroadcastNetwork	0.38299533418	Settlement	0.305277488007	Company	0.301595653353	City	0.267484030396	Broadcaster	0.237984670345	PopulatedPlace	0.218978962002	Place	0.215299399925	Country	0.175904475689	Continent	0.153715831501	TelevisionStation	0.0929740065108		GOLD_STANDARD:	Place	PopulatedPlace	Settlement	City
U.S._**_http://dbpedia.org/resource/United_States	Continent	0.379700820504	Country	0.300136892677	Company	0.252240366817	Region	0.234090914281	AdministrativeRegion	0.234090914281	Governor	0.217560607212	PopulatedPlace	0.195245126862	Place	0.192603772209	Organisation	0.154382200924	PoliticalParty	0.146499725559		GOLD_STANDARD:	Place	PopulatedPlace	Country
Republicans_**_http://dbpedia.org/resource/Republican_Party_(United_States)	PoliticalParty	0.644203639915	Organisation	0.292112722171	OfficeHolder	0.234048424885	Agent	0.218200796433	Region	0.200330635419	AdministrativeRegion	0.200330635419	Person	0.157512707464	Athlete	0.148490211543	BaseballPlayer	0.148490211543	Governor	0.133235397655		GOLD_STANDARD:	Agent	Organisation	PoliticalParty
Jack Kevorkian_**_http://dbpedia.org/resource/Jack_Kevorkian	Athlete	0.446532775991	BaseballPlayer	0.446532775991	Governor	0.383723607106	Person	0.279932909644	OfficeHolder	0.264899503781	Congressman	0.263298998236	Politician	0.258691482384	Agent	0.180959995448	Region	0.146257943113	AdministrativeRegion	0.146257943113		GOLD_STANDARD:	Agent	Person
Ohio_**_http://dbpedia.org/resource/Ohio	Region	0.436600708963	AdministrativeRegion	0.436600708963	University	0.255351273782	Governor	0.251248164979	City	0.183676983453	Athlete	0.180559636601	BaseballPlayer	0.180559636601	EducationalInstitution	0.177851627629	PoliticalParty	0.171354629811	PopulatedPlace	0.164324038416		GOLD_STANDARD:	
Loyola de Palacio_**_http://dbpedia.org/resource/Loyola_de_Palacio	ArchitecturalStructure	0.264844464864	Hospital	0.264844464864	Building	0.264844464864	Town	0.189606381678	Politician	0.176094328883	Congressman	0.168584561484	Country	0.1646217465	Athlete	0.160178875573	BaseballPlayer	0.160178875573	School	0.158121622744		GOLD_STANDARD:	Agent	Person
Spanish_**_http://dbpedia.org/resource/Spain	Country	0.298857542291	Continent	0.249737943649	PopulatedPlace	0.165904839439	Place	0.163020939711	Town	0.147904106856	TelevisionStation	0.131374546744	Broadcaster	0.12167986136	Company	0.112650497286	BroadcastNetwork	0.111985175976	School	0.109129722141		GOLD_STANDARD:	Place	PopulatedPlace	Country
Britain_**_http://dbpedia.org/resource/United_Kingdom	Continent	0.399465507791	Country	0.305773699945	University	0.300877169858	Company	0.256693177711	PopulatedPlace	0.229839356986	Place	0.226893580322	EducationalInstitution	0.225893815501	TelevisionStation	0.210892764976	Broadcaster	0.203271387927	BroadcastNetwork	0.195650010879		GOLD_STANDARD:	Place	PopulatedPlace	Country
Nigeria_**_http://dbpedia.org/resource/Nigeria	Continent	0.364650886023	Country	0.263126277742	Town	0.260287190418	BroadcastNetwork	0.256287069566	Broadcaster	0.209133981086	PopulatedPlace	0.196373284095	Place	0.193048455469	TelevisionStation	0.161980892607	Region	0.147467408346	AdministrativeRegion	0.147467408346		GOLD_STANDARD:	Place	PopulatedPlace	Country
Europe_**_http://dbpedia.org/resource/Europe	Continent	0.544783681116	Country	0.35626954981	PopulatedPlace	0.241274084104	TelevisionStation	0.237647843238	Place	0.237502943763	Company	0.1922582853	Region	0.184681290512	AdministrativeRegion	0.184681290512	Broadcaster	0.159487404496	Settlement	0.13762411892		GOLD_STANDARD:	Place	PopulatedPlace	Continent
BUCHAREST_**_http://dbpedia.org/resource/Bucharest	Company	0.288686991202	Settlement	0.282293640283	BroadcastNetwork	0.251577700548	City	0.237697504782	Broadcaster	0.195316406874	PopulatedPlace	0.189615974659	Place	0.185030890023	TelevisionStation	0.139055113201	Country	0.135302517845	Organisation	0.0907609131197		GOLD_STANDARD:	Place	PopulatedPlace	Settlement	City
Brazilians_**_http://dbpedia.org/resource/Brazil	Country	0.286488971236	Continent	0.270132754266	TelevisionStation	0.175521525223	PopulatedPlace	0.168206688046	Place	0.164532222138	Broadcaster	0.151611400555	Town	0.13739731436	BroadcastNetwork	0.127701275886	Company	0.110375896953	Settlement	0.110213268877		GOLD_STANDARD:	Place	PopulatedPlace	Country
Chua_**_http://dbpedia.org/resource/Chua_Jui_Meng	BroadcastNetwork	0.345515434542	Broadcaster	0.169709662783	OfficeHolder	0.129903385193	Athlete	0.109034229579	BaseballPlayer	0.109034229579	Person	0.103326811966	Congressman	0.100657160546	AcademicJournal	0.0989894018985	PeriodicalLiterature	0.0989894018985	Work	0.0989894018985		GOLD_STANDARD:	Agent	Person	Politician
Nature_**_http://dbpedia.org/resource/Nature_(journal)	AcademicJournal	0.28287452264	PeriodicalLiterature	0.28287452264	WrittenWork	0.28287452264	Work	0.28287452264	Disease	0.149880454556	School	0.13206075164	TelevisionStation	0.128157688799	EducationalInstitution	0.122595681507	Broadcaster	0.121494552619	University	0.117863146441		GOLD_STANDARD:	Work	WrittenWork	PeriodicalLiterature	AcademicJournal
Democrats_**_http://dbpedia.org/resource/Democratic_Party_(United_States)	PoliticalParty	0.661933456254	Organisation	0.307929914346	OfficeHolder	0.223484764677	Agent	0.220114873364	Region	0.160577863017	AdministrativeRegion	0.160577863017	Person	0.146862548325	Governor	0.121577066044	School	0.115870481182	Athlete	0.110036770064		GOLD_STANDARD:	Agent	Organisation	PoliticalParty
Manchester_**_http://dbpedia.org/resource/Manchester	University	0.421065102707	EducationalInstitution	0.324489447698	Region	0.178735032729	AdministrativeRegion	0.178735032729	Country	0.169631721352	PopulatedPlace	0.168342298159	Place	0.167090055004	Congressman	0.15763880427	City	0.155577397818	Settlement	0.141141477477		GOLD_STANDARD:	Place	PopulatedPlace	Settlement	City
Wakefield_**_http://dbpedia.org/resource/Andrew_Wakefield	University	0.286840643014	EducationalInstitution	0.260242728592	School	0.207046899749	Governor	0.190802297053	Politician	0.165176070083	Congressman	0.155325732024	Person	0.144674183096	Athlete	0.142145157985	BaseballPlayer	0.142145157985	Region	0.135770659169		GOLD_STANDARD:	Agent	Person
Georgia_**_http://dbpedia.org/resource/Georgia_(U.S._state)	Region	0.302113892931	AdministrativeRegion	0.302113892931	University	0.223223674565	Continent	0.211872730086	Congressman	0.176766930123	EducationalInstitution	0.170860412257	Country	0.168694618774	PopulatedPlace	0.16028377749	Place	0.159004576568	Town	0.147894980621		GOLD_STANDARD:	
BONN_**_http://dbpedia.org/resource/Bonn	Company	0.381985840752	BroadcastNetwork	0.311524331535	Settlement	0.279607246488	Broadcaster	0.266636496429	City	0.224993222265	TelevisionStation	0.221748661323	PopulatedPlace	0.205734753715	Place	0.20194754096	Country	0.193902041223	Continent	0.17524623709		GOLD_STANDARD:	Place	PopulatedPlace	Settlement	City
PONTIAC_**_http://dbpedia.org/resource/Pontiac,_Michigan	Settlement	0.237192591637	City	0.229239167762	Region	0.136480929498	AdministrativeRegion	0.136480929498	PopulatedPlace	0.134631207537	Place	0.132606196021	BroadcastNetwork	0.114870192452	School	0.0984268260897	Congressman	0.0968884564311	Town	0.0724179513229		GOLD_STANDARD:	Place	PopulatedPlace	Settlement	City
Germany_**_http://dbpedia.org/resource/Germany	TelevisionStation	0.460212105386	Continent	0.4141842199	Country	0.358652041688	Broadcaster	0.292326886374	PopulatedPlace	0.248197942703	Place	0.244805415654	Region	0.177783631188	AdministrativeRegion	0.177783631188	Company	0.17745383014	Settlement	0.164178063359		GOLD_STANDARD:	Place	PopulatedPlace	Country
Kaolack_**_http://dbpedia.org/resource/Kaolack	Continent	0.1880828319	ArchitecturalStructure	0.155930372506	Hospital	0.155930372506	Building	0.155930372506	Country	0.144703076443	University	0.119069525125	Place	0.117327740671	PopulatedPlace	0.116724574549	BroadcastNetwork	0.107717255012	Settlement	0.104662144183		GOLD_STANDARD:	Place	PopulatedPlace	Settlement	Town
European Commission_**_http://dbpedia.org/resource/European_Commission	Continent	0.357576967691	Country	0.307628011762	Company	0.25062494099	Organisation	0.231047996577	PopulatedPlace	0.203492694635	Place	0.201683351813	TelevisionStation	0.181524988687	Broadcaster	0.175704063859	BroadcastNetwork	0.16988313903	Agent	0.147177909308		GOLD_STANDARD:	Agent	Organisation
William Weld_**_http://dbpedia.org/resource/William_Weld	Governor	0.420320665305	Politician	0.272048160262	Congressman	0.262664502639	Person	0.228715160578	OfficeHolder	0.218995934276	Athlete	0.213051532572	BaseballPlayer	0.213051532572	Region	0.203453746938	AdministrativeRegion	0.203453746938	University	0.202486358431		GOLD_STANDARD:	Agent	Person	OfficeHolder
Puerto Rican_**_http://dbpedia.org/resource/Puerto_Rico	Town	0.208970844595	Country	0.185042891453	Athlete	0.18347025005	BaseballPlayer	0.18347025005	Continent	0.160175048745	PopulatedPlace	0.101668350348	Place	0.100435105215	Congressman	0.0842601022559	Person	0.0799936979357	Politician	0.0736236423197		GOLD_STANDARD:	Place	PopulatedPlace	Country
Kevorkian_**_http://dbpedia.org/resource/Jack_Kevorkian	Athlete	0.272485820336	BaseballPlayer	0.272485820336	Person	0.15951229735	Region	0.141514401646	AdministrativeRegion	0.141514401646	TelevisionStation	0.139283553065	OfficeHolder	0.121420766826	Agent	0.110868519308	Disease	0.102419412303	Governor	0.0954364693127		GOLD_STANDARD:	Agent	Person
Hall_**_http://dbpedia.org/resource/Tony_P._Hall	Congressman	0.4989552328	Politician	0.255897008589	School	0.216376300302	ArchitecturalStructure	0.211433255961	Hospital	0.211433255961	Building	0.211433255961	EducationalInstitution	0.196288820347	Athlete	0.193521482616	BaseballPlayer	0.193521482616	University	0.186245080369		GOLD_STANDARD:	Agent	Person	Politician	Congressman
Osaka_**_http://dbpedia.org/resource/Osaka	BroadcastNetwork	0.196490538487	City	0.192394021017	Country	0.190707595144	Settlement	0.189467868724	PopulatedPlace	0.174879020811	Place	0.173456072032	Town	0.173063452717	Broadcaster	0.166772884292	OfficeHolder	0.163374423032	TelevisionStation	0.137055230097		GOLD_STANDARD:	Place	PopulatedPlace	Settlement	City
Chinese_**_http://dbpedia.org/resource/People's_Republic_of_China	BroadcastNetwork	0.307357337064	Country	0.274575266216	Continent	0.230436310169	Broadcaster	0.184249308899	PopulatedPlace	0.174995630103	Place	0.172368703275	Company	0.172127852242	OfficeHolder	0.123284165648	Settlement	0.123138173177	Organisation	0.105234087744		GOLD_STANDARD:	
Andrew Wakefield_**_http://dbpedia.org/resource/Andrew_Wakefield	Governor	0.412260934061	University	0.305529194977	Congressman	0.292367521305	Politician	0.291781605608	EducationalInstitution	0.288488493801	Athlete	0.272705508249	BaseballPlayer	0.272705508249	School	0.254407091448	Person	0.25229699334	OfficeHolder	0.222310724295		GOLD_STANDARD:	Agent	Person
Commission_**_http://dbpedia.org/resource/European_Commission	Organisation	0.218879076142	PoliticalParty	0.17441741618	ArchitecturalStructure	0.136625812739	Hospital	0.136625812739	Building	0.136625812739	Agent	0.129877300803	Company	0.109233330208	Congressman	0.0862207153714	BroadcastNetwork	0.0830420969587	School	0.0719806169075		GOLD_STANDARD:	Agent	Organisation
Romania_**_http://dbpedia.org/resource/Romania	Continent	0.339084004511	Country	0.321458729669	TelevisionStation	0.256804106758	PopulatedPlace	0.232489262158	Place	0.228863181227	Broadcaster	0.208085239268	Town	0.196137762364	Region	0.16791884595	AdministrativeRegion	0.16791884595	Settlement	0.164307730548		GOLD_STANDARD:	Place	PopulatedPlace	Country
Chicago_**_http://dbpedia.org/resource/Chicago	City	0.248348553251	Region	0.242084457668	AdministrativeRegion	0.242084457668	University	0.211896166283	Settlement	0.201482482188	Athlete	0.175988239338	BaseballPlayer	0.175988239338	PopulatedPlace	0.166773953981	Place	0.165295109324	Continent	0.16444956862		GOLD_STANDARD:	Place	PopulatedPlace	Settlement	City
Naoto Kan_**_http://dbpedia.org/resource/Naoto_Kan	OfficeHolder	0.256328758423	BroadcastNetwork	0.223742567446	Broadcaster	0.171082494098	Country	0.124534193086	TelevisionStation	0.11842242075	Person	0.113490103915	Settlement	0.0902563313331	City	0.0902520969928	PopulatedPlace	0.0863271883281	Place	0.0851703027233		GOLD_STANDARD:	Agent	Person	OfficeHolder
EU Commission_**_http://dbpedia.org/resource/European_Commission	Organisation	0.23892695153	Country	0.225650518076	Continent	0.21741731016	Company	0.20434203251	PoliticalParty	0.177175499161	BroadcastNetwork	0.173644000239	Broadcaster	0.167060458295	TelevisionStation	0.16047691635	PopulatedPlace	0.150173762326	Place	0.149199699518		GOLD_STANDARD:	Agent	Organisation
U.S. District Court_**_http://dbpedia.org/resource/United_States_district_court	School	0.249372099435	ArchitecturalStructure	0.23860215239	Hospital	0.23860215239	Building	0.23860215239	Organisation	0.23421959827	PoliticalParty	0.233639880674	Continent	0.195585059352	Country	0.19065415823	Region	0.18739845129	AdministrativeRegion	0.18739845129		GOLD_STANDARD:	Agent
Massachusetts_**_http://dbpedia.org/resource/Massachusetts	Region	0.32660345393	AdministrativeRegion	0.32660345393	University	0.272438727924	Continent	0.210935269274	Governor	0.205140078074	EducationalInstitution	0.20441375632	ArchitecturalStructure	0.190998855609	Hospital	0.190998855609	Building	0.190998855609	PoliticalParty	0.161363812414		GOLD_STANDARD:	
Lees Summit_**_http://dbpedia.org/resource/Lee's_Summit,_Missouri	Congressman	0.219351106408	University	0.204451331343	Politician	0.201063969991	EducationalInstitution	0.193659944125	Governor	0.177652080587	School	0.172077169689	OfficeHolder	0.158772315657	Person	0.156450745092	Agent	0.145308395635	Organisation	0.128643921451		GOLD_STANDARD:	Place	PopulatedPlace	Settlement	City
DAKAR_**_http://dbpedia.org/resource/Dakar	Settlement	0.290274487016	Town	0.284680513814	BroadcastNetwork	0.247746630668	City	0.240522902468	Company	0.228559765052	Continent	0.218787248504	PopulatedPlace	0.211041057021	Place	0.207290519418	Country	0.178135231954	Broadcaster	0.17458602763		GOLD_STANDARD:	Place	PopulatedPlace	Settlement
Bernama_**_http://dbpedia.org/resource/Bernama	Company	0.512186045872	TelevisionStation	0.198825691491	Broadcaster	0.198825691491	Settlement	0.180988398559	Country	0.174117531272	PopulatedPlace	0.155375043625	Place	0.152884303514	City	0.132431191042	AcademicJournal	0.108002705395	PeriodicalLiterature	0.108002705395		GOLD_STANDARD:	Agent	Organisation	Broadcaster	BroadcastNetwork
Minneapolis_**_http://dbpedia.org/resource/Minneapolis	Region	0.267082849729	AdministrativeRegion	0.267082849729	City	0.200247005377	Settlement	0.166395070158	Town	0.16099477414	Governor	0.149793500217	PopulatedPlace	0.132504819221	Place	0.130958089212	University	0.111713846055	Continent	0.105139071536		GOLD_STANDARD:	Place	PopulatedPlace	Settlement	City
Wen Hui Bao_**_http://dbpedia.org/resource/Wen_Hui_Bao	BroadcastNetwork	0.352649972122	Broadcaster	0.214400738698	OfficeHolder	0.207074560444	Person	0.141278265724	AcademicJournal	0.137109645772	PeriodicalLiterature	0.137109645772	Work	0.137109645772	WrittenWork	0.137109645772	Settlement	0.133967781963	Town	0.125613641692		GOLD_STANDARD:	
Texas_**_http://dbpedia.org/resource/Texas	Region	0.356441836768	AdministrativeRegion	0.356441836768	Continent	0.23922383894	Congressman	0.201366862466	PopulatedPlace	0.16831010943	Place	0.167145867428	Country	0.157661875724	Politician	0.151978281784	City	0.149201084468	University	0.127305516235		GOLD_STANDARD:	
Lancet_**_http://dbpedia.org/resource/The_Lancet	AcademicJournal	0.28287452264	PeriodicalLiterature	0.28287452264	WrittenWork	0.28287452264	Work	0.28287452264	ArchitecturalStructure	0.229113747276	Hospital	0.229113747276	Building	0.229113747276	University	0.212143319145	Company	0.176845764848	TelevisionStation	0.168856893212		GOLD_STANDARD:	Work	WrittenWork	PeriodicalLiterature	AcademicJournal
BSE_**_http://dbpedia.org/resource/Bovine_spongiform_encephalopathy	Disease	0.190173493624	AcademicJournal	0.100584550046	PeriodicalLiterature	0.100584550046	WrittenWork	0.100584550046	Work	0.100584550046	Continent	0.095361012252	Country	0.083032331123	OfficeHolder	0.0744160712962	BroadcastNetwork	0.0710481498639	Congressman	0.0691459474223		GOLD_STANDARD:	
Swedish_**_http://dbpedia.org/resource/Sweden	BroadcastNetwork	0.267594740604	Country	0.266838823953	Broadcaster	0.235265594631	Company	0.208354528191	TelevisionStation	0.202936448657	PopulatedPlace	0.187937677523	Continent	0.186978718761	Place	0.185377780398	Settlement	0.146607291272	City	0.125855017619		GOLD_STANDARD:	Place	PopulatedPlace	Country
Reuters_**_http://dbpedia.org/resource/Reuters	BroadcastNetwork	0.512186045872	Broadcaster	0.388645580978	TelevisionStation	0.265105116084	Country	0.16328213903	Continent	0.154855206895	Settlement	0.148888469079	PopulatedPlace	0.139006618977	Place	0.13802963837	City	0.120129222792	Organisation	0.112277251032		GOLD_STANDARD:	Agent	Organisation	Company
Republican_**_http://dbpedia.org/resource/Republican_Party_(United_States)	PoliticalParty	0.723307100856	Organisation	0.337112013996	Agent	0.239284595364	OfficeHolder	0.223930765015	Governor	0.202160952017	Region	0.199621380842	AdministrativeRegion	0.199621380842	Person	0.15293907151	Politician	0.135842836389	Congressman	0.131767733028		GOLD_STANDARD:	Agent	Organisation	PoliticalParty
Uppsala_**_http://dbpedia.org/resource/Uppsala	Town	0.276123464608	TelevisionStation	0.224157304748	Broadcaster	0.194623650165	ArchitecturalStructure	0.188287034638	Hospital	0.188287034638	Building	0.188287034638	University	0.169102051897	BroadcastNetwork	0.165089995581	City	0.163568332634	Settlement	0.156427417296		GOLD_STANDARD:	Place	PopulatedPlace	Settlement
Victor Babes_**_http://dbpedia.org/resource/Victor_Babeş	Athlete	0.302045079023	BaseballPlayer	0.302045079023	Congressman	0.231054879488	Politician	0.21368277282	Governor	0.199528441987	Person	0.180277432754	OfficeHolder	0.17657998041	School	0.166411463976	AcademicJournal	0.119429799393	PeriodicalLiterature	0.119429799393		GOLD_STANDARD:	
CHARLESTON_**_http://dbpedia.org/resource/Charleston,_South_Carolina	Settlement	0.228285019747	City	0.218328954722	Region	0.177470044465	AdministrativeRegion	0.177470044465	PopulatedPlace	0.140228584003	Place	0.13827666785	BroadcastNetwork	0.126454960949	Company	0.107714560299	University	0.0787840535154	Athlete	0.0754758480007		GOLD_STANDARD:	Place	PopulatedPlace	Settlement	City
Japan_**_http://dbpedia.org/resource/Japan	Continent	0.380543734058	Country	0.29083887826	BroadcastNetwork	0.254199413104	PopulatedPlace	0.214528779732	OfficeHolder	0.212431996689	Place	0.211304991114	Broadcaster	0.193802678629	Settlement	0.160005833093	Company	0.158226097027	City	0.157472472307		GOLD_STANDARD:	Place	PopulatedPlace	Country
Dakar_**_http://dbpedia.org/resource/Dakar	Town	0.471548292138	Continent	0.266333522413	Country	0.239375067328	TelevisionStation	0.21490474001	Broadcaster	0.178197395177	PopulatedPlace	0.163323640474	Place	0.160607753642	BroadcastNetwork	0.141490050345	Settlement	0.134474458172	City	0.11090325003		GOLD_STANDARD:	Place	PopulatedPlace	Settlement
Tianjin_**_http://dbpedia.org/resource/Tianjin	BroadcastNetwork	0.267300888106	Country	0.201127471224	Broadcaster	0.193997946657	City	0.193068114596	Settlement	0.187794432374	PopulatedPlace	0.186676987988	Place	0.184324288222	Town	0.18356142603	Region	0.166277526069	AdministrativeRegion	0.166277526069		GOLD_STANDARD:	Place	PopulatedPlace	Settlement
LAGOS_**_http://dbpedia.org/resource/Lagos	BroadcastNetwork	0.302410393608	Settlement	0.257644230843	City	0.214857291234	Broadcaster	0.199388531787	Company	0.191612732074	PopulatedPlace	0.168558360761	Place	0.165473532907	Town	0.155271003698	Country	0.12031998259	Continent	0.111262264208		GOLD_STANDARD:	Place	PopulatedPlace	Settlement
KUALA LUMPUR_**_http://dbpedia.org/resource/Kuala_Lumpur	BroadcastNetwork	0.599219947284	Broadcaster	0.340908155114	Company	0.256182955874	Settlement	0.179825981582	City	0.133044562528	School	0.125257715771	Town	0.120784475667	PopulatedPlace	0.083231278988	TelevisionStation	0.0825963629445	Place	0.0823940709132		GOLD_STANDARD:	Place	PopulatedPlace	Settlement
National Abortion Rights Action League_**_http://dbpedia.org/resource/NARAL_Pro-Choice_America	PoliticalParty	0.256633441066	School	0.248554767025	Organisation	0.223212757949	ArchitecturalStructure	0.198108083014	Hospital	0.198108083014	Building	0.198108083014	AcademicJournal	0.164582940717	PeriodicalLiterature	0.164582940717	Work	0.164582940717	WrittenWork	0.164582940717		GOLD_STANDARD:	Agent	Organisation
U.S. Federal District Court_**_http://dbpedia.org/resource/United_States_district_court	Organisation	0.236337135281	School	0.231710541961	ArchitecturalStructure	0.230778803133	Hospital	0.230778803133	Building	0.230778803133	PoliticalParty	0.228583636211	Country	0.202369932402	Region	0.196090176202	AdministrativeRegion	0.196090176202	Company	0.178662664707		GOLD_STANDARD:	Agent
Oxford University_**_http://dbpedia.org/resource/University_of_Oxford	University	0.827635699304	ArchitecturalStructure	0.678628006942	Hospital	0.678628006942	Building	0.678628006942	EducationalInstitution	0.585958079016	School	0.344280458727	Region	0.211371949666	AdministrativeRegion	0.211371949666	AcademicJournal	0.191114607688	PeriodicalLiterature	0.191114607688		GOLD_STANDARD:	
Robert Casey_**_http://dbpedia.org/resource/Robert_P._Casey	Governor	0.799629654649	Athlete	0.367976644542	BaseballPlayer	0.367976644542	Politician	0.361041739107	Congressman	0.343593350798	Person	0.298469454456	OfficeHolder	0.289472485707	Agent	0.191681709926	Region	0.170147272568	AdministrativeRegion	0.170147272568		GOLD_STANDARD:	Agent	Person	Politician	Governor
France_**_http://dbpedia.org/resource/France	Continent	0.379705009235	Country	0.353934387245	TelevisionStation	0.311946907201	PopulatedPlace	0.22892642228	Place	0.225470971623	Broadcaster	0.211258893187	Company	0.19192381555	Town	0.179646772784	Region	0.136544902147	AdministrativeRegion	0.136544902147		GOLD_STANDARD:	Place	PopulatedPlace	Country
LONDON_**_http://dbpedia.org/resource/London	Company	0.376429109167	Settlement	0.298134384831	City	0.286247950018	BroadcastNetwork	0.238539939834	PopulatedPlace	0.222381265188	Place	0.219061848994	Continent	0.194018745663	University	0.179923366818	Country	0.174519312418	Broadcaster	0.156181684271		GOLD_STANDARD:	Place	PopulatedPlace	Settlement
Africa_**_http://dbpedia.org/resource/Africa	Continent	0.510080776792	Town	0.36036736003	Country	0.292869360023	TelevisionStation	0.213693800359	PopulatedPlace	0.210318464319	Place	0.207161416967	Company	0.173351736691	Broadcaster	0.172815096512	Settlement	0.147482628988	BroadcastNetwork	0.131936392666		GOLD_STANDARD:	Place	PopulatedPlace	Continent
Democrat_**_http://dbpedia.org/resource/Democratic_Party_(United_States)	PoliticalParty	0.656325159484	Organisation	0.315978366213	OfficeHolder	0.22532004612	Agent	0.224689160566	Governor	0.146229097985	Person	0.141877871043	ArchitecturalStructure	0.141684510005	Hospital	0.141684510005	Building	0.141684510005	Region	0.135774601616		GOLD_STANDARD:	Agent	Organisation	PoliticalParty
British Heart Foundation_**_http://dbpedia.org/resource/British_Heart_Foundation	ArchitecturalStructure	0.284551331423	Hospital	0.284551331423	Building	0.284551331423	Disease	0.251546339638	AcademicJournal	0.242089554193	PeriodicalLiterature	0.242089554193	Work	0.242089554193	WrittenWork	0.242089554193	Continent	0.237620087624	University	0.235833090382		GOLD_STANDARD:	Agent	Organisation
Cynthia McKinney_**_http://dbpedia.org/resource/Cynthia_McKinney	Governor	0.375821910695	Athlete	0.340940589779	BaseballPlayer	0.340940589779	Congressman	0.320936782951	Politician	0.312946644967	Person	0.264114584131	OfficeHolder	0.253617113273	Region	0.236144801189	AdministrativeRegion	0.236144801189	Agent	0.180720592319		GOLD_STANDARD:	Agent	Person	Politician	Congressman
Lanarkshire_**_http://dbpedia.org/resource/Lanarkshire	Continent	0.187225703197	City	0.161474846123	PopulatedPlace	0.152463901364	Place	0.150386101827	Settlement	0.146179489729	University	0.143572943488	EducationalInstitution	0.136692706297	Country	0.126206924453	School	0.122932231913	Region	0.120347367339		GOLD_STANDARD:	Place	PopulatedPlace
University Hospital_**_http://dbpedia.org/resource/Uppsala_University_Hospital	University	0.48603202988	EducationalInstitution	0.447610865513	School	0.370768536779	AcademicJournal	0.166690383829	PeriodicalLiterature	0.166690383829	Work	0.166690383829	WrittenWork	0.166690383829	Organisation	0.157821599654	Town	0.155930372506	Congressman	0.152953436839		GOLD_STANDARD:	
Democratic Party_**_http://dbpedia.org/resource/Democratic_Party_(United_States)	PoliticalParty	0.665806611372	Organisation	0.345927890476	Agent	0.219599048178	OfficeHolder	0.185694003321	School	0.147052189736	ArchitecturalStructure	0.141767713894	Hospital	0.141767713894	Building	0.141767713894	Congressman	0.131849523177	Person	0.110214687654		GOLD_STANDARD:	Agent	Organisation	PoliticalParty
Oxford_**_http://dbpedia.org/resource/University_of_Oxford	University	0.827635699304	EducationalInstitution	0.547065863588	ArchitecturalStructure	0.293436052817	Hospital	0.293436052817	Building	0.293436052817	School	0.266496027873	Region	0.175565027117	AdministrativeRegion	0.175565027117	City	0.145935147044	AcademicJournal	0.138891857897		GOLD_STANDARD:	
Charleston_**_http://dbpedia.org/resource/Charleston,_South_Carolina	Region	0.264246848075	AdministrativeRegion	0.264246848075	University	0.231721534344	Congressman	0.2015490995	City	0.188707959822	Athlete	0.163269746501	BaseballPlayer	0.163269746501	Governor	0.160224495543	EducationalInstitution	0.159536811521	Continent	0.158650411858		GOLD_STANDARD:	Place	PopulatedPlace	Settlement	City
United States_**_http://dbpedia.org/resource/United_States	Continent	0.26626872223	University	0.200059876204	Organisation	0.188914497071	Region	0.186715304144	AdministrativeRegion	0.186715304144	Country	0.185303388696	EducationalInstitution	0.184181357263	PoliticalParty	0.177457797182	ArchitecturalStructure	0.177027448827	Hospital	0.177027448827		GOLD_STANDARD:	Place	PopulatedPlace	Country
BRUSSELS_**_http://dbpedia.org/resource/Brussels	Company	0.387135497535	BroadcastNetwork	0.341196498313	Settlement	0.298580529383	City	0.273995208879	Broadcaster	0.257844331976	PopulatedPlace	0.226053218471	Place	0.222243060142	Continent	0.201389653339	Country	0.199985178155	TelevisionStation	0.174492165639		GOLD_STANDARD:	Place	PopulatedPlace	Settlement
Bob Dole_**_http://dbpedia.org/resource/Bob_Dole	Governor	0.416913420242	Athlete	0.319312129956	BaseballPlayer	0.319312129956	Congressman	0.303540023691	Politician	0.287892328069	OfficeHolder	0.262343097909	Person	0.256076208588	PoliticalParty	0.247447512256	Agent	0.191552669214	Region	0.149384909196		GOLD_STANDARD:	Agent	Person	OfficeHolder
Latin America_**_http://dbpedia.org/resource/Latin_America	Continent	0.493522683448	Country	0.303792968002	Region	0.20202526681	AdministrativeRegion	0.20202526681	PopulatedPlace	0.198297496203	Place	0.195641013657	University	0.119821637807	Governor	0.118423970314	Town	0.118205569607	City	0.109129077379		GOLD_STANDARD:	Place	PopulatedPlace	Continent
CHICAGO_**_http://dbpedia.org/resource/Chicago	Settlement	0.316477277978	City	0.307734181632	Company	0.220688101923	PopulatedPlace	0.184492846505	Place	0.181976690226	Region	0.155616446009	AdministrativeRegion	0.155616446009	BroadcastNetwork	0.146391611245	Continent	0.0977733826301	Disease	0.0829024446976		GOLD_STANDARD:	Place	PopulatedPlace	Settlement	City
British_**_http://dbpedia.org/resource/United_Kingdom	Country	0.308315743006	Continent	0.286076643721	Company	0.281375720692	University	0.259779091545	PopulatedPlace	0.203459724948	Place	0.200668760122	EducationalInstitution	0.200084375316	BroadcastNetwork	0.198602694145	Broadcaster	0.188603589003	TelevisionStation	0.17860448386		GOLD_STANDARD:	Place	PopulatedPlace	Country
England_**_http://dbpedia.org/resource/England	University	0.350284587062	EducationalInstitution	0.298125720517	Continent	0.272848512778	Country	0.240867232809	Region	0.207645994589	AdministrativeRegion	0.207645994589	School	0.193807987427	PopulatedPlace	0.193732965143	Place	0.191765055624	Company	0.136800654997		GOLD_STANDARD:	Place	PopulatedPlace
Sakai_**_http://dbpedia.org/resource/Sakai,_Osaka	OfficeHolder	0.199416854093	Person	0.107693693462	School	0.10602842222	BroadcastNetwork	0.105384572675	ArchitecturalStructure	0.100197529705	Hospital	0.100197529705	Building	0.100197529705	Athlete	0.0998666265107	BaseballPlayer	0.0998666265107	Congressman	0.0997388077103		GOLD_STANDARD:	Place	PopulatedPlace	Settlement	City
Pennsylvania_**_http://dbpedia.org/resource/Pennsylvania	Region	0.387062402311	AdministrativeRegion	0.387062402311	University	0.232786939731	Governor	0.21081932268	Athlete	0.209590884187	BaseballPlayer	0.209590884187	Continent	0.209104670423	PoliticalParty	0.169491559811	ArchitecturalStructure	0.167424935534	Hospital	0.167424935534		GOLD_STANDARD:	
Senegalese_**_http://dbpedia.org/resource/Senegal	Town	0.453982254172	Country	0.290293090715	BroadcastNetwork	0.262516502903	Continent	0.247378784891	Broadcaster	0.218913694052	PopulatedPlace	0.188540830122	Place	0.185421015735	TelevisionStation	0.175310885202	Settlement	0.151767219551	Company	0.127362816081		GOLD_STANDARD:	Place	PopulatedPlace	Country
Franz Fischler_**_http://dbpedia.org/resource/Franz_Fischler	TelevisionStation	0.320003037146	Athlete	0.303220070986	BaseballPlayer	0.303220070986	Governor	0.169797470891	Person	0.150939001283	Continent	0.148582625165	OfficeHolder	0.148545762412	AcademicJournal	0.140878118837	PeriodicalLiterature	0.140878118837	Work	0.140878118837		GOLD_STANDARD:	Agent	Person
SHANGHAI_**_http://dbpedia.org/resource/Shanghai	BroadcastNetwork	0.321759329663	Settlement	0.301651957965	Company	0.299628255419	City	0.278432147285	PopulatedPlace	0.20426002048	Place	0.200315443864	Broadcaster	0.186724308924	Continent	0.143360933385	Country	0.138051145664	Region	0.0923198276571		GOLD_STANDARD:	Place	PopulatedPlace	Settlement
Medicare_**_http://dbpedia.org/resource/Medicare_(United_States)	PoliticalParty	0.242799777566	ArchitecturalStructure	0.1514888698	Hospital	0.1514888698	Building	0.1514888698	Organisation	0.147557921114	Region	0.147544680882	AdministrativeRegion	0.147544680882	Disease	0.147119438484	School	0.14377993947	Athlete	0.137110115576		GOLD_STANDARD:	Agent	Person
Rep_**_http://dbpedia.org/resource/Republican_Party_(United_States)	PoliticalParty	0.281905678484	Organisation	0.143987844732	Congressman	0.128881566829	Agent	0.123399776419	OfficeHolder	0.11534841481	Region	0.105470700899	AdministrativeRegion	0.105470700899	Person	0.0975967971189	Politician	0.0918123754824	School	0.087983173018		GOLD_STANDARD:	Agent	Organisation	PoliticalParty
MINNETONKA_**_http://dbpedia.org/resource/Minnetonka,_Minnesota	Disease	0.217133492927	Athlete	0.182257275945	BaseballPlayer	0.182257275945	Settlement	0.17063128742	City	0.168081610581	Region	0.1672195564	AdministrativeRegion	0.1672195564	Governor	0.158403829173	School	0.15133748098	EducationalInstitution	0.109804003108		GOLD_STANDARD:	Place	PopulatedPlace	Settlement	City
Lou Gehrig_**_http://dbpedia.org/resource/Lou_Gehrig	Governor	0.320954796364	Congressman	0.316142933029	Politician	0.283228770232	Person	0.233154998007	OfficeHolder	0.152042824692	Agent	0.142200141858	Region	0.136193932181	AdministrativeRegion	0.136193932181	Disease	0.12589998103	School	0.121590769763		GOLD_STANDARD:	Agent	Person	Athlete	BaseballPlayer
