Brazil_**_http://dbpedia.org/resource/Brazil	Country	0.339088935063	Continent	0.268047364196	OfficeHolder	0.220903031918	PopulatedPlace	0.214362243823	Place	0.210221248365	Region	0.144113954038	AdministrativeRegion	0.144113954038	Settlement	0.141042984631	Island	0.127457565386	Person	0.12312772704		GOLD_STANDARD:	Place	PopulatedPlace	Country
SINGAPORE_**_http://dbpedia.org/resource/Singapore	Settlement	0.265439883209	City	0.234234527562	PopulatedPlace	0.193037693445	Place	0.189875620061	Country	0.165712798983	Island	0.123524354598	Region	0.0869047594135	AdministrativeRegion	0.0869047594135	ArchitecturalStructure	0.0839461616959	Building	0.0839461616959		GOLD_STANDARD:	Place	PopulatedPlace	Country
Lihir_**_http://dbpedia.org/resource/Lihir_Island	PublicTransitSystem	0.259170608082	Organisation	0.189900599667	Company	0.18582589329	Agent	0.173453526334	Bank	0.170743493545	Person	0.159055395524	Artist	0.13535459239	Country	0.111584152994	ChemicalSubstance	0.0936137741523	ChemicalCompound	0.0936137741523		GOLD_STANDARD:	Place	PopulatedPlace	Island
North American_**_http://dbpedia.org/resource/North_America	Continent	0.801550088535	PeriodicalLiterature	0.284699623998	Newspaper	0.284699623998	WrittenWork	0.284699623998	Work	0.284699623998	Country	0.220945668602	ArchitecturalStructure	0.187517171893	Building	0.187517171893	Place	0.169296147358	PopulatedPlace	0.168752236178		GOLD_STANDARD:	Place	PopulatedPlace	Continent
N.M._**_http://dbpedia.org/resource/New_Mexico	PeriodicalLiterature	0.35648049144	Newspaper	0.35648049144	Work	0.35648049144	WrittenWork	0.35648049144	Region	0.235527553046	AdministrativeRegion	0.235527553046	ArchitecturalStructure	0.205721549384	Building	0.205721549384	Continent	0.184228726427	City	0.169352908977		GOLD_STANDARD:	
TORONTO_**_http://dbpedia.org/resource/Toronto	Settlement	0.267507251171	City	0.239067022367	PopulatedPlace	0.191363436727	Place	0.190167213871	Country	0.162219710596	ArchitecturalStructure	0.150093748186	Building	0.150093748186	OfficeHolder	0.129607038162	PeriodicalLiterature	0.101149076039	Newspaper	0.101149076039		GOLD_STANDARD:	Place	PopulatedPlace	Settlement	City
Warsaw_**_http://dbpedia.org/resource/Warsaw	Country	0.185617309497	ArchitecturalStructure	0.18542108414	Building	0.18542108414	PeriodicalLiterature	0.177291796112	Newspaper	0.177291796112	Work	0.177291796112	WrittenWork	0.177291796112	Place	0.144187319205	PopulatedPlace	0.142956460551	OfficeHolder	0.125860482652		GOLD_STANDARD:	Place	PopulatedPlace	Settlement
Softbank Corp_**_http://dbpedia.org/resource/SoftBank	Company	0.243719229471	Organisation	0.241584335256	Bank	0.239234681099	Agent	0.218117181746	PublicTransitSystem	0.207426027825	ChemicalSubstance	0.204716481535	ChemicalCompound	0.204716481535	Person	0.160823705875	ArchitecturalStructure	0.142695179734	Building	0.142695179734		GOLD_STANDARD:	Agent	Organisation	Company
Canada_**_http://dbpedia.org/resource/Canada	Continent	0.322228095802	Country	0.317515677365	OfficeHolder	0.223685631461	Region	0.220511065405	AdministrativeRegion	0.220511065405	PopulatedPlace	0.21679628929	Place	0.215769108674	PeriodicalLiterature	0.195868141466	Newspaper	0.195868141466	WrittenWork	0.195868141466		GOLD_STANDARD:	Place	PopulatedPlace	Country
ST. LOUIS_**_http://dbpedia.org/resource/St._Louis,_Missouri	Settlement	0.300509478706	City	0.268369435819	PopulatedPlace	0.206321944373	Place	0.202732445428	OfficeHolder	0.192651870337	Region	0.184112345201	AdministrativeRegion	0.184112345201	ChemicalSubstance	0.141798887306	ChemicalCompound	0.141798887306	Country	0.126720978237		GOLD_STANDARD:	
Norwest_**_http://dbpedia.org/resource/Norwest	Island	0.308600445251	PublicTransitSystem	0.227686814281	Bank	0.212193279618	Organisation	0.161425603542	Agent	0.161400522942	Company	0.157527885263	Person	0.154552786828	ArchitecturalStructure	0.126786538105	Building	0.126786538105	Continent	0.116307925706		GOLD_STANDARD:	
Commerce Bancshares Inc._**_http://dbpedia.org/resource/Commerce_Bancshares	Bank	0.332973040153	Company	0.253369575574	Organisation	0.249863834998	ArchitecturalStructure	0.239819225257	Building	0.239819225257	Agent	0.238322050591	ChemicalSubstance	0.237551439739	ChemicalCompound	0.237551439739	Person	0.194259051178	PublicTransitSystem	0.193771985781		GOLD_STANDARD:	Agent	Organisation	Company
Nevada_**_http://dbpedia.org/resource/Nevada	Region	0.470054482466	AdministrativeRegion	0.470054482466	Continent	0.18638300773	PopulatedPlace	0.182283644924	Place	0.180358386429	PeriodicalLiterature	0.169544017029	Newspaper	0.169544017029	Work	0.169544017029	WrittenWork	0.169544017029	PublicTransitSystem	0.166287135258		GOLD_STANDARD:	
Australia_**_http://dbpedia.org/resource/Australia	Country	0.322856902852	Island	0.318999823825	Continent	0.292054411548	PopulatedPlace	0.21344259891	Place	0.210196865724	Region	0.174804605423	AdministrativeRegion	0.174804605423	Artist	0.145174448576	Settlement	0.12600436531	City	0.124348370788		GOLD_STANDARD:	Place	PopulatedPlace	Country
Singapore_**_http://dbpedia.org/resource/Singapore	Country	0.272641923523	Island	0.177406955121	PopulatedPlace	0.172018409975	Place	0.169570278424	City	0.120365297438	Settlement	0.117644670716	Continent	0.117032321183	Company	0.11514231805	Organisation	0.11000911434	Region	0.10634880855		GOLD_STANDARD:	Place	PopulatedPlace	Country
Zygmunt Solorz_**_http://dbpedia.org/resource/Zygmunt_Solorz-Żak	OfficeHolder	0.216800032609	Bank	0.174501040461	Person	0.166504630156	Country	0.147551332454	Company	0.139465156945	Agent	0.139037120941	Organisation	0.136330871694	PeriodicalLiterature	0.130590104768	Newspaper	0.130590104768	Work	0.130590104768		GOLD_STANDARD:	
Paramount_**_http://dbpedia.org/resource/Paramount,_California	PublicTransitSystem	0.277220877738	Island	0.203877477809	PeriodicalLiterature	0.181929978231	Newspaper	0.181929978231	WrittenWork	0.181929978231	Work	0.181929978231	Organisation	0.168010289126	Company	0.161586136854	Agent	0.16143802961	ChemicalSubstance	0.15455933286		GOLD_STANDARD:	Place	PopulatedPlace	Settlement	City
Chicago Board Options Exchange_**_http://dbpedia.org/resource/Chicago_Board_Options_Exchange	ArchitecturalStructure	0.348673267974	Building	0.348673267974	PeriodicalLiterature	0.261981365455	Newspaper	0.261981365455	WrittenWork	0.261981365455	Work	0.261981365455	Agent	0.219804573176	Company	0.215952469128	Organisation	0.206367606621	Bank	0.200100669999		GOLD_STANDARD:	Agent	Organisation	Company
Kingston_**_http://dbpedia.org/resource/Kingston_Technology	PeriodicalLiterature	0.300861145756	Newspaper	0.300861145756	Work	0.300861145756	WrittenWork	0.300861145756	ArchitecturalStructure	0.249969939627	Building	0.249969939627	Artist	0.249288986766	Continent	0.141781653016	City	0.132085864603	Settlement	0.108832948157		GOLD_STANDARD:	Agent	Organisation	Company
Missouri_**_http://dbpedia.org/resource/Missouri	Region	0.394515100345	AdministrativeRegion	0.394515100345	Continent	0.201456140191	PopulatedPlace	0.180668105382	Place	0.180035930821	City	0.170157802693	Settlement	0.16312481588	ArchitecturalStructure	0.158858083033	Building	0.158858083033	Bank	0.150899799076		GOLD_STANDARD:	
St. Petersburg_**_http://dbpedia.org/resource/St._Petersburg,_Florida	ArchitecturalStructure	0.313821654881	Building	0.313821654881	PeriodicalLiterature	0.245318581613	Newspaper	0.245318581613	WrittenWork	0.245318581613	Work	0.245318581613	Continent	0.184529771207	Region	0.173339075615	AdministrativeRegion	0.173339075615	City	0.148116839372		GOLD_STANDARD:	Place	PopulatedPlace	Settlement	City
Hampshire_**_http://dbpedia.org/resource/Hampshire	PublicTransitSystem	0.308073958251	PeriodicalLiterature	0.302569019042	Newspaper	0.302569019042	Work	0.302569019042	WrittenWork	0.302569019042	Continent	0.218059074332	ArchitecturalStructure	0.209971536781	Building	0.209971536781	Artist	0.184421768459	Region	0.132866388591		GOLD_STANDARD:	Place	PopulatedPlace
Chile_**_http://dbpedia.org/resource/Chile	Country	0.319944946916	Region	0.260004711091	AdministrativeRegion	0.260004711091	Continent	0.242420427297	PopulatedPlace	0.219003286567	Place	0.214030330743	OfficeHolder	0.204410421495	Island	0.203883306732	Settlement	0.143986498998	City	0.14108093077		GOLD_STANDARD:	Place	PopulatedPlace	Country
Softbank_**_http://dbpedia.org/resource/SoftBank	PublicTransitSystem	0.174441921536	Bank	0.16176326705	ChemicalSubstance	0.158951266981	ChemicalCompound	0.158951266981	Organisation	0.155012743151	Company	0.153798419502	Agent	0.141984480004	Person	0.107226771188	Island	0.0831795338516	ArchitecturalStructure	0.0800023645312		GOLD_STANDARD:	Agent	Organisation	Company
Central Asia_**_http://dbpedia.org/resource/Central_Asia	Continent	0.601902395084	PeriodicalLiterature	0.231533057019	Newspaper	0.231533057019	Work	0.231533057019	WrittenWork	0.231533057019	Country	0.222314923365	ArchitecturalStructure	0.214713070653	Building	0.214713070653	Place	0.166792765919	PopulatedPlace	0.165362309061		GOLD_STANDARD:	Place	PopulatedPlace
WARSAW_**_http://dbpedia.org/resource/Warsaw	Settlement	0.209839530858	City	0.163685255982	PopulatedPlace	0.144599294418	Place	0.142905341386	Country	0.107068103315	ArchitecturalStructure	0.086157914816	Building	0.086157914816	PeriodicalLiterature	0.0752929431653	Newspaper	0.0752929431653	Work	0.0752929431653		GOLD_STANDARD:	Place	PopulatedPlace	Settlement
TOKYO_**_http://dbpedia.org/resource/Tokyo	Settlement	0.249881793907	City	0.20601857176	PopulatedPlace	0.202225592835	Place	0.198626121865	Country	0.196328339199	Region	0.139559096698	AdministrativeRegion	0.139559096698	ChemicalSubstance	0.134427878199	ChemicalCompound	0.134427878199	Continent	0.0980647548459		GOLD_STANDARD:	Place	PopulatedPlace	Settlement	City
U.S._**_http://dbpedia.org/resource/United_States	Continent	0.42142569542	Country	0.321284025297	Region	0.226109294085	AdministrativeRegion	0.226109294085	PopulatedPlace	0.212161659367	Place	0.209861123221	PeriodicalLiterature	0.18239732413	Newspaper	0.18239732413	Work	0.18239732413	WrittenWork	0.18239732413		GOLD_STANDARD:	Place	PopulatedPlace	Country
KeyCorp_**_http://dbpedia.org/resource/KeyBank	Bank	0.30349261872	Island	0.253706077613	Company	0.226824709168	Organisation	0.223899302406	Agent	0.218368373517	Person	0.199354228023	PublicTransitSystem	0.177092794201	ChemicalSubstance	0.120814003472	ChemicalCompound	0.120814003472	ArchitecturalStructure	0.108909496597		GOLD_STANDARD:	Agent	Organisation	Company	Bank
Montreal_**_http://dbpedia.org/resource/Montreal	OfficeHolder	0.426049161864	Country	0.200972901852	PeriodicalLiterature	0.197907207085	Newspaper	0.197907207085	Work	0.197907207085	WrittenWork	0.197907207085	City	0.176891172966	ArchitecturalStructure	0.168676075846	Building	0.168676075846	Place	0.165457768556		GOLD_STANDARD:	Place	PopulatedPlace	Settlement	City
Jacques Chirac_**_http://dbpedia.org/resource/Jacques_Chirac	Artist	0.269091732338	Person	0.191001751526	Country	0.176682616253	Continent	0.111273760868	PopulatedPlace	0.110456425463	Place	0.110234336244	ArchitecturalStructure	0.10268330281	Building	0.10268330281	Bank	0.101006177788	Agent	0.0989267131485		GOLD_STANDARD:	Agent	Person	OfficeHolder
England_**_http://dbpedia.org/resource/England	PeriodicalLiterature	0.345094750211	Newspaper	0.345094750211	Work	0.345094750211	WrittenWork	0.345094750211	Continent	0.253280263961	Country	0.249774817264	ArchitecturalStructure	0.185584347032	Building	0.185584347032	Place	0.183334244085	PopulatedPlace	0.183267076833		GOLD_STANDARD:	Place	PopulatedPlace
Hachette_**_http://dbpedia.org/resource/Hachette_Filipacchi_Médias	OfficeHolder	0.16526873463	Island	0.162063281663	ChemicalSubstance	0.138185027095	ChemicalCompound	0.138185027095	PublicTransitSystem	0.130817962365	Bank	0.11429294446	Organisation	0.104952532709	Company	0.103431036847	PeriodicalLiterature	0.0978064481835	Newspaper	0.0978064481835		GOLD_STANDARD:	
American Stock Exchange_**_http://dbpedia.org/resource/American_Stock_Exchange	Continent	0.460340014908	ArchitecturalStructure	0.439328232192	Building	0.439328232192	PeriodicalLiterature	0.278147268486	Newspaper	0.278147268486	WrittenWork	0.278147268486	Work	0.278147268486	Agent	0.229167060669	Company	0.226546740149	Organisation	0.218301791767		GOLD_STANDARD:	
South America_**_http://dbpedia.org/resource/South_America	Continent	0.801550088535	PeriodicalLiterature	0.294887410379	Newspaper	0.294887410379	Work	0.294887410379	WrittenWork	0.294887410379	ArchitecturalStructure	0.241359873434	Building	0.241359873434	Country	0.215494692459	Region	0.197881887322	AdministrativeRegion	0.197881887322		GOLD_STANDARD:	Place	PopulatedPlace	Continent
PaineWebber_**_http://dbpedia.org/resource/Paine_Webber	Bank	0.239254274641	Person	0.23731146003	Agent	0.177959754023	Island	0.16382158684	Company	0.163212611434	Organisation	0.159076362033	ChemicalSubstance	0.154581886899	ChemicalCompound	0.154581886899	OfficeHolder	0.141961788126	PublicTransitSystem	0.092896371615		GOLD_STANDARD:	Agent	Organisation	Company	Bank
Omaha_**_http://dbpedia.org/resource/Omaha,_Nebraska	Region	0.285584604051	AdministrativeRegion	0.285584604051	City	0.190587517105	Continent	0.189122952962	Person	0.188733788737	Settlement	0.174218349636	Bank	0.171209029701	PopulatedPlace	0.154071082795	Place	0.1531591306	Agent	0.139843017193		GOLD_STANDARD:	Place	PopulatedPlace	Settlement	City
SYDNEY_**_http://dbpedia.org/resource/Sydney	Settlement	0.260904579602	Island	0.224525833993	City	0.222100882086	PopulatedPlace	0.204188601029	Place	0.20152833177	Country	0.194991914638	Artist	0.156603575363	ArchitecturalStructure	0.112409311591	Building	0.112409311591	Continent	0.0933911514097		GOLD_STANDARD:	Place	PopulatedPlace	Settlement	City
Peter Munk_**_http://dbpedia.org/resource/Peter_Munk	Artist	0.441966292326	OfficeHolder	0.260406536946	Person	0.203466192658	ArchitecturalStructure	0.188066088295	Building	0.188066088295	Island	0.179872030423	PeriodicalLiterature	0.172222162932	Newspaper	0.172222162932	WrittenWork	0.172222162932	Work	0.172222162932		GOLD_STANDARD:	Agent	Person
NEW YORK_**_http://dbpedia.org/resource/New_York_City	PeriodicalLiterature	0.349198917515	Newspaper	0.349198917515	Work	0.349198917515	WrittenWork	0.349198917515	ArchitecturalStructure	0.241033264165	Building	0.241033264165	Settlement	0.221992822811	City	0.185982268652	Place	0.157629862301	PopulatedPlace	0.155140208514		GOLD_STANDARD:	Place	PopulatedPlace	Settlement	City
Berkshire Hathaway Inc_**_http://dbpedia.org/resource/Berkshire_Hathaway	PublicTransitSystem	0.343208503097	ArchitecturalStructure	0.306820559243	Building	0.306820559243	PeriodicalLiterature	0.297374022376	Newspaper	0.297374022376	Work	0.297374022376	WrittenWork	0.297374022376	Person	0.286133976993	Agent	0.262376839489	Artist	0.260812604319		GOLD_STANDARD:	Agent	Organisation	Company
Pacific Stock Exchange_**_http://dbpedia.org/resource/Pacific_Exchange	ArchitecturalStructure	0.454015913467	Building	0.454015913467	Continent	0.289151583701	PeriodicalLiterature	0.272738098259	Newspaper	0.272738098259	Work	0.272738098259	WrittenWork	0.272738098259	Company	0.242946785205	Organisation	0.237617893575	Agent	0.221738972657		GOLD_STANDARD:	Agent
Creedmoor_**_http://dbpedia.org/resource/Creedmoor,_North_Carolina	PublicTransitSystem	0.150061119008	ArchitecturalStructure	0.130023524611	Building	0.130023524611	PeriodicalLiterature	0.125263329895	Newspaper	0.125263329895	WrittenWork	0.125263329895	Work	0.125263329895	Artist	0.120631517807	Island	0.0994839445881	Person	0.0858311103185		GOLD_STANDARD:	Place	PopulatedPlace	Settlement	City
Polish_**_http://dbpedia.org/resource/Poland	Country	0.268478088286	OfficeHolder	0.196354621876	Continent	0.191895404521	PopulatedPlace	0.161602690598	Place	0.158867365194	Settlement	0.111225754776	PeriodicalLiterature	0.0988252812751	Newspaper	0.0988252812751	WrittenWork	0.0988252812751	Work	0.0988252812751		GOLD_STANDARD:	Place	PopulatedPlace	Country
Chicago_**_http://dbpedia.org/resource/Chicago	Region	0.266510940377	AdministrativeRegion	0.266510940377	Continent	0.230983261424	PeriodicalLiterature	0.211288838645	Newspaper	0.211288838645	Work	0.211288838645	WrittenWork	0.211288838645	City	0.207067410363	Settlement	0.206044259528	PopulatedPlace	0.183830469222		GOLD_STANDARD:	Place	PopulatedPlace	Settlement	City
Swiss_**_http://dbpedia.org/resource/Switzerland	OfficeHolder	0.335412565653	Country	0.293031610128	Continent	0.181993576784	PopulatedPlace	0.167043175021	Place	0.162635788816	Region	0.14621552593	AdministrativeRegion	0.14621552593	Bank	0.122963219703	Person	0.0960739760401	ChemicalSubstance	0.0907086117969		GOLD_STANDARD:	Place	PopulatedPlace	Country
GMT_**_http://dbpedia.org/resource/Greenwich_Mean_Time	Island	0.153300004088	Country	0.121569874441	PeriodicalLiterature	0.106840195994	Newspaper	0.106840195994	Work	0.106840195994	WrittenWork	0.106840195994	ArchitecturalStructure	0.0906788993914	Building	0.0906788993914	Place	0.0778010745679	PopulatedPlace	0.0774223150142		GOLD_STANDARD:	
Ford_**_http://dbpedia.org/resource/Ford_Motor_Company	Artist	0.288267727833	PublicTransitSystem	0.249544776865	Person	0.169688662844	Island	0.169374922496	ArchitecturalStructure	0.167607275992	Building	0.167607275992	Continent	0.163149923432	Agent	0.153560818167	PeriodicalLiterature	0.148583055228	Newspaper	0.148583055228		GOLD_STANDARD:	Agent	Organisation	Company
Kansas City_**_http://dbpedia.org/resource/Kansas_City,_Missouri	Region	0.381943251255	AdministrativeRegion	0.381943251255	PeriodicalLiterature	0.263928144	Newspaper	0.263928144	Work	0.263928144	WrittenWork	0.263928144	ArchitecturalStructure	0.251518881014	Building	0.251518881014	Continent	0.228391167085	PublicTransitSystem	0.185777638442		GOLD_STANDARD:	Place	PopulatedPlace	Settlement	City
California_**_http://dbpedia.org/resource/California	Region	0.466426769819	AdministrativeRegion	0.466426769819	Continent	0.210846131272	PopulatedPlace	0.184841806075	Place	0.181652673175	PeriodicalLiterature	0.176752069331	Newspaper	0.176752069331	Work	0.176752069331	WrittenWork	0.176752069331	City	0.168112296095		GOLD_STANDARD:	
Magna_**_http://dbpedia.org/resource/Magna_International	PublicTransitSystem	0.256438281139	Island	0.184204777256	Organisation	0.171459775755	Company	0.166148619168	Agent	0.154933819553	PeriodicalLiterature	0.145996828112	Newspaper	0.145996828112	Work	0.145996828112	WrittenWork	0.145996828112	Bank	0.139619618524		GOLD_STANDARD:	Agent	Organisation	Company
Indonesia_**_http://dbpedia.org/resource/Indonesia	Country	0.314996068652	Island	0.282028019622	Continent	0.184910517002	PopulatedPlace	0.179360729993	Place	0.175196561116	Settlement	0.0995885968564	Region	0.0961047280486	AdministrativeRegion	0.0961047280486	Company	0.0836499222124	City	0.081527909355		GOLD_STANDARD:	Place	PopulatedPlace	Country
Buffett_**_http://dbpedia.org/resource/Warren_Buffett	Person	0.290218170673	Island	0.211504144038	Agent	0.206794328339	Bank	0.197815804895	PublicTransitSystem	0.192754893107	Organisation	0.186055436657	Company	0.185661350984	OfficeHolder	0.182017858922	PeriodicalLiterature	0.131876593767	Newspaper	0.131876593767		GOLD_STANDARD:	Agent	Person
MFS_**_http://dbpedia.org/resource/Metropolitan_Fiber_Systems	Island	0.358963833571	PublicTransitSystem	0.231610482819	Bank	0.226626141018	Organisation	0.211266435128	Company	0.210069726441	Agent	0.192598478946	Artist	0.181818036975	Person	0.151586964321	ArchitecturalStructure	0.131834882442	Building	0.131834882442		GOLD_STANDARD:	
Markham_**_http://dbpedia.org/resource/Markham,_Ontario	Artist	0.369487761136	ArchitecturalStructure	0.276188012928	Building	0.276188012928	OfficeHolder	0.23645228477	PeriodicalLiterature	0.225713569297	Newspaper	0.225713569297	Work	0.225713569297	WrittenWork	0.225713569297	Person	0.184640860189	Continent	0.162699744903		GOLD_STANDARD:	Place	PopulatedPlace	Settlement	City
Banc One_**_http://dbpedia.org/resource/Bank_One_Corporation	PeriodicalLiterature	0.281845740314	Newspaper	0.281845740314	WrittenWork	0.281845740314	Work	0.281845740314	Bank	0.265179458501	Continent	0.22654897792	ArchitecturalStructure	0.190382581283	Building	0.190382581283	ChemicalSubstance	0.187547188252	ChemicalCompound	0.187547188252		GOLD_STANDARD:	Agent	Organisation	Company	Bank
First Chicago_**_http://dbpedia.org/resource/First_Chicago_Bank	PeriodicalLiterature	0.366412544584	Newspaper	0.366412544584	WrittenWork	0.366412544584	Work	0.366412544584	Continent	0.331597810579	Bank	0.254418757123	Region	0.246999830614	AdministrativeRegion	0.246999830614	ArchitecturalStructure	0.243502138014	Building	0.243502138014		GOLD_STANDARD:	Agent
San Francisco_**_http://dbpedia.org/resource/San_Francisco	Artist	0.284614107964	OfficeHolder	0.215493899657	City	0.163127217994	Region	0.153727733494	AdministrativeRegion	0.153727733494	Settlement	0.139256591255	PopulatedPlace	0.119202848183	Place	0.117514275001	Person	0.10700489853	Country	0.103661381338		GOLD_STANDARD:	Place	PopulatedPlace	Settlement	City
Canadian_**_http://dbpedia.org/resource/Canada	Country	0.304919876665	Continent	0.286793967443	PopulatedPlace	0.20295175599	OfficeHolder	0.202088254288	Place	0.20092085688	Region	0.1927933167	AdministrativeRegion	0.1927933167	PeriodicalLiterature	0.161800486337	Newspaper	0.161800486337	WrittenWork	0.161800486337		GOLD_STANDARD:	Place	PopulatedPlace	Country
Anthony Barker_**_http://dbpedia.org/resource/Anthony_Raine_Barker	OfficeHolder	0.269091732338	ArchitecturalStructure	0.253452512086	Building	0.253452512086	PeriodicalLiterature	0.240111745687	Newspaper	0.240111745687	WrittenWork	0.240111745687	Work	0.240111745687	Person	0.216211236252	PublicTransitSystem	0.166030643804	Continent	0.160746293083		GOLD_STANDARD:	Agent	Person	Artist
COPENHAGEN_**_http://dbpedia.org/resource/Copenhagen	Settlement	0.248944198423	City	0.205201553823	Country	0.194920985357	PopulatedPlace	0.193704079626	Place	0.190205763575	OfficeHolder	0.140663063437	PeriodicalLiterature	0.0795820294383	Newspaper	0.0795820294383	Work	0.0795820294383	WrittenWork	0.0795820294383		GOLD_STANDARD:	Place	PopulatedPlace	Settlement
Calif._**_http://dbpedia.org/resource/California	Region	0.289983449527	AdministrativeRegion	0.289983449527	City	0.166887129503	Settlement	0.149571655503	PopulatedPlace	0.136656889967	Place	0.134503527636	Artist	0.11390268034	PeriodicalLiterature	0.106446668371	Newspaper	0.106446668371	WrittenWork	0.106446668371		GOLD_STANDARD:	
NationsBank_**_http://dbpedia.org/resource/NationsBank	Bank	0.392040291175	Person	0.25774918235	Agent	0.199610987711	Company	0.187200111931	Island	0.185497981714	Organisation	0.183747919857	Continent	0.177700208642	ChemicalSubstance	0.1707251162	ChemicalCompound	0.1707251162	OfficeHolder	0.132333381591		GOLD_STANDARD:	Agent	Person
Swedish_**_http://dbpedia.org/resource/Sweden	Country	0.281879392791	OfficeHolder	0.179239483287	PopulatedPlace	0.154842985107	Place	0.150398940084	Continent	0.123570658735	PeriodicalLiterature	0.0980033898185	Newspaper	0.0980033898185	Work	0.0980033898185	WrittenWork	0.0980033898185	Region	0.0930998652897		GOLD_STANDARD:	Place	PopulatedPlace	Country
Wall Street_**_http://dbpedia.org/resource/New_York_Stock_Exchange	Artist	0.256091010206	ArchitecturalStructure	0.252214861281	Building	0.252214861281	PublicTransitSystem	0.189060935996	PeriodicalLiterature	0.18041645058	Newspaper	0.18041645058	WrittenWork	0.18041645058	Work	0.18041645058	Person	0.180018838801	Continent	0.173425613664		GOLD_STANDARD:	
Johnson Controls Inc_**_http://dbpedia.org/resource/Johnson_Controls	ChemicalSubstance	0.279916382023	ChemicalCompound	0.279916382023	Company	0.272517114857	Organisation	0.264388901611	Artist	0.255447777344	ArchitecturalStructure	0.250899430621	Building	0.250899430621	Agent	0.245901510532	PeriodicalLiterature	0.195461737626	Newspaper	0.195461737626		GOLD_STANDARD:	Agent	Organisation	Company
Sydney_**_http://dbpedia.org/resource/Sydney	Island	0.293646965933	Country	0.195844521516	Artist	0.167982202431	ArchitecturalStructure	0.164726630419	Building	0.164726630419	Place	0.161812649519	PopulatedPlace	0.161725665015	Continent	0.155610874791	City	0.142728006798	Settlement	0.138428505464		GOLD_STANDARD:	Place	PopulatedPlace	Settlement	City
Stagecoach_**_http://dbpedia.org/resource/Stagecoach_Group	Island	0.259170608082	PeriodicalLiterature	0.205041131481	Newspaper	0.205041131481	WrittenWork	0.205041131481	Work	0.205041131481	ArchitecturalStructure	0.188592383067	Building	0.188592383067	Company	0.168094306999	Organisation	0.168094306999	Artist	0.166030643804		GOLD_STANDARD:	Agent	Organisation	PublicTransitSystem
SAN DIEGO_**_http://dbpedia.org/resource/San_Diego	City	0.182610046731	Settlement	0.17092941146	ChemicalSubstance	0.159977562666	ChemicalCompound	0.159977562666	Region	0.124773922663	AdministrativeRegion	0.124773922663	PopulatedPlace	0.114416644671	Place	0.110888149759	Country	0.0711548815229	Artist	0.0695451020329		GOLD_STANDARD:	Place	PopulatedPlace	Settlement	City
Copenhagen_**_http://dbpedia.org/resource/Copenhagen	OfficeHolder	0.201218846523	Country	0.191075898809	PopulatedPlace	0.134037267468	Place	0.131587194708	Settlement	0.120033449239	City	0.105246358837	Person	0.0922389891673	PeriodicalLiterature	0.0861812660764	Newspaper	0.0861812660764	Work	0.0861812660764		GOLD_STANDARD:	Place	PopulatedPlace	Settlement
France_**_http://dbpedia.org/resource/France	OfficeHolder	0.596596228757	Country	0.307146087339	Continent	0.216631629416	PopulatedPlace	0.179236132682	Place	0.175730514065	Region	0.14803667431	AdministrativeRegion	0.14803667431	Person	0.128380957632	PeriodicalLiterature	0.124876612261	Newspaper	0.124876612261		GOLD_STANDARD:	Place	PopulatedPlace	Country
FARMINGTON HILLS_**_http://dbpedia.org/resource/Farmington_Hills,_Michigan	Settlement	0.248474777684	City	0.221532594896	Region	0.176517410898	AdministrativeRegion	0.176517410898	PopulatedPlace	0.15173042741	Place	0.15027861414	Artist	0.139900071162	PublicTransitSystem	0.124953270969	PeriodicalLiterature	0.121743438904	Newspaper	0.121743438904		GOLD_STANDARD:	Place	PopulatedPlace	Settlement	City
Albuquerque_**_http://dbpedia.org/resource/Albuquerque,_New_Mexico	Region	0.330083321581	AdministrativeRegion	0.330083321581	City	0.229900362504	PeriodicalLiterature	0.229243730094	Newspaper	0.229243730094	Work	0.229243730094	WrittenWork	0.229243730094	Settlement	0.209097155722	PopulatedPlace	0.172966016154	Place	0.170281376941		GOLD_STANDARD:	Place	PopulatedPlace	Settlement	City
Mexico_**_http://dbpedia.org/resource/Mexico_City	Region	0.35382529785	AdministrativeRegion	0.35382529785	Country	0.261430713484	Continent	0.240693545869	PeriodicalLiterature	0.238303153703	Newspaper	0.238303153703	WrittenWork	0.238303153703	Work	0.238303153703	PopulatedPlace	0.225918842182	Place	0.222812403868		GOLD_STANDARD:	Place	PopulatedPlace	Settlement
TEMPE_**_http://dbpedia.org/resource/Tempe,_Arizona	Region	0.221683225808	AdministrativeRegion	0.221683225808	Settlement	0.214555352376	City	0.20669123685	PopulatedPlace	0.133164942598	Place	0.130275041574	PublicTransitSystem	0.109614188849	ChemicalSubstance	0.085548551068	ChemicalCompound	0.085548551068	Artist	0.0550420319958		GOLD_STANDARD:	Place	PopulatedPlace	Settlement	City
Levoxyl_**_http://dbpedia.org/resource/Levothyroxine	Bank	0.154314359541	Company	0.137319055591	Organisation	0.13186558257	Agent	0.1155860932	ArchitecturalStructure	0.104155975139	Building	0.104155975139	Island	0.0936137741523	Person	0.0804692761517	Region	0.0775931471517	AdministrativeRegion	0.0775931471517		GOLD_STANDARD:	ChemicalSubstance	ChemicalCompound
LONDON_**_http://dbpedia.org/resource/London	Settlement	0.257812764354	City	0.224258739402	PopulatedPlace	0.204312430243	Place	0.202683864978	Country	0.198283712996	PeriodicalLiterature	0.180505921234	Newspaper	0.180505921234	WrittenWork	0.180505921234	Work	0.180505921234	ArchitecturalStructure	0.148126928589		GOLD_STANDARD:	Place	PopulatedPlace	Settlement
Kazakstan_**_http://dbpedia.org/resource/Kazakhstan	Country	0.258886725667	Island	0.192939986229	PopulatedPlace	0.148612929158	Place	0.143621777123	Continent	0.11974833022	OfficeHolder	0.103844801277	Region	0.0951564114828	AdministrativeRegion	0.0951564114828	Settlement	0.0860847209634	City	0.072083997698		GOLD_STANDARD:	Place	PopulatedPlace	Country
The New York Times_**_http://dbpedia.org/resource/The_New_York_Times	ArchitecturalStructure	0.416961732574	Building	0.416961732574	Continent	0.289793517188	Artist	0.240111745687	PublicTransitSystem	0.205041131481	AdministrativeRegion	0.174686435193	Region	0.174686435193	Place	0.165464724373	City	0.164536712323	PopulatedPlace	0.158067753543		GOLD_STANDARD:	Work	WrittenWork	PeriodicalLiterature	Newspaper
Montana_**_http://dbpedia.org/resource/Montana	Region	0.415435648398	AdministrativeRegion	0.415435648398	PopulatedPlace	0.178044311491	Place	0.176116827135	Country	0.169239396006	City	0.148352001119	Settlement	0.143717923791	PeriodicalLiterature	0.128852123108	Newspaper	0.128852123108	Work	0.128852123108		GOLD_STANDARD:	
U.S_**_http://dbpedia.org/resource/United_States	Continent	0.30212803981	Country	0.240551852941	PeriodicalLiterature	0.205648044152	Newspaper	0.205648044152	WrittenWork	0.205648044152	Work	0.205648044152	ArchitecturalStructure	0.205538195571	Building	0.205538195571	Place	0.184345678731	PopulatedPlace	0.183713066289		GOLD_STANDARD:	Place	PopulatedPlace	Country
ALLENTOWN_**_http://dbpedia.org/resource/Allentown,_Pennsylvania	Settlement	0.227480761075	City	0.216495660673	PopulatedPlace	0.131935202916	PeriodicalLiterature	0.131894286927	Newspaper	0.131894286927	Work	0.131894286927	WrittenWork	0.131894286927	Place	0.13138915106	Region	0.119490749891	AdministrativeRegion	0.119490749891		GOLD_STANDARD:	Place	PopulatedPlace	Settlement
Zycie Warszawy_**_http://dbpedia.org/resource/Życie_Warszawy	OfficeHolder	0.248241088136	Country	0.133622030501	PeriodicalLiterature	0.117186418458	Newspaper	0.117186418458	Work	0.117186418458	WrittenWork	0.117186418458	ChemicalSubstance	0.0885695123228	ChemicalCompound	0.0885695123228	Bank	0.0768978685304	Person	0.072830712616		GOLD_STANDARD:	
United States_**_http://dbpedia.org/resource/United_States	Continent	0.342060752109	PeriodicalLiterature	0.239146491584	Newspaper	0.239146491584	WrittenWork	0.239146491584	Work	0.239146491584	ArchitecturalStructure	0.156533503691	Building	0.156533503691	Country	0.153259860126	Region	0.150544897942	AdministrativeRegion	0.150544897942		GOLD_STANDARD:	Place	PopulatedPlace	Country
Johnson Controls_**_http://dbpedia.org/resource/Johnson_Controls	Artist	0.306850062396	ArchitecturalStructure	0.215532051805	Building	0.215532051805	ChemicalSubstance	0.205435068133	ChemicalCompound	0.205435068133	Company	0.192446902671	PeriodicalLiterature	0.192271022155	Newspaper	0.192271022155	Work	0.192271022155	WrittenWork	0.192271022155		GOLD_STANDARD:	Agent	Organisation	Company
New York Stock Exchange_**_http://dbpedia.org/resource/New_York_Stock_Exchange	PeriodicalLiterature	0.653507014569	Newspaper	0.653507014569	Work	0.653507014569	WrittenWork	0.653507014569	Continent	0.255451431662	ArchitecturalStructure	0.252214861281	Building	0.252214861281	Artist	0.250814013966	Agent	0.225930916811	Company	0.224467968435		GOLD_STANDARD:	
CHICAGO_**_http://dbpedia.org/resource/Chicago	Settlement	0.295575201979	City	0.252125489305	PopulatedPlace	0.194470732543	Region	0.191129244138	AdministrativeRegion	0.191129244138	Place	0.190942292581	ChemicalSubstance	0.125648465322	ChemicalCompound	0.125648465322	Company	0.101570444474	Country	0.0992835219476		GOLD_STANDARD:	Place	PopulatedPlace	Settlement	City
New York_**_http://dbpedia.org/resource/New_York_City	PeriodicalLiterature	0.780998611754	Newspaper	0.780998611754	WrittenWork	0.780998611754	Work	0.780998611754	ArchitecturalStructure	0.461722113182	Building	0.461722113182	Continent	0.270511994857	Artist	0.226947286496	PublicTransitSystem	0.21832331582	Region	0.178547683632		GOLD_STANDARD:	Place	PopulatedPlace	Settlement	City
British_**_http://dbpedia.org/resource/United_Kingdom	Country	0.309441091016	Continent	0.28753979617	PeriodicalLiterature	0.254582229554	Newspaper	0.254582229554	Work	0.254582229554	WrittenWork	0.254582229554	PublicTransitSystem	0.182473444924	PopulatedPlace	0.179654467471	Place	0.177605829182	OfficeHolder	0.152125171789		GOLD_STANDARD:	Place	PopulatedPlace	Country
Ghana_**_http://dbpedia.org/resource/Ghana	Country	0.269191125996	Island	0.221317427871	Continent	0.166304923953	PopulatedPlace	0.156295877522	Place	0.153386188268	OfficeHolder	0.101073201635	Region	0.0949430371283	AdministrativeRegion	0.0949430371283	Settlement	0.087481700309	PeriodicalLiterature	0.082883844327		GOLD_STANDARD:	Place	PopulatedPlace	Country
Danish_**_http://dbpedia.org/resource/Denmark	Country	0.292090107124	OfficeHolder	0.189395949349	PopulatedPlace	0.163342994214	Place	0.159346976074	Settlement	0.101130400176	Continent	0.0986661052316	PeriodicalLiterature	0.0942640334968	Newspaper	0.0942640334968	WrittenWork	0.0942640334968	Work	0.0942640334968		GOLD_STANDARD:	Place	PopulatedPlace	Country
Barrick_**_http://dbpedia.org/resource/Barrick_Gold	Island	0.53645500728	Artist	0.269346483868	PublicTransitSystem	0.233387184239	Person	0.194758664505	Organisation	0.188237825287	Agent	0.187315004013	Company	0.185415990352	ArchitecturalStructure	0.147862885213	Building	0.147862885213	Continent	0.125763473357		GOLD_STANDARD:	Agent	Organisation	Company
Illinois_**_http://dbpedia.org/resource/Illinois	Region	0.407212867995	AdministrativeRegion	0.407212867995	Continent	0.237386570682	PopulatedPlace	0.192678046892	Place	0.191079165743	Settlement	0.177483464815	City	0.175093517024	Bank	0.16182474453	PeriodicalLiterature	0.160500882822	Newspaper	0.160500882822		GOLD_STANDARD:	
CBOE_**_http://dbpedia.org/resource/Chicago_Board_Options_Exchange	Island	0.202261676361	Bank	0.202081074042	Company	0.19116817144	Organisation	0.18800304423	Agent	0.171609192072	ChemicalSubstance	0.169173142723	ChemicalCompound	0.169173142723	ArchitecturalStructure	0.151052608569	Building	0.151052608569	PublicTransitSystem	0.137361008871		GOLD_STANDARD:	Agent	Organisation	Company
Newmont_**_http://dbpedia.org/resource/Newmont_Mining_Corporation	Island	0.588985084704	PublicTransitSystem	0.188094300138	Bank	0.179406146686	Organisation	0.162104714622	Company	0.160480365527	Agent	0.155282140449	Person	0.148007035697	Artist	0.131044657202	Country	0.121349511383	Region	0.0863727787934		GOLD_STANDARD:	Agent	Organisation	Company
SAN MATEO_**_http://dbpedia.org/resource/San_Mateo,_California	ChemicalSubstance	0.174401437767	ChemicalCompound	0.174401437767	City	0.146266040122	Settlement	0.136780022691	Island	0.133763300942	Artist	0.109611535382	PopulatedPlace	0.0768648805684	Place	0.0738466996283	Bank	0.0727719821371	Region	0.0590557242906		GOLD_STANDARD:	Place	PopulatedPlace	Settlement	City
French_**_http://dbpedia.org/resource/France	OfficeHolder	0.614750105329	Country	0.275795693506	Continent	0.225203168655	PopulatedPlace	0.150190009493	Place	0.146854867407	Person	0.142471387935	PeriodicalLiterature	0.131544093263	Newspaper	0.131544093263	WrittenWork	0.131544093263	Work	0.131544093263		GOLD_STANDARD:	Place	PopulatedPlace	Country
Warren Buffett_**_http://dbpedia.org/resource/Warren_Buffett	Artist	0.381929828844	Person	0.346652128803	PublicTransitSystem	0.261323084882	ArchitecturalStructure	0.2543230628	Building	0.2543230628	PeriodicalLiterature	0.252654937371	Newspaper	0.252654937371	WrittenWork	0.252654937371	Work	0.252654937371	Agent	0.241982324633		GOLD_STANDARD:	Agent	Person
Papua New Guinea_**_http://dbpedia.org/resource/Papua_New_Guinea	PeriodicalLiterature	0.402753023904	Newspaper	0.402753023904	WrittenWork	0.402753023904	Work	0.402753023904	Island	0.327125671546	Country	0.264477600628	ArchitecturalStructure	0.207066330781	Building	0.207066330781	Continent	0.193290536913	Place	0.191639735133		GOLD_STANDARD:	Place	PopulatedPlace	Country
SunGard_**_http://dbpedia.org/resource/SunGard	Bank	0.248911980813	Island	0.182894697535	Company	0.172795075213	Organisation	0.169480034211	Agent	0.169276799856	Person	0.167843754112	ArchitecturalStructure	0.158269012486	Building	0.158269012486	Artist	0.145015603326	PublicTransitSystem	0.116439378187		GOLD_STANDARD:	Agent	Organisation	Company
Peru_**_http://dbpedia.org/resource/Peru	Country	0.281368615548	Region	0.247720028761	AdministrativeRegion	0.247720028761	Continent	0.236508528871	PopulatedPlace	0.209308601209	Place	0.205091557168	Settlement	0.155289772387	City	0.142141725175	Island	0.141468733901	PeriodicalLiterature	0.123363266009		GOLD_STANDARD:	Place	PopulatedPlace	Country
San Diego_**_http://dbpedia.org/resource/San_Diego	Artist	0.240952723804	OfficeHolder	0.170845854906	City	0.145672146897	Region	0.129502587824	AdministrativeRegion	0.129502587824	Settlement	0.119506738739	PopulatedPlace	0.106333350584	Place	0.105146762336	Continent	0.101903697516	Person	0.0982706384502		GOLD_STANDARD:	Place	PopulatedPlace	Settlement	City
WASHINGTON_**_http://dbpedia.org/resource/Washington,_D.C.	Settlement	0.259294811033	City	0.229961186545	PopulatedPlace	0.190229928839	Place	0.187387674165	Region	0.181239657593	AdministrativeRegion	0.181239657593	ChemicalSubstance	0.156664366489	ChemicalCompound	0.156664366489	Country	0.136656657577	Continent	0.128704535249		GOLD_STANDARD:	Place	PopulatedPlace	Settlement
Tijuana_**_http://dbpedia.org/resource/Tijuana	Region	0.285709116935	AdministrativeRegion	0.285709116935	City	0.203122038192	Settlement	0.182739039131	PopulatedPlace	0.171152913422	Place	0.168028157974	Country	0.147059409272	ChemicalSubstance	0.142666256142	ChemicalCompound	0.142666256142	PeriodicalLiterature	0.107436387741		GOLD_STANDARD:	Place	PopulatedPlace	Settlement	City
Midwest_**_http://dbpedia.org/resource/Midwestern_United_States	Continent	0.392093158989	Region	0.32323580115	AdministrativeRegion	0.32323580115	Bank	0.217021867911	PopulatedPlace	0.179921584627	Place	0.178643130656	City	0.155778965868	Settlement	0.152017243233	Country	0.15099133436	PeriodicalLiterature	0.150352083759		GOLD_STANDARD:	Place	PopulatedPlace
Poland_**_http://dbpedia.org/resource/Poland	Country	0.311508048305	PopulatedPlace	0.190520786538	Continent	0.18960946228	Place	0.187543933657	OfficeHolder	0.152793797352	PeriodicalLiterature	0.120814510508	Newspaper	0.120814510508	Work	0.120814510508	WrittenWork	0.120814510508	Settlement	0.120034677414		GOLD_STANDARD:	Place	PopulatedPlace	Country
NationsBank Corp._**_http://dbpedia.org/resource/NationsBank	Bank	0.41619741432	Company	0.287526325433	Organisation	0.280053172345	Agent	0.26933762688	Person	0.243921629174	ChemicalSubstance	0.232819590856	ChemicalCompound	0.232819590856	Continent	0.19943577966	ArchitecturalStructure	0.154106570585	Building	0.154106570585		GOLD_STANDARD:	Agent	Person
