Grande Prairie_**_http://dbpedia.org/resource/Grande_Prairie	BodyOfWater	0.435230689614	NaturalPlace	0.435230689614	Stream	0.435230689614	River	0.435230689614	Region	0.230365649759	AdministrativeRegion	0.230365649759	City	0.168019594947	Settlement	0.161038493526	Place	0.15161184748	PopulatedPlace	0.146005912622		GOLD_STANDARD:	Place	PopulatedPlace	Settlement	City
PARIS_**_http://dbpedia.org/resource/Paris	Continent	0.204438666299	Country	0.18520715357	Settlement	0.174725840143	PopulatedPlace	0.162907852169	Place	0.158673452463	City	0.153623347346	GovernmentAgency	0.105495758665	Organisation	0.0948889061909	Agent	0.0948889061909	AdministrativeRegion	0.0932654229442		GOLD_STANDARD:	Place	PopulatedPlace	Settlement
Pendleton_**_http://dbpedia.org/resource/Pendleton,_Oregon	AdministrativeRegion	0.259237883252	Region	0.259237883252	City	0.18841457773	Town	0.187851555984	Settlement	0.164499515772	Place	0.148182792047	PopulatedPlace	0.145455656447	Holiday	0.119027532351	BodyOfWater	0.100511805078	NaturalPlace	0.100511805078		GOLD_STANDARD:	Place	PopulatedPlace	Settlement	City
Cargill_**_http://dbpedia.org/resource/Cargill	Company	0.301969851145	Organisation	0.270580436093	Agent	0.270580436093	GovernmentAgency	0.223496313515	Holiday	0.159230088193	Region	0.143349894732	AdministrativeRegion	0.143349894732	BodyOfWater	0.130428053576	NaturalPlace	0.130428053576	River	0.130428053576		GOLD_STANDARD:	Agent	Organisation	Company
Red River_**_http://dbpedia.org/resource/Red_River_of_the_North	Region	0.133396250203	AdministrativeRegion	0.133396250203	Holiday	0.129352641859	City	0.11456431927	Settlement	0.102858881983	Place	0.094288059392	GovernmentAgency	0.0920496297334	PopulatedPlace	0.091736547702	Town	0.089312506747	Organisation	0.0846599369952		GOLD_STANDARD:	
Dewas_**_http://dbpedia.org/resource/Dewas	Town	0.300985491837	City	0.206151885197	Settlement	0.203238898476	PopulatedPlace	0.143916598372	Place	0.142295904344	Country	0.104330065744	Company	0.0917927823227	Organisation	0.0818143618349	Agent	0.0818143618349	AdministrativeRegion	0.0770806841895		GOLD_STANDARD:	Place	PopulatedPlace	Settlement	Town
China_**_http://dbpedia.org/resource/People's_Republic_of_China	Continent	0.368126615298	Country	0.347032247782	GovernmentAgency	0.230804183026	PopulatedPlace	0.192028335679	Place	0.189639068821	Organisation	0.174540754635	Agent	0.174540754635	Company	0.142390224125	Region	0.142368659995	AdministrativeRegion	0.142368659995		GOLD_STANDARD:	
Dust Bowl_**_http://dbpedia.org/resource/Dust_Bowl	River	0.312004171597	NaturalPlace	0.312004171597	BodyOfWater	0.312004171597	Stream	0.312004171597	Holiday	0.19702619372	Region	0.136117533263	AdministrativeRegion	0.136117533263	Company	0.0865953716258	City	0.0821003444067	Place	0.0752053486131		GOLD_STANDARD:	
CBOT_**_http://dbpedia.org/resource/Chicago_Board_of_Trade	Company	0.325489789006	Organisation	0.282846990148	Agent	0.282846990148	GovernmentAgency	0.21888279186	Region	0.162316287313	AdministrativeRegion	0.162316287313	Holiday	0.13878498406	City	0.11971803608	PopulatedPlace	0.11556999098	Place	0.114674232865		GOLD_STANDARD:	Agent	Organisation	Company
Buenos Aires_**_http://dbpedia.org/resource/Buenos_Aires	BodyOfWater	0.151490512859	NaturalPlace	0.151490512859	River	0.151490512859	Stream	0.151490512859	Country	0.108215086239	City	0.0994272988605	Settlement	0.0893306260215	Town	0.0843572288535	Place	0.0820111314571	PopulatedPlace	0.0817749640974		GOLD_STANDARD:	Place	PopulatedPlace	Settlement
Mhow_**_http://dbpedia.org/resource/Mhow	Town	0.30467663392	City	0.190624940538	Settlement	0.19054980632	PopulatedPlace	0.144731746138	Place	0.143126088168	Country	0.125261689528	AdministrativeRegion	0.0768981578652	Region	0.0768981578652	GovernmentAgency	0.0502655074358	Organisation	0.0377379433526		GOLD_STANDARD:	Place	PopulatedPlace	Settlement	Town
North Dakota_**_http://dbpedia.org/resource/North_Dakota	Continent	0.399379452997	NaturalPlace	0.369524119179	BodyOfWater	0.369524119179	River	0.369524119179	Stream	0.369524119179	Region	0.285258107229	AdministrativeRegion	0.285258107229	Place	0.189550090153	PopulatedPlace	0.184121449132	City	0.180389218617		GOLD_STANDARD:	
Billings_**_http://dbpedia.org/resource/Billings,_Montana	Region	0.369436862618	AdministrativeRegion	0.369436862618	City	0.253880223074	Settlement	0.229190488186	Place	0.211329836012	PopulatedPlace	0.209396803614	GovernmentAgency	0.202329888247	Town	0.186932486996	Organisation	0.156110499998	Agent	0.156110499998		GOLD_STANDARD:	Place	PopulatedPlace	Settlement	City
Labour Day_**_http://dbpedia.org/resource/Labour_Day	Holiday	0.808737469121	GovernmentAgency	0.210954681115	Organisation	0.131072811312	Agent	0.131072811312	Country	0.108354962894	NaturalPlace	0.0939664923853	BodyOfWater	0.0939664923853	River	0.0939664923853	Stream	0.0939664923853	Company	0.0854260285673		GOLD_STANDARD:	
Canada_**_http://dbpedia.org/resource/Canada	GovernmentAgency	0.528625122715	Continent	0.408298349708	Organisation	0.289111235882	Agent	0.289111235882	Country	0.282796694305	AdministrativeRegion	0.246338288681	Region	0.246338288681	PopulatedPlace	0.208652902446	Place	0.20716292136	Company	0.152246157691		GOLD_STANDARD:	Place	PopulatedPlace	Country
North Battleford_**_http://dbpedia.org/resource/North_Battleford	NaturalPlace	0.344561725141	BodyOfWater	0.344561725141	River	0.344561725141	Stream	0.344561725141	Continent	0.326840174511	GovernmentAgency	0.235094029082	AdministrativeRegion	0.198096465997	Region	0.198096465997	Town	0.179411629632	Place	0.175938961801		GOLD_STANDARD:	Place	PopulatedPlace	Settlement	City
Rubber Board_**_http://dbpedia.org/resource/Rubber_Board	GovernmentAgency	0.253641061603	Organisation	0.201277689593	Agent	0.201277689593	BodyOfWater	0.18107063498	NaturalPlace	0.18107063498	Stream	0.18107063498	River	0.18107063498	Company	0.17135576273	Holiday	0.159431103822	AdministrativeRegion	0.0812683100516		GOLD_STANDARD:	
Sri Lanka_**_http://dbpedia.org/resource/Sri_Lanka	Town	0.285792807179	Country	0.218389706789	Settlement	0.174376844933	City	0.174269483096	PopulatedPlace	0.158755318404	Place	0.156865977144	BodyOfWater	0.117237424705	NaturalPlace	0.117237424705	River	0.117237424705	Stream	0.117237424705		GOLD_STANDARD:	Place	PopulatedPlace	Country
Bahia Blanca_**_http://dbpedia.org/resource/Bahía_Blanca	NaturalPlace	0.141523133972	BodyOfWater	0.141523133972	River	0.141523133972	Stream	0.141523133972	Country	0.122338046643	City	0.113451734807	Settlement	0.107483457294	Place	0.106985010698	PopulatedPlace	0.105944422695	Town	0.0994546732711		GOLD_STANDARD:	
Okla_**_http://dbpedia.org/resource/Oklahoma	AdministrativeRegion	0.308376650987	Region	0.308376650987	City	0.182437181813	Settlement	0.169838127429	Place	0.16961776677	PopulatedPlace	0.167405984982	Company	0.116231771189	Organisation	0.114479774823	Agent	0.114479774823	Country	0.113650315218		GOLD_STANDARD:	
Manila_**_http://dbpedia.org/resource/Metro_Manila	Country	0.192535129356	City	0.171770310538	Settlement	0.165685089031	Town	0.160357638808	PopulatedPlace	0.1598722287	Place	0.157660533789	Continent	0.105153628677	AdministrativeRegion	0.0948242144811	Region	0.0948242144811	Holiday	0.0923438292882		GOLD_STANDARD:	Place	PopulatedPlace	Settlement	City
Nicaragua_**_http://dbpedia.org/resource/Nicaragua	Country	0.220375009584	Continent	0.209907156503	GovernmentAgency	0.191475352302	AdministrativeRegion	0.185394492619	Region	0.185394492619	Place	0.145970046989	PopulatedPlace	0.14533741672	BodyOfWater	0.125492429529	NaturalPlace	0.125492429529	Stream	0.125492429529		GOLD_STANDARD:	Place	PopulatedPlace	Country
Minnesota_**_http://dbpedia.org/resource/Minnesota	Region	0.447284790865	AdministrativeRegion	0.447284790865	GovernmentAgency	0.25164219929	Place	0.212532878273	PopulatedPlace	0.212504815854	City	0.208792117244	Settlement	0.188531315665	Organisation	0.183427769312	Agent	0.183427769312	Continent	0.145985168084		GOLD_STANDARD:	
Paris_**_http://dbpedia.org/resource/Paris	Continent	0.270966402017	Country	0.176340288025	PopulatedPlace	0.128566632683	Place	0.126115775325	GovernmentAgency	0.104054202357	Settlement	0.102575914899	AdministrativeRegion	0.0983330880663	Region	0.0983330880663	City	0.0971222453215	Town	0.0847425005738		GOLD_STANDARD:	Place	PopulatedPlace	Settlement
Taiwan_**_http://dbpedia.org/resource/Taiwan	Country	0.287522807293	Continent	0.249790298252	GovernmentAgency	0.184732073182	PopulatedPlace	0.159106135514	Place	0.157295853621	Holiday	0.150345466645	AdministrativeRegion	0.125752103032	Region	0.125752103032	Organisation	0.125128986647	Agent	0.125128986647		GOLD_STANDARD:	Place	PopulatedPlace	Country
Yemen_**_http://dbpedia.org/resource/Yemen	Country	0.303648593921	Continent	0.201159143777	PopulatedPlace	0.165999653202	Place	0.162232467303	GovernmentAgency	0.157086201774	Region	0.124281662436	AdministrativeRegion	0.124281662436	Organisation	0.108096734215	Agent	0.108096734215	Town	0.100736860313		GOLD_STANDARD:	Place	PopulatedPlace	Country
Thunder Bay_**_http://dbpedia.org/resource/Thunder_Bay	NaturalPlace	0.452526726921	BodyOfWater	0.452526726921	River	0.452526726921	Stream	0.452526726921	Region	0.162987937292	AdministrativeRegion	0.162987937292	City	0.129467288411	Holiday	0.122345488731	Settlement	0.115976480942	Place	0.11360278266		GOLD_STANDARD:	Place	PopulatedPlace	Settlement	City
German_**_http://dbpedia.org/resource/Germany	Continent	0.389217288922	Country	0.244015160643	PopulatedPlace	0.147382340215	Place	0.145178069406	AdministrativeRegion	0.126565053994	Region	0.126565053994	GovernmentAgency	0.115415685957	Holiday	0.0975515370739	Organisation	0.0917415971031	Agent	0.0917415971031		GOLD_STANDARD:	Place	PopulatedPlace	Country
Wolf Point_**_http://dbpedia.org/resource/Wolf_Point,_Montana	BodyOfWater	0.433991194238	NaturalPlace	0.433991194238	Stream	0.433991194238	River	0.433991194238	Holiday	0.183853564757	Region	0.104595187248	AdministrativeRegion	0.104595187248	Continent	0.0984667109189	City	0.0945361156218	Place	0.0898209165208		GOLD_STANDARD:	Place	PopulatedPlace	Settlement	City
USDA_**_http://dbpedia.org/resource/United_States_Department_of_Agriculture	Company	0.24656805737	Organisation	0.241798096285	Agent	0.241798096285	GovernmentAgency	0.230668187086	Region	0.202267841076	AdministrativeRegion	0.202267841076	Holiday	0.192043637047	Place	0.105198750209	PopulatedPlace	0.104538507814	City	0.095043007724		GOLD_STANDARD:	Agent	Organisation	GovernmentAgency
Bhavnagar_**_http://dbpedia.org/resource/Bhavnagar	Town	0.413005971329	Settlement	0.234045719034	City	0.223719763696	PopulatedPlace	0.170938558371	Place	0.16857689944	Country	0.128535009447	Region	0.103705830188	AdministrativeRegion	0.103705830188	Company	0.100109835845	Organisation	0.0775775034584		GOLD_STANDARD:	Place	PopulatedPlace	Settlement	City
Minn_**_http://dbpedia.org/resource/Minnesota	Region	0.234186281634	AdministrativeRegion	0.234186281634	City	0.168921980664	Settlement	0.156435648062	PopulatedPlace	0.136383413154	Place	0.13615256836	Town	0.128044682115	Company	0.125677761016	BodyOfWater	0.122866996268	NaturalPlace	0.122866996268		GOLD_STANDARD:	
U.S. Midwest_**_http://dbpedia.org/resource/Midwestern_United_States	Continent	0.469126003137	AdministrativeRegion	0.399250595884	Region	0.399250595884	GovernmentAgency	0.35844903937	Country	0.308498312802	Organisation	0.253072177662	Agent	0.253072177662	Place	0.25209575791	PopulatedPlace	0.250969652962	Company	0.192856828115		GOLD_STANDARD:	Place	PopulatedPlace
Celsius_**_http://dbpedia.org/resource/Celsius	GovernmentAgency	0.131135484791	Continent	0.110533189705	Organisation	0.104165624486	Agent	0.104165624486	Company	0.0887542757403	Town	0.0739475944127	Country	0.0640308002425	Place	0.0541996782753	PopulatedPlace	0.0538088077556	BodyOfWater	0.0503523523366		GOLD_STANDARD:	
Canadian Grain Commission_**_http://dbpedia.org/resource/Canadian_Grain_Commission	GovernmentAgency	0.506179350979	Organisation	0.368728707696	Agent	0.368728707696	Company	0.290185482963	Continent	0.235905010607	Holiday	0.225149973866	Region	0.221926360808	AdministrativeRegion	0.221926360808	Country	0.200175775031	Place	0.177271292712		GOLD_STANDARD:	
CAN_**_http://dbpedia.org/resource/Canada	GovernmentAgency	0.169016623526	Organisation	0.102513457543	Agent	0.102513457543	Continent	0.0790544217602	Company	0.0645116484095	Country	0.0628302347474	PopulatedPlace	0.0458712721673	Settlement	0.0441958984205	Place	0.0437395505768	City	0.0429831398254		GOLD_STANDARD:	Place	PopulatedPlace	Country
European Union_**_http://dbpedia.org/resource/European_Union	Continent	0.53914209294	Country	0.230532710914	GovernmentAgency	0.208562643791	Holiday	0.185819851841	PopulatedPlace	0.158899264435	Place	0.158765891895	Organisation	0.151432909618	Agent	0.151432909618	Region	0.140823389362	AdministrativeRegion	0.140823389362		GOLD_STANDARD:	Place	PopulatedPlace	Country
Nebraska_**_http://dbpedia.org/resource/Nebraska	AdministrativeRegion	0.497152066552	Region	0.497152066552	GovernmentAgency	0.226211118662	Place	0.218139250151	PopulatedPlace	0.215606872933	Organisation	0.196858682312	Agent	0.196858682312	City	0.195959421955	Company	0.18008586154	Holiday	0.177276598169		GOLD_STANDARD:	
AMARILLO_**_http://dbpedia.org/resource/Amarillo,_Texas	AdministrativeRegion	0.247022824712	Region	0.247022824712	City	0.193058516943	Settlement	0.188852714618	Place	0.151680133229	PopulatedPlace	0.148906489777	GovernmentAgency	0.123004034723	Holiday	0.113284802621	Organisation	0.105375989352	Agent	0.105375989352		GOLD_STANDARD:	Place	PopulatedPlace	Settlement	City
Vancouver_**_http://dbpedia.org/resource/Vancouver	GovernmentAgency	0.279391665469	City	0.183726477867	Settlement	0.182045964132	PopulatedPlace	0.172609122718	Place	0.170006970547	AdministrativeRegion	0.165684311661	Region	0.165684311661	Organisation	0.151342647655	Agent	0.151342647655	Continent	0.149080264718		GOLD_STANDARD:	Place	PopulatedPlace	Settlement	City
Saskatchewan Wheat Pool_**_http://dbpedia.org/resource/Saskatchewan_Wheat_Pool	GovernmentAgency	0.41959640883	AdministrativeRegion	0.300470301331	Region	0.300470301331	Organisation	0.300161472277	Agent	0.300161472277	Holiday	0.255174391135	BodyOfWater	0.245644779814	NaturalPlace	0.245644779814	Stream	0.245644779814	River	0.245644779814		GOLD_STANDARD:	Agent	Organisation	Company
DES MOINES_**_http://dbpedia.org/resource/Des_Moines,_Iowa	Company	0.110930445657	Organisation	0.109230049261	Agent	0.109230049261	GovernmentAgency	0.106254355569	City	0.0933415546983	Town	0.0904512103539	Settlement	0.0882184406119	Holiday	0.0765059528542	AdministrativeRegion	0.0673478132043	Region	0.0673478132043		GOLD_STANDARD:	Place	PopulatedPlace	Settlement	City
Dhar_**_http://dbpedia.org/resource/Dhar	Town	0.338876425278	Settlement	0.167473760905	City	0.160613425757	PopulatedPlace	0.123426609041	Place	0.120989606202	Country	0.113838425139	Region	0.046776347165	AdministrativeRegion	0.046776347165	Company	0.0358925382851	Organisation	0.0242606183087		GOLD_STANDARD:	Place	PopulatedPlace	Settlement	City
U.S._**_http://dbpedia.org/resource/United_States	Continent	0.431978325084	Country	0.321961999641	GovernmentAgency	0.321341693765	Region	0.211184834456	AdministrativeRegion	0.211184834456	Organisation	0.206124586424	Agent	0.206124586424	PopulatedPlace	0.185700180541	Place	0.184553772154	Holiday	0.162747653008		GOLD_STANDARD:	Place	PopulatedPlace	Country
CME_**_http://dbpedia.org/resource/Chicago_Mercantile_Exchange	Company	0.215025396295	Organisation	0.195678321244	Agent	0.195678321244	GovernmentAgency	0.166657708668	AdministrativeRegion	0.0950902906807	Region	0.0950902906807	City	0.0685989674882	Town	0.0607895219278	Settlement	0.0607399132918	Place	0.0585276826946		GOLD_STANDARD:	Agent	Organisation	Company
Texas Panhandle_**_http://dbpedia.org/resource/Texas_Panhandle	AdministrativeRegion	0.502339967897	Region	0.502339967897	Continent	0.233678162131	Place	0.227998053385	PopulatedPlace	0.227828734464	City	0.203166905238	GovernmentAgency	0.199644884896	Settlement	0.177517621839	Country	0.156946373718	Organisation	0.140553816004		GOLD_STANDARD:	Place
Canadian Wheat Board_**_http://dbpedia.org/resource/Canadian_Wheat_Board	GovernmentAgency	0.386822320858	Organisation	0.328027886113	Agent	0.328027886113	Company	0.302830271223	AdministrativeRegion	0.249645860142	Region	0.249645860142	Country	0.203328414464	Place	0.192786870817	PopulatedPlace	0.191985655431	Holiday	0.188421206305		GOLD_STANDARD:	Agent	Organisation	GovernmentAgency
Ratlam_**_http://dbpedia.org/resource/Ratlam	Town	0.437695320127	Settlement	0.244836257776	City	0.235460014983	PopulatedPlace	0.169345061401	Place	0.167081296384	Region	0.126885839777	AdministrativeRegion	0.126885839777	Company	0.102142971561	Country	0.0931847508446	Organisation	0.0820258379132		GOLD_STANDARD:	Place	PopulatedPlace	Settlement	City
Oklahoma_**_http://dbpedia.org/resource/Oklahoma	AdministrativeRegion	0.497267055152	Region	0.497267055152	Place	0.227475519772	PopulatedPlace	0.224278774124	GovernmentAgency	0.222321009631	City	0.216339008021	Settlement	0.192135400751	Organisation	0.172602170805	Agent	0.172602170805	Country	0.146760313411		GOLD_STANDARD:	
Saudi Arabia_**_http://dbpedia.org/resource/Saudi_Arabia	Country	0.310024715254	Continent	0.212085930728	PopulatedPlace	0.162515535703	Place	0.161406789507	GovernmentAgency	0.13865272685	Region	0.112202193013	AdministrativeRegion	0.112202193013	Organisation	0.109396314596	Agent	0.109396314596	Company	0.0926783647363		GOLD_STANDARD:	Place	PopulatedPlace	Country
SINGAPORE_**_http://dbpedia.org/resource/Singapore	Settlement	0.196208403731	City	0.175078586753	Country	0.164929877879	PopulatedPlace	0.160642860248	Place	0.156628090654	Holiday	0.151685540637	Company	0.125849340481	Organisation	0.106224381764	Agent	0.106224381764	Continent	0.102336792676		GOLD_STANDARD:	Place	PopulatedPlace	Country
European_**_http://dbpedia.org/resource/Europe	Continent	0.536935768073	Country	0.29919376093	GovernmentAgency	0.22198399899	PopulatedPlace	0.159150862627	Place	0.157789835612	Organisation	0.15555401152	Agent	0.15555401152	Region	0.129948015579	AdministrativeRegion	0.129948015579	Company	0.11759401868		GOLD_STANDARD:	Place	PopulatedPlace	Continent
Egypt_**_http://dbpedia.org/resource/Egypt	Country	0.315370012844	Continent	0.251722461567	PopulatedPlace	0.155522863701	Place	0.153117500749	GovernmentAgency	0.152676562571	Organisation	0.125203007511	Agent	0.125203007511	Town	0.109640398617	Company	0.109503833191	Region	0.0963025341735		GOLD_STANDARD:	Place	PopulatedPlace	Country
Mandsaur_**_http://dbpedia.org/resource/Mandsaur	Town	0.430730577124	Settlement	0.221232873325	City	0.206983862735	PopulatedPlace	0.140553847731	Place	0.138093734315	Region	0.0809402707048	AdministrativeRegion	0.0809402707048	Country	0.0714171392197	Company	0.0532142611771	Organisation	0.0496741489888		GOLD_STANDARD:	Place	PopulatedPlace	Settlement	City
Alberta_**_http://dbpedia.org/resource/Alberta	GovernmentAgency	0.429374143517	Region	0.367458232436	AdministrativeRegion	0.367458232436	Organisation	0.263116542859	Agent	0.263116542859	Place	0.2167489919	PopulatedPlace	0.215766763986	Country	0.19498088764	Continent	0.171974247629	Settlement	0.171635109527		GOLD_STANDARD:	Place	PopulatedPlace
Toledo_**_http://dbpedia.org/resource/Toledo,_Ohio	Region	0.289208199893	AdministrativeRegion	0.289208199893	City	0.204730687918	Town	0.193906331031	Settlement	0.190910010369	PopulatedPlace	0.168786472219	Place	0.168333018501	Holiday	0.125053753835	Continent	0.123656546184	BodyOfWater	0.113589363184		GOLD_STANDARD:	Place	PopulatedPlace	Settlement	City
Montana_**_http://dbpedia.org/resource/Montana	Region	0.419245452246	AdministrativeRegion	0.419245452246	GovernmentAgency	0.272322490562	Place	0.217178276918	PopulatedPlace	0.214923478401	City	0.202044251625	Settlement	0.182757343153	Organisation	0.173284080606	Agent	0.173284080606	BodyOfWater	0.163275497577		GOLD_STANDARD:	
High Plains_**_http://dbpedia.org/resource/High_Plains_(United_States)	BodyOfWater	0.303633228501	NaturalPlace	0.303633228501	Stream	0.303633228501	River	0.303633228501	Region	0.229211657657	AdministrativeRegion	0.229211657657	Continent	0.17134464187	GovernmentAgency	0.168414065815	Town	0.15358985038	Place	0.138990192344		GOLD_STANDARD:	
Rosario_**_http://dbpedia.org/resource/Rosario,_Santa_Fe	Town	0.128426337884	City	0.114551379091	Settlement	0.112779651183	PopulatedPlace	0.0980135824206	Place	0.0978239347124	BodyOfWater	0.0949122563299	NaturalPlace	0.0949122563299	Stream	0.0949122563299	River	0.0949122563299	Region	0.0939912450382		GOLD_STANDARD:	Place	PopulatedPlace	Settlement	City
Chicago_**_http://dbpedia.org/resource/Chicago	Region	0.295261231778	AdministrativeRegion	0.295261231778	City	0.209190092867	Settlement	0.190345063972	PopulatedPlace	0.180493663272	Place	0.178113898818	Company	0.169153284309	Organisation	0.162588699943	Agent	0.162588699943	GovernmentAgency	0.151100677304		GOLD_STANDARD:	Place	PopulatedPlace	Settlement	City
Saudi_**_http://dbpedia.org/resource/Saudi_Arabia	Country	0.321935277929	PopulatedPlace	0.1696871021	Place	0.16791449896	GovernmentAgency	0.157473069227	Continent	0.146536981065	Region	0.114196376226	AdministrativeRegion	0.114196376226	Organisation	0.11260012441	Agent	0.11260012441	Town	0.109045539938		GOLD_STANDARD:	Place	PopulatedPlace	Country
Oklahoma State University_**_http://dbpedia.org/resource/Oklahoma_State_University–Stillwater	AdministrativeRegion	0.4182497655	Region	0.4182497655	GovernmentAgency	0.228395540104	Holiday	0.2129870578	BodyOfWater	0.18328963719	NaturalPlace	0.18328963719	River	0.18328963719	Stream	0.18328963719	Place	0.178387607857	PopulatedPlace	0.174554238721		GOLD_STANDARD:	
Kansas City_**_http://dbpedia.org/resource/Kansas_City,_Missouri	AdministrativeRegion	0.437152150101	Region	0.437152150101	BodyOfWater	0.232360154163	NaturalPlace	0.232360154163	Stream	0.232360154163	River	0.232360154163	GovernmentAgency	0.232095872822	Place	0.211977178912	PopulatedPlace	0.207785247901	City	0.187685128637		GOLD_STANDARD:	Place	PopulatedPlace	Settlement	City
Winnipeg_**_http://dbpedia.org/resource/Winnipeg	GovernmentAgency	0.315395027582	Region	0.262058176921	AdministrativeRegion	0.262058176921	City	0.214252260845	Settlement	0.202579393481	Organisation	0.20065592322	Agent	0.20065592322	PopulatedPlace	0.198392996528	Place	0.19639632653	Town	0.151209008055		GOLD_STANDARD:	Place	PopulatedPlace	Settlement
DECATUR_**_http://dbpedia.org/resource/Decatur,_Illinois	AdministrativeRegion	0.194649184831	Region	0.194649184831	Settlement	0.184320361546	City	0.183445137565	Place	0.134358378334	PopulatedPlace	0.134085153108	Company	0.126860457502	Organisation	0.0887928124735	Agent	0.0887928124735	Holiday	0.0629162869308		GOLD_STANDARD:	Place	PopulatedPlace	Settlement	City
DODGE CITY_**_http://dbpedia.org/resource/Dodge_City,_Kansas	City	0.14944832403	Settlement	0.145699995843	Region	0.130428815274	AdministrativeRegion	0.130428815274	PopulatedPlace	0.107151149741	Place	0.106438887561	Company	0.0932814078361	Organisation	0.0919581760594	Agent	0.0919581760594	GovernmentAgency	0.0896425204502		GOLD_STANDARD:	Place	PopulatedPlace	Settlement	City
Europe_**_http://dbpedia.org/resource/Europe	Continent	0.639584368535	Country	0.294784070066	GovernmentAgency	0.208617214986	PopulatedPlace	0.169141235036	Place	0.167061756512	AdministrativeRegion	0.165608101997	Region	0.165608101997	Organisation	0.136793307061	Agent	0.136793307061	Company	0.0957510739613		GOLD_STANDARD:	Place	PopulatedPlace	Continent
Ashoknagar_**_http://dbpedia.org/resource/Ashoknagar	Town	0.426947219687	City	0.228946907644	Settlement	0.224367579738	PopulatedPlace	0.132296475734	Place	0.131390051586	BodyOfWater	0.122624732453	NaturalPlace	0.122624732453	River	0.122624732453	Stream	0.122624732453	Country	0.0769132352204		GOLD_STANDARD:	Place	PopulatedPlace	Settlement
North America_**_http://dbpedia.org/resource/North_America	Continent	0.423738600785	Region	0.206723060855	AdministrativeRegion	0.206723060855	BodyOfWater	0.206070315533	NaturalPlace	0.206070315533	River	0.206070315533	Stream	0.206070315533	Country	0.205538808798	GovernmentAgency	0.197232057982	Place	0.159265663184		GOLD_STANDARD:	Place	PopulatedPlace	Continent
Rudyard_**_http://dbpedia.org/resource/Rudyard,_Montana	Town	0.252971058916	AdministrativeRegion	0.199471305897	Region	0.199471305897	BodyOfWater	0.195553763116	NaturalPlace	0.195553763116	Stream	0.195553763116	River	0.195553763116	City	0.180234558655	Settlement	0.164590298814	Place	0.127551938786		GOLD_STANDARD:	Place	PopulatedPlace	Settlement
Germany_**_http://dbpedia.org/resource/Germany	Continent	0.485302869186	Country	0.288911258298	PopulatedPlace	0.165000037543	GovernmentAgency	0.163647436064	Place	0.161723840411	Region	0.159569410062	AdministrativeRegion	0.159569410062	Organisation	0.119615253791	Agent	0.119615253791	Company	0.0944540067776		GOLD_STANDARD:	Place	PopulatedPlace	Country
Waterville_**_http://dbpedia.org/resource/Waterville,_Washington	City	0.197691124968	BodyOfWater	0.191715017806	NaturalPlace	0.191715017806	Stream	0.191715017806	River	0.191715017806	Settlement	0.18468393375	AdministrativeRegion	0.17846238903	Region	0.17846238903	Place	0.149526913702	PopulatedPlace	0.149294044984		GOLD_STANDARD:	Place	PopulatedPlace	Settlement	Town
Minneapolis_**_http://dbpedia.org/resource/Minneapolis	Region	0.325295519198	AdministrativeRegion	0.325295519198	City	0.21343888051	Settlement	0.196386622538	PopulatedPlace	0.181023182192	Place	0.179024084123	GovernmentAgency	0.129331076622	Town	0.122543225761	Organisation	0.115721505588	Agent	0.115721505588		GOLD_STANDARD:	Place	PopulatedPlace	Settlement	City
Statistics Canada_**_http://dbpedia.org/resource/Statistics_Canada	GovernmentAgency	0.398447355304	Continent	0.324577013059	Holiday	0.266289489231	Country	0.256304116545	Organisation	0.20661906844	Agent	0.20661906844	AdministrativeRegion	0.189514258841	Region	0.189514258841	PopulatedPlace	0.174617550251	Place	0.173219813886		GOLD_STANDARD:	Agent	Organisation	GovernmentAgency
Bombay_**_http://dbpedia.org/resource/Mumbai	Town	0.284117269643	Settlement	0.195555224907	City	0.192882886636	Country	0.178094225538	PopulatedPlace	0.169310862719	Place	0.168983102289	BodyOfWater	0.158132134747	NaturalPlace	0.158132134747	Stream	0.158132134747	River	0.158132134747		GOLD_STANDARD:	Place	PopulatedPlace	Settlement	City
Texas_**_http://dbpedia.org/resource/Texas	AdministrativeRegion	0.420274256704	Region	0.420274256704	Continent	0.233580163469	Place	0.210296411994	PopulatedPlace	0.204240476871	GovernmentAgency	0.185580480494	City	0.17490791628	Country	0.169860502297	Settlement	0.153743252083	Organisation	0.140991093684		GOLD_STANDARD:	
Saskatchewan_**_http://dbpedia.org/resource/Saskatchewan	GovernmentAgency	0.409136473902	Region	0.372772328609	AdministrativeRegion	0.372772328609	Organisation	0.282901599607	Agent	0.282901599607	Place	0.224228167438	PopulatedPlace	0.223467292342	Company	0.210767385725	Country	0.190235158995	Settlement	0.187528213601		GOLD_STANDARD:	Place	PopulatedPlace
Canadian_**_http://dbpedia.org/resource/Canada	GovernmentAgency	0.453171698775	Continent	0.294855960181	Organisation	0.262208486607	Agent	0.262208486607	Country	0.261255305847	AdministrativeRegion	0.219385407427	Region	0.219385407427	PopulatedPlace	0.197382266864	Place	0.19571183861	Company	0.153086651083		GOLD_STANDARD:	Place	PopulatedPlace	Country
Argentine_**_http://dbpedia.org/resource/Argentina	Country	0.245689673005	Continent	0.235600044087	GovernmentAgency	0.167848592809	PopulatedPlace	0.153101237023	Place	0.15195293023	Region	0.140967554349	AdministrativeRegion	0.140967554349	Organisation	0.137142282323	Agent	0.137142282323	Company	0.119595819188		GOLD_STANDARD:	Place	PopulatedPlace	Country
Thai_**_http://dbpedia.org/resource/Thailand	Country	0.275626764131	PopulatedPlace	0.145351420454	Place	0.143623119511	Holiday	0.135289854092	GovernmentAgency	0.125074598873	BodyOfWater	0.114901540239	NaturalPlace	0.114901540239	River	0.114901540239	Stream	0.114901540239	Continent	0.110185053845		GOLD_STANDARD:	Place	PopulatedPlace	Country
Reuters_**_http://dbpedia.org/resource/Reuters	Continent	0.162913354952	Country	0.150377134466	GovernmentAgency	0.148681178296	Holiday	0.106834961213	Organisation	0.105579968709	Agent	0.105579968709	PopulatedPlace	0.0913720111451	Place	0.0885407484893	Company	0.0768458289837	Settlement	0.0684718587266		GOLD_STANDARD:	Agent	Organisation	Company
Portland_**_http://dbpedia.org/resource/Portland,_Oregon	Region	0.246056923636	AdministrativeRegion	0.246056923636	City	0.218593013676	Town	0.212413641293	Settlement	0.195915009159	PopulatedPlace	0.168283022278	Place	0.166860158235	Continent	0.115892997365	GovernmentAgency	0.115600222445	Holiday	0.0964090157643		GOLD_STANDARD:	Place	PopulatedPlace	Settlement	City
Japan_**_http://dbpedia.org/resource/Japan	Continent	0.426076321115	Country	0.326768072462	GovernmentAgency	0.205306767948	PopulatedPlace	0.179815324008	Place	0.17615193026	Organisation	0.154883158967	Agent	0.154883158967	AdministrativeRegion	0.137313779371	Region	0.137313779371	Company	0.126069668121		GOLD_STANDARD:	Place	PopulatedPlace	Country
Australian_**_http://dbpedia.org/resource/Australia	Holiday	0.269807203227	Country	0.260670579348	Continent	0.255453856563	GovernmentAgency	0.226494328555	Organisation	0.155806561747	Agent	0.155806561747	PopulatedPlace	0.152240372126	Place	0.150315269236	AdministrativeRegion	0.124026762928	Region	0.124026762928		GOLD_STANDARD:	Place	PopulatedPlace	Country
Kansas_**_http://dbpedia.org/resource/Kansas	AdministrativeRegion	0.493656871249	Region	0.493656871249	GovernmentAgency	0.235265998986	Place	0.223156835567	PopulatedPlace	0.220125026037	City	0.197870628578	Organisation	0.18412226693	Agent	0.18412226693	Settlement	0.174804077649	Country	0.159641729331		GOLD_STANDARD:	
India_**_http://dbpedia.org/resource/India	Country	0.350466412023	Continent	0.341748136647	Town	0.266526144848	PopulatedPlace	0.216646602161	GovernmentAgency	0.216109300516	Place	0.213544119581	Settlement	0.162662421986	City	0.157007435128	Organisation	0.152014262634	Agent	0.152014262634		GOLD_STANDARD:	Place	PopulatedPlace	Country
Bunge_**_http://dbpedia.org/resource/Bunge_Limited	Company	0.308573600683	Organisation	0.260497666882	Agent	0.260497666882	GovernmentAgency	0.188383766181	AdministrativeRegion	0.14995912713	Region	0.14995912713	Continent	0.13473612876	PopulatedPlace	0.101829625537	Place	0.101464419565	City	0.0984166625429		GOLD_STANDARD:	Agent	Organisation	Company
Indore_**_http://dbpedia.org/resource/Indore	Town	0.462737941449	Settlement	0.273884064693	City	0.266625178838	PopulatedPlace	0.220753233494	Place	0.217118310549	Country	0.182322015348	Region	0.163872971689	AdministrativeRegion	0.163872971689	Company	0.122165930301	Organisation	0.121874347147		GOLD_STANDARD:	Place	PopulatedPlace	Settlement	City
France_**_http://dbpedia.org/resource/France	Continent	0.424978985625	Country	0.27832880464	GovernmentAgency	0.195920395857	PopulatedPlace	0.143588427087	Place	0.14021126403	Organisation	0.120250332277	Agent	0.120250332277	AdministrativeRegion	0.0980552512224	Region	0.0980552512224	Company	0.077010295946		GOLD_STANDARD:	Place	PopulatedPlace	Country
Prairies_**_http://dbpedia.org/resource/Canadian_Prairies	GovernmentAgency	0.367687803867	Organisation	0.240417395586	Agent	0.240417395586	AdministrativeRegion	0.23816840135	Region	0.23816840135	Continent	0.226240301968	BodyOfWater	0.211463132498	NaturalPlace	0.211463132498	River	0.211463132498	Stream	0.211463132498		GOLD_STANDARD:	
Khandwa_**_http://dbpedia.org/resource/Khandwa	Town	0.437800460424	Settlement	0.232441927176	City	0.221413163357	PopulatedPlace	0.155326829072	Place	0.152744942787	AdministrativeRegion	0.102908450551	Region	0.102908450551	Country	0.0885371221734	Company	0.0495576901063	Organisation	0.0475966412656		GOLD_STANDARD:	Place	PopulatedPlace	Settlement	City
Edouard_**_http://dbpedia.org/resource/Hurricane_Edouard_(1996)	Continent	0.0997518366807	GovernmentAgency	0.0996035801636	Organisation	0.0915017295712	Agent	0.0915017295712	Company	0.0868721006613	AdministrativeRegion	0.0797652458004	Region	0.0797652458004	Country	0.0777033923449	Place	0.0670334545249	PopulatedPlace	0.0666793558035		GOLD_STANDARD:	
St. Louis_**_http://dbpedia.org/resource/St._Louis,_Missouri	NaturalPlace	0.209025717696	BodyOfWater	0.209025717696	River	0.209025717696	Stream	0.209025717696	AdministrativeRegion	0.133512786716	Region	0.133512786716	Holiday	0.12938763924	City	0.12578445619	Settlement	0.125059633096	Place	0.108196112786		GOLD_STANDARD:	
Havre_**_http://dbpedia.org/resource/Havre,_Montana	AdministrativeRegion	0.288355366677	Region	0.288355366677	City	0.211818700779	BodyOfWater	0.210306338971	NaturalPlace	0.210306338971	Stream	0.210306338971	River	0.210306338971	Town	0.206461829477	Settlement	0.203623509721	Place	0.182714256005		GOLD_STANDARD:	Place	PopulatedPlace	Settlement	City
BOMBAY_**_http://dbpedia.org/resource/Mumbai	Settlement	0.215596941898	Town	0.206074535643	City	0.199010692213	Country	0.17547373275	PopulatedPlace	0.167357575477	Place	0.164586670923	Company	0.0951455383414	Organisation	0.0867221784546	Agent	0.0867221784546	BodyOfWater	0.0807294757033		GOLD_STANDARD:	Place	PopulatedPlace	Settlement	City
KANSAS CITY_**_http://dbpedia.org/resource/Kansas_City,_Missouri	Region	0.222712274159	AdministrativeRegion	0.222712274159	City	0.197624179176	Settlement	0.190041220795	PopulatedPlace	0.150830783398	Place	0.150440906665	GovernmentAgency	0.0992629366903	Organisation	0.09830428185	Agent	0.09830428185	Company	0.0977564790841		GOLD_STANDARD:	Place	PopulatedPlace	Settlement	City
LONDON_**_http://dbpedia.org/resource/London	Continent	0.205669867518	Country	0.177574530652	Settlement	0.163706413025	PopulatedPlace	0.152171243881	City	0.150940560849	Place	0.148452979261	GovernmentAgency	0.115110495315	Organisation	0.109639248926	Agent	0.109639248926	Company	0.106512822419		GOLD_STANDARD:	Place	PopulatedPlace	Settlement
OMAHA_**_http://dbpedia.org/resource/Omaha,_Nebraska	AdministrativeRegion	0.244457675619	Region	0.244457675619	City	0.210366702256	Settlement	0.20790866443	Place	0.15871922831	PopulatedPlace	0.158420370538	Company	0.136128849883	Organisation	0.119929538852	Agent	0.119929538852	Holiday	0.102557649796		GOLD_STANDARD:	Place	PopulatedPlace	Settlement	City
Peace River Valley_**_http://dbpedia.org/resource/Peace_River_(Canada)	BodyOfWater	0.70196105735	NaturalPlace	0.70196105735	Stream	0.70196105735	River	0.70196105735	Holiday	0.209200822347	Town	0.146590814068	AdministrativeRegion	0.135962795088	Region	0.135962795088	City	0.125796287762	Settlement	0.116056432241		GOLD_STANDARD:	
Neemuch_**_http://dbpedia.org/resource/Neemuch	Town	0.398859208892	City	0.202313647972	Settlement	0.201154883509	PopulatedPlace	0.132470052462	Place	0.130303602036	Country	0.102534346177	Company	0.0732269666829	Organisation	0.0670975642426	Agent	0.0670975642426	GovernmentAgency	0.0563711099722		GOLD_STANDARD:	Place	PopulatedPlace	Settlement
Indonesia_**_http://dbpedia.org/resource/Indonesia	Country	0.326968740589	Continent	0.262261041728	GovernmentAgency	0.187235546712	PopulatedPlace	0.177949587302	Place	0.174396656685	Organisation	0.154782186871	Agent	0.154782186871	Company	0.136237409819	Region	0.126996788684	AdministrativeRegion	0.126996788684		GOLD_STANDARD:	Place	PopulatedPlace	Country
Panhandle_**_http://dbpedia.org/resource/Oklahoma_Panhandle	AdministrativeRegion	0.387895323779	Region	0.387895323779	Place	0.195990350861	City	0.189027895869	PopulatedPlace	0.187115720824	Continent	0.185010904021	GovernmentAgency	0.172046284586	Settlement	0.164246628068	BodyOfWater	0.161962956597	NaturalPlace	0.161962956597		GOLD_STANDARD:	
S. Korea_**_http://dbpedia.org/resource/South_Korea	Continent	0.260501366802	Country	0.215267932313	GovernmentAgency	0.164636610843	AdministrativeRegion	0.164367027865	Region	0.164367027865	PopulatedPlace	0.155410839447	Place	0.154139031951	Organisation	0.136605052004	Agent	0.136605052004	City	0.121796203715		GOLD_STANDARD:	Place	PopulatedPlace	Country
Labor Day_**_http://dbpedia.org/resource/Labor_Day	GovernmentAgency	0.233074128628	Organisation	0.157301583595	Agent	0.157301583595	BodyOfWater	0.129352641859	NaturalPlace	0.129352641859	River	0.129352641859	Stream	0.129352641859	Company	0.114002986433	Country	0.0997967330116	AdministrativeRegion	0.0995913293786		GOLD_STANDARD:	Holiday
Duluth_**_http://dbpedia.org/resource/Duluth,_Minnesota	AdministrativeRegion	0.300304867776	Region	0.300304867776	City	0.233146499515	Settlement	0.214207349726	NaturalPlace	0.192530143062	BodyOfWater	0.192530143062	River	0.192530143062	Stream	0.192530143062	Place	0.182271901248	PopulatedPlace	0.182045040357		GOLD_STANDARD:	Place	PopulatedPlace	Settlement	City
WASHINGTON_**_http://dbpedia.org/resource/Washington,_D.C.	Holiday	0.196986779244	Settlement	0.181028147495	City	0.179760022011	PopulatedPlace	0.159635167062	Place	0.157000192692	Region	0.156271000444	AdministrativeRegion	0.156271000444	GovernmentAgency	0.139627666299	Country	0.134420724308	Organisation	0.107497185513		GOLD_STANDARD:	Place	PopulatedPlace	Settlement
Morocco_**_http://dbpedia.org/resource/Morocco	Country	0.321955001442	Continent	0.273850363938	GovernmentAgency	0.169425266917	PopulatedPlace	0.157905615278	Place	0.153434970407	Organisation	0.108005930491	Agent	0.108005930491	Town	0.0993228342472	Region	0.0842667793563	AdministrativeRegion	0.0842667793563		GOLD_STANDARD:	Place	PopulatedPlace	Country
CHICAGO_**_http://dbpedia.org/resource/Chicago	Settlement	0.214089566682	City	0.202205892242	Region	0.201325625307	AdministrativeRegion	0.201325625307	PopulatedPlace	0.168245893165	Company	0.166250973646	Place	0.164119577779	Organisation	0.151069269406	Agent	0.151069269406	GovernmentAgency	0.124501286984		GOLD_STANDARD:	Place	PopulatedPlace	Settlement	City
Indiana_**_http://dbpedia.org/resource/Indiana	AdministrativeRegion	0.39426138884	Region	0.39426138884	Place	0.182944037142	PopulatedPlace	0.182071803194	GovernmentAgency	0.165118629987	City	0.164021930538	Continent	0.161234611769	Settlement	0.144419534778	Holiday	0.132310466028	Country	0.12674653668		GOLD_STANDARD:	
INDORE_**_http://dbpedia.org/resource/Indore	Town	0.269445574808	Settlement	0.22311571981	City	0.204206473825	PopulatedPlace	0.150823314042	Place	0.147146818122	Country	0.13433782994	Holiday	0.0754189518154	Company	0.0721502825726	Organisation	0.0601065828176	Agent	0.0601065828176		GOLD_STANDARD:	Place	PopulatedPlace	Settlement	City
Mexico_**_http://dbpedia.org/resource/Mexico	Region	0.298390243864	AdministrativeRegion	0.298390243864	Continent	0.241387313296	GovernmentAgency	0.23840892038	Country	0.236751284429	Place	0.194985357033	PopulatedPlace	0.193875051383	City	0.136877721684	Organisation	0.135736524928	Agent	0.135736524928		GOLD_STANDARD:	Place	PopulatedPlace	Country
Mitsui_**_http://dbpedia.org/resource/Mitsui	Company	0.184542410504	Organisation	0.145166385513	Agent	0.145166385513	Country	0.113280548658	GovernmentAgency	0.0861023480267	Continent	0.0802872373558	PopulatedPlace	0.0759908227294	Place	0.0752152437846	City	0.0679468237815	BodyOfWater	0.0652540202497		GOLD_STANDARD:	Agent	Organisation	Company
Saudis_**_http://dbpedia.org/resource/Saudi_Arabia	Country	0.258168975938	Continent	0.154147222117	PopulatedPlace	0.1081087502	GovernmentAgency	0.106631449305	Place	0.106441348093	Holiday	0.0850443924847	Organisation	0.0824652524891	Agent	0.0824652524891	Company	0.0686559971658	Town	0.0576328200019		GOLD_STANDARD:	Place	PopulatedPlace	Country
Fed_**_http://dbpedia.org/resource/Federal_Reserve_System	Holiday	0.160833860213	GovernmentAgency	0.155293084657	Organisation	0.135556275229	Agent	0.135556275229	Company	0.124278098413	Country	0.108126452481	Town	0.0988720978026	Region	0.0895654192516	AdministrativeRegion	0.0895654192516	PopulatedPlace	0.0885063452499		GOLD_STANDARD:	
WINNIPEG_**_http://dbpedia.org/resource/Winnipeg	GovernmentAgency	0.272916489436	Settlement	0.214603832661	City	0.212004923515	AdministrativeRegion	0.201426352417	Region	0.201426352417	Organisation	0.196943210878	Agent	0.196943210878	PopulatedPlace	0.18077605842	Place	0.178747005038	Company	0.153529908845		GOLD_STANDARD:	Place	PopulatedPlace	Settlement
Ujjain_**_http://dbpedia.org/resource/Ujjain	Town	0.457442249809	Settlement	0.218447246836	City	0.20601455513	PopulatedPlace	0.160526775292	Place	0.158153768532	Country	0.121970739774	AdministrativeRegion	0.0967811433057	Region	0.0967811433057	Holiday	0.051663135335	Company	0.0468811423924		GOLD_STANDARD:	Place	PopulatedPlace	Settlement	City
Sprague_**_http://dbpedia.org/resource/Sprague,_Manitoba	Region	0.169884150579	AdministrativeRegion	0.169884150579	Town	0.169666459063	City	0.163821475038	Settlement	0.140180247147	BodyOfWater	0.136708217698	NaturalPlace	0.136708217698	Stream	0.136708217698	River	0.136708217698	Place	0.12294093263		GOLD_STANDARD:	Place	PopulatedPlace
Indian_**_http://dbpedia.org/resource/India	Country	0.260546906138	BodyOfWater	0.229548605186	NaturalPlace	0.229548605186	River	0.229548605186	Stream	0.229548605186	Town	0.221023851736	Continent	0.20289828465	Place	0.174298800781	PopulatedPlace	0.173033996212	GovernmentAgency	0.142222722413		GOLD_STANDARD:	Place	PopulatedPlace	Country
Pakistan_**_http://dbpedia.org/resource/Pakistan	Country	0.309352668667	Continent	0.223873893003	Town	0.204411931113	GovernmentAgency	0.192782962322	PopulatedPlace	0.18282857598	Place	0.179627765232	Organisation	0.130221545093	Agent	0.130221545093	Region	0.125742399373	AdministrativeRegion	0.125742399373		GOLD_STANDARD:	Place	PopulatedPlace	Country
Environment Canada_**_http://dbpedia.org/resource/Environment_Canada	GovernmentAgency	0.412426956264	Holiday	0.285542181927	Continent	0.266796816815	Organisation	0.232784601166	Agent	0.232784601166	Country	0.22860596278	Region	0.187935437727	AdministrativeRegion	0.187935437727	PopulatedPlace	0.167828687486	Place	0.166992472321		GOLD_STANDARD:	Agent	Organisation	GovernmentAgency
Ashta_**_http://dbpedia.org/resource/Ashta	Town	0.249929434579	BodyOfWater	0.138413764956	NaturalPlace	0.138413764956	River	0.138413764956	Stream	0.138413764956	Settlement	0.115263069461	City	0.107941623476	Company	0.0827718870753	Country	0.0750504144231	PopulatedPlace	0.0708375624777		GOLD_STANDARD:	
Wenatchee_**_http://dbpedia.org/resource/Wenatchee,_Washington	Region	0.240053962429	AdministrativeRegion	0.240053962429	City	0.230525359905	Settlement	0.208567621445	Town	0.184452806071	Place	0.175313784809	PopulatedPlace	0.175043520055	GovernmentAgency	0.146454732848	Organisation	0.131754802812	Agent	0.131754802812		GOLD_STANDARD:	Place	PopulatedPlace	Settlement	City
Illinois_**_http://dbpedia.org/resource/Illinois	Region	0.42429029806	AdministrativeRegion	0.42429029806	GovernmentAgency	0.206982064714	Place	0.19481075062	PopulatedPlace	0.193938349842	Organisation	0.181489167816	Agent	0.181489167816	City	0.177590371835	Continent	0.176329503385	Company	0.16692179816		GOLD_STANDARD:	
Midwest_**_http://dbpedia.org/resource/Midwestern_United_States	AdministrativeRegion	0.42000172982	Region	0.42000172982	Continent	0.309676236127	GovernmentAgency	0.245340527862	Place	0.209715299356	PopulatedPlace	0.206653560464	Organisation	0.193964377073	Agent	0.193964377073	City	0.187686286749	Company	0.164606576622		GOLD_STANDARD:	Place	PopulatedPlace
