Ohio_**_http://dbpedia.org/resource/Ohio	Country	0.152738600444	City	0.135864047762	Settlement	0.13277374517	PopulatedPlace	0.1317212886	Place	0.1317212886	Region	0.0972554004288	AdministrativeRegion	0.0972554004288	Bank	0.070925975352	Organisation	0.062323967661	Agent	0.0563827286827		GOLD_STANDARD:	
Deutsche Lufthansa AG_**_http://dbpedia.org/resource/Lufthansa	Airline	0.738653411555	Company	0.350281588472	Organisation	0.347695513515	Agent	0.332393936324	Bank	0.232503648118	Country	0.20451009751	WrittenWork	0.204235508516	Newspaper	0.204235508516	PeriodicalLiterature	0.204235508516	Work	0.204235508516		GOLD_STANDARD:	Agent	Organisation	Company	Airline
JOHANNESBURG_**_http://dbpedia.org/resource/Johannesburg	Settlement	0.399564115941	City	0.395658898693	PopulatedPlace	0.29888184292	Place	0.29888184292	Country	0.165428352036	Region	0.14226089145	AdministrativeRegion	0.14226089145	WrittenWork	0.140200445536	Newspaper	0.140200445536	PeriodicalLiterature	0.140200445536		GOLD_STANDARD:	Place	PopulatedPlace	Settlement
Lonrho Plc_**_http://dbpedia.org/resource/Lonmin	Airline	0.35321043544	Company	0.274278149412	Organisation	0.268728782677	Agent	0.267407823269	Person	0.247593432138	Bank	0.166419708604	WrittenWork	0.121329331145	Newspaper	0.121329331145	PeriodicalLiterature	0.121329331145	Work	0.121329331145		GOLD_STANDARD:	Agent	Organisation	Company
Nigel Mobbs_**_http://dbpedia.org/resource/Nigel_Mobbs	Company	0.159853992549	Organisation	0.153836773316	Agent	0.153836773316	Bank	0.138983120678	Airline	0.0758942461097	Settlement	0.0744512701598	City	0.0734431887954	Newspaper	0.0701530845492	PeriodicalLiterature	0.0701530845492	Work	0.0701530845492		GOLD_STANDARD:	Agent	Person
LONDON_**_http://dbpedia.org/resource/London	City	0.445926102262	Settlement	0.426505593182	PopulatedPlace	0.325153885455	Place	0.325153885455	AdministrativeRegion	0.198304039514	Region	0.198304039514	Country	0.189550664118	Person	0.176924826523	Agent	0.100547809134	Organisation	0.0957742455476		GOLD_STANDARD:	Place	PopulatedPlace	Settlement
Boddington_**_http://dbpedia.org/resource/Boddington_Gold_Mine	Person	0.308893816732	Newspaper	0.16445129477	PeriodicalLiterature	0.16445129477	Work	0.16445129477	WrittenWork	0.16445129477	Company	0.154868947568	Agent	0.153836281114	Organisation	0.144145185138	Bank	0.13272462862	Airline	0.0762549827376		GOLD_STANDARD:	
CALGARY_**_http://dbpedia.org/resource/Calgary	City	0.341622434242	Settlement	0.331925049405	PopulatedPlace	0.244256464838	Place	0.244256464838	AdministrativeRegion	0.170399344132	Region	0.170399344132	Country	0.103891037127	Company	0.054752139903	Organisation	0.0536841463064	Agent	0.0527828629125		GOLD_STANDARD:	Place	PopulatedPlace	Settlement	City
Newcrest Mining Ltd_**_http://dbpedia.org/resource/Newcrest_Mining	Company	0.257716855195	Organisation	0.24698715941	Agent	0.246469958979	Airline	0.246447309477	Person	0.238711952518	WrittenWork	0.189954571315	Newspaper	0.189954571315	PeriodicalLiterature	0.189954571315	Work	0.189954571315	Bank	0.176147631908		GOLD_STANDARD:	Agent	Organisation	Company
AMSTERDAM_**_http://dbpedia.org/resource/Amsterdam	City	0.431808084062	Settlement	0.420778888095	PopulatedPlace	0.32602389054	Place	0.32602389054	Country	0.206847704475	AdministrativeRegion	0.195130908973	Region	0.195130908973	Airline	0.188418289221	WrittenWork	0.154109939335	Newspaper	0.154109939335		GOLD_STANDARD:	Place	PopulatedPlace	Settlement	City
Hungarian_**_http://dbpedia.org/resource/Hungary	Country	0.449984691613	PopulatedPlace	0.257691722721	Place	0.257691722721	City	0.223112347864	Settlement	0.201297518945	Airline	0.195574648489	Region	0.132905830658	AdministrativeRegion	0.132905830658	Organisation	0.104993209765	Agent	0.0988070434207		GOLD_STANDARD:	Place	PopulatedPlace	Country
MONTGOMERY_**_http://dbpedia.org/resource/Montgomery,_Alabama	City	0.262100485092	Settlement	0.261905282283	AdministrativeRegion	0.197600259079	Region	0.197600259079	PopulatedPlace	0.190250680647	Place	0.190250680647	Person	0.0779200067565	Company	0.0574542247358	Agent	0.0550191567	Organisation	0.0535878535714		GOLD_STANDARD:	Place	PopulatedPlace	Settlement
Oppenheimer Capital LP_**_http://dbpedia.org/resource/Oppenheimer_Holdings	Bank	0.295397511793	Company	0.238420902131	Organisation	0.228136357391	Agent	0.218627906262	Airline	0.169114833659	WrittenWork	0.142395629512	Newspaper	0.142395629512	PeriodicalLiterature	0.142395629512	Work	0.142395629512	Person	0.0760011393251		GOLD_STANDARD:	Agent	Organisation	Company	Bank
Budapest_**_http://dbpedia.org/resource/Budapest	Country	0.361986629555	Airline	0.318456369801	WrittenWork	0.258678186421	Newspaper	0.258678186421	PeriodicalLiterature	0.258678186421	Work	0.258678186421	PopulatedPlace	0.252680478831	Place	0.252680478831	City	0.236082057772	Settlement	0.219929057886		GOLD_STANDARD:	Place	PopulatedPlace	Settlement	City
British Land_**_http://dbpedia.org/resource/British_Land	Country	0.231402127331	Person	0.223784323314	Agent	0.220836511188	Organisation	0.220639990379	Company	0.211776040314	Bank	0.161035265159	PopulatedPlace	0.148373652557	Place	0.148373652557	Newspaper	0.143205774933	PeriodicalLiterature	0.143205774933		GOLD_STANDARD:	Agent	Organisation	Company
Budapest Stock Exchange_**_http://dbpedia.org/resource/Budapest_Stock_Exchange	Airline	0.288421548402	WrittenWork	0.286743691519	Newspaper	0.286743691519	PeriodicalLiterature	0.286743691519	Work	0.286743691519	Country	0.247771123054	Organisation	0.231037276887	Agent	0.227514907869	Company	0.226484787738	City	0.226233354952		GOLD_STANDARD:	
KinderCare Learning Centers Inc_**_http://dbpedia.org/resource/KinderCare_Learning_Centers	Bank	0.184456433683	Airline	0.169604994646	Company	0.151366683689	Organisation	0.149582165925	Agent	0.145593299578	Region	0.0922196852553	AdministrativeRegion	0.0922196852553	Person	0.0857603043739	Settlement	0.0782253801416	City	0.0710496453254		GOLD_STANDARD:	Agent	Organisation	Company
Deutsche Bahn_**_http://dbpedia.org/resource/Deutsche_Bahn	Airline	0.590437228807	Company	0.315227114079	Organisation	0.308518530016	Agent	0.299652697259	Bank	0.242646291867	WrittenWork	0.193234415833	Newspaper	0.193234415833	PeriodicalLiterature	0.193234415833	Work	0.193234415833	Country	0.186063238349		GOLD_STANDARD:	Agent	Organisation	Company
SHANGHAI_**_http://dbpedia.org/resource/Shanghai	City	0.415690337511	Settlement	0.39848284157	PopulatedPlace	0.32247287694	Place	0.32247287694	AdministrativeRegion	0.232316246364	Region	0.232316246364	Country	0.205240060286	WrittenWork	0.125740883221	Newspaper	0.125740883221	PeriodicalLiterature	0.125740883221		GOLD_STANDARD:	Place	PopulatedPlace	Settlement
Slough Estates_**_http://dbpedia.org/resource/SEGRO	Person	0.285627843175	Agent	0.153656507636	Company	0.147284333618	Organisation	0.145408299164	Bank	0.100048474088	Airline	0.0828575647354	WrittenWork	0.0615828215262	Newspaper	0.0615828215262	PeriodicalLiterature	0.0615828215262	Work	0.0615828215262		GOLD_STANDARD:	
Ala_**_http://dbpedia.org/resource/Alabama	WrittenWork	0.0912222306001	Newspaper	0.0912222306001	PeriodicalLiterature	0.0912222306001	Work	0.0912222306001	Person	0.0901700813825	Company	0.0688402768907	Agent	0.0661138401355	Organisation	0.0646103250576	AdministrativeRegion	0.0619562356351	Region	0.0619562356351		GOLD_STANDARD:	
China_**_http://dbpedia.org/resource/People's_Republic_of_China	Country	0.291139306023	WrittenWork	0.260016523924	Newspaper	0.260016523924	PeriodicalLiterature	0.260016523924	Work	0.260016523924	PopulatedPlace	0.19079589745	Place	0.19079589745	Airline	0.174194158389	AdministrativeRegion	0.165535081327	Region	0.165535081327		GOLD_STANDARD:	
Madrid_**_http://dbpedia.org/resource/Madrid	Newspaper	0.236035919779	PeriodicalLiterature	0.236035919779	Work	0.236035919779	WrittenWork	0.236035919779	Airline	0.214964219134	Country	0.210691925202	PopulatedPlace	0.167940919291	Place	0.167940919291	City	0.163151931905	Settlement	0.15822565106		GOLD_STANDARD:	Place	PopulatedPlace	Settlement
Repsol_**_http://dbpedia.org/resource/Repsol_YPF	Airline	0.319827478892	Company	0.183679376173	Country	0.181008709303	Organisation	0.180428886512	Agent	0.172179570499	Bank	0.116115041571	PopulatedPlace	0.0923804387742	Place	0.0923804387742	WrittenWork	0.0681921797972	Newspaper	0.0681921797972		GOLD_STANDARD:	
Spanish_**_http://dbpedia.org/resource/Spain	Country	0.279022179831	PopulatedPlace	0.146492274208	Place	0.146492274208	Settlement	0.106787492518	AdministrativeRegion	0.0919464258913	Region	0.0919464258913	Airline	0.0867794058998	Organisation	0.0755942522693	City	0.073105204992	Agent	0.069862346589		GOLD_STANDARD:	Place	PopulatedPlace	Country
Poland_**_http://dbpedia.org/resource/Poland	Country	0.397653387674	Airline	0.258693816902	PopulatedPlace	0.21875121835	Place	0.21875121835	City	0.184560052385	Settlement	0.167375664276	WrittenWork	0.142058695882	Newspaper	0.142058695882	PeriodicalLiterature	0.142058695882	Work	0.142058695882		GOLD_STANDARD:	Place	PopulatedPlace	Country
Hammerson_**_http://dbpedia.org/resource/Hammerson	Airline	0.329072911131	Person	0.299031626658	Company	0.268383822985	Agent	0.266589459864	Organisation	0.264426648744	Bank	0.172384018939	City	0.0977435040752	Settlement	0.09683233199	Newspaper	0.093907622442	PeriodicalLiterature	0.093907622442		GOLD_STANDARD:	Agent	Organisation	Company
HONG KONG_**_http://dbpedia.org/resource/Hong_Kong	City	0.220736265468	Settlement	0.215604162017	AdministrativeRegion	0.187915169551	Region	0.187915169551	PopulatedPlace	0.177250183372	Place	0.177250183372	WrittenWork	0.167527354384	Newspaper	0.167527354384	PeriodicalLiterature	0.167527354384	Work	0.167527354384		GOLD_STANDARD:	Place	PopulatedPlace	Country
Ford_**_http://dbpedia.org/resource/Ford_Motor_Company	Bank	0.192604542231	Person	0.138429034724	Company	0.135917054328	Agent	0.133261571416	Organisation	0.132917073862	Newspaper	0.0734607887471	PeriodicalLiterature	0.0734607887471	Work	0.0734607887471	WrittenWork	0.0734607887471	Region	0.0718791385087		GOLD_STANDARD:	Agent	Organisation	Company
Telfer_**_http://dbpedia.org/resource/Telfer_Mine	Person	0.236171527969	Bank	0.154933076985	Agent	0.134389210561	Company	0.133404873607	Organisation	0.128027815723	Country	0.0755886092677	City	0.0742605537407	Settlement	0.067665284387	PopulatedPlace	0.0619169665085	Place	0.0619169665085		GOLD_STANDARD:	Place	PopulatedPlace
MINNEAPOLIS_**_http://dbpedia.org/resource/Minneapolis	City	0.341929111918	Settlement	0.341229785941	PopulatedPlace	0.243840535176	Place	0.243840535176	Region	0.19811419862	AdministrativeRegion	0.19811419862	Airline	0.0876036557391	Country	0.0848030021909	Bank	0.0638551028301	Company	0.0575706667729		GOLD_STANDARD:	Place	PopulatedPlace	Settlement	City
JAKARTA_**_http://dbpedia.org/resource/Jakarta	City	0.415538497534	Settlement	0.39105744092	WrittenWork	0.383437864724	Newspaper	0.383437864724	PeriodicalLiterature	0.383437864724	Work	0.383437864724	PopulatedPlace	0.310361445156	Place	0.310361445156	AdministrativeRegion	0.23135860678	Region	0.23135860678		GOLD_STANDARD:	Place	PopulatedPlace	Settlement
Salomon Brothers_**_http://dbpedia.org/resource/Salomon_Brothers	Bank	0.234745512362	Airline	0.210766695886	Company	0.196204275548	Organisation	0.189434414074	Agent	0.188111103752	Person	0.168261448911	WrittenWork	0.0957248856964	Newspaper	0.0957248856964	PeriodicalLiterature	0.0957248856964	Work	0.0957248856964		GOLD_STANDARD:	Agent	Organisation	Company	Bank
Bank Indonesia_**_http://dbpedia.org/resource/Bank_Indonesia	Newspaper	0.431602689439	PeriodicalLiterature	0.431602689439	Work	0.431602689439	WrittenWork	0.431602689439	Airline	0.251034808201	Country	0.225758900739	Organisation	0.211203401785	Company	0.208812368704	Agent	0.203704598301	Region	0.147683106895		GOLD_STANDARD:	
Calif._**_http://dbpedia.org/resource/California	City	0.137847053494	Settlement	0.131077654765	Bank	0.117301131948	Region	0.113884378257	AdministrativeRegion	0.113884378257	PopulatedPlace	0.108914629895	Place	0.108914629895	Country	0.074911131681	Company	0.0515765461679	Organisation	0.0506539281295		GOLD_STANDARD:	
Vienna_**_http://dbpedia.org/resource/Vienna	Airline	0.321242474733	WrittenWork	0.251884391006	Newspaper	0.251884391006	PeriodicalLiterature	0.251884391006	Work	0.251884391006	Country	0.248708756606	City	0.217898691778	PopulatedPlace	0.193742411741	Place	0.193742411741	Settlement	0.188361847324		GOLD_STANDARD:	Place	PopulatedPlace	Settlement
Transylvanian_**_http://dbpedia.org/resource/Transylvania	Country	0.250720845532	City	0.15908565782	PopulatedPlace	0.15723632885	Place	0.15723632885	Settlement	0.131141356913	Airline	0.115148860377	AdministrativeRegion	0.0711400452278	Region	0.0711400452278	Bank	0.0517938925527	Organisation	0.0508076747868		GOLD_STANDARD:	Place	PopulatedPlace	Settlement
Bucharest_**_http://dbpedia.org/resource/Bucharest	Country	0.346064369822	WrittenWork	0.276317415527	Newspaper	0.276317415527	PeriodicalLiterature	0.276317415527	Work	0.276317415527	PopulatedPlace	0.257286748221	Place	0.257286748221	City	0.234746616826	Settlement	0.232071882025	Airline	0.224955476373		GOLD_STANDARD:	Place	PopulatedPlace	Settlement	City
Holdings_**_http://dbpedia.org/resource/Holding_company	Company	0.246003863197	Organisation	0.23372467308	Agent	0.228267438947	Bank	0.188974864531	Airline	0.171818510875	Person	0.140951692815	WrittenWork	0.0540581873968	Newspaper	0.0540581873968	PeriodicalLiterature	0.0540581873968	Work	0.0540581873968		GOLD_STANDARD:	
PHOENIX_**_http://dbpedia.org/resource/Phoenix,_Arizona	City	0.352957150155	Settlement	0.339557282746	PopulatedPlace	0.243080657568	Place	0.243080657568	AdministrativeRegion	0.208010779753	Region	0.208010779753	Country	0.0789192822962	Organisation	0.0243668551313	Company	0.024194173815	Agent	0.0224654815329		GOLD_STANDARD:	Place	PopulatedPlace	Settlement
Lufthansa_**_http://dbpedia.org/resource/Lufthansa	Airline	0.738653411555	Company	0.23503599479	Organisation	0.233932577008	Agent	0.222369179306	Country	0.186894993985	Newspaper	0.148959735841	PeriodicalLiterature	0.148959735841	Work	0.148959735841	WrittenWork	0.148959735841	PopulatedPlace	0.127744766606		GOLD_STANDARD:	Agent	Organisation	Company	Airline
Kecskemet_**_http://dbpedia.org/resource/Kecskemét	Country	0.264451551114	Airline	0.223394498376	PopulatedPlace	0.185926754272	Place	0.185926754272	City	0.165884133187	Settlement	0.155965820262	Organisation	0.129995323461	Agent	0.129560840174	Company	0.126107452655	AdministrativeRegion	0.125148528544		GOLD_STANDARD:	
Ford Motor Co_**_http://dbpedia.org/resource/Ford_Motor_Company	Bank	0.261572774213	Company	0.23249405945	Organisation	0.225415185953	Agent	0.222232388524	Person	0.17449042708	Airline	0.137152167735	Region	0.0907242041768	AdministrativeRegion	0.0907242041768	WrittenWork	0.088934950536	Newspaper	0.088934950536		GOLD_STANDARD:	Agent	Organisation	Company
TOKYO_**_http://dbpedia.org/resource/Tokyo	Settlement	0.399600280323	City	0.396718803815	PopulatedPlace	0.321995571386	Place	0.321995571386	AdministrativeRegion	0.267099679534	Region	0.267099679534	Country	0.201521726645	Newspaper	0.189055828754	PeriodicalLiterature	0.189055828754	Work	0.189055828754		GOLD_STANDARD:	Place	PopulatedPlace	Settlement	City
HELSINKI_**_http://dbpedia.org/resource/Helsinki	City	0.419710979154	Settlement	0.400186717175	PopulatedPlace	0.305867301437	Place	0.305867301437	Country	0.194756497361	AdministrativeRegion	0.17817864722	Region	0.17817864722	Airline	0.139229864157	Newspaper	0.0978187389224	PeriodicalLiterature	0.0978187389224		GOLD_STANDARD:	Place	PopulatedPlace
Valero Energy Corp_**_http://dbpedia.org/resource/Valero_Energy_Corporation	Company	0.268424787084	Organisation	0.264682206572	Agent	0.252100455794	Bank	0.242994260644	Airline	0.204672368389	Country	0.0928000740913	AdministrativeRegion	0.0867062555818	Region	0.0867062555818	PopulatedPlace	0.0732490668654	Place	0.0732490668654		GOLD_STANDARD:	
Sydney_**_http://dbpedia.org/resource/Sydney	WrittenWork	0.328717588413	Newspaper	0.328717588413	PeriodicalLiterature	0.328717588413	Work	0.328717588413	Person	0.263883410685	Region	0.180323244962	AdministrativeRegion	0.180323244962	City	0.179854479119	Settlement	0.169715014704	PopulatedPlace	0.166470102341		GOLD_STANDARD:	Place	PopulatedPlace	Settlement	City
WELLINGTON_**_http://dbpedia.org/resource/Wellington	City	0.378177130925	Settlement	0.375585713125	PopulatedPlace	0.285222633253	Place	0.285222633253	Region	0.177541118691	AdministrativeRegion	0.177541118691	Country	0.162412776003	WrittenWork	0.146825878616	Newspaper	0.146825878616	PeriodicalLiterature	0.146825878616		GOLD_STANDARD:	Place	PopulatedPlace	Settlement	City
Australian_**_http://dbpedia.org/resource/Australia	WrittenWork	0.32791246493	Newspaper	0.32791246493	PeriodicalLiterature	0.32791246493	Work	0.32791246493	Country	0.259766189196	Person	0.242101586249	City	0.203153486686	PopulatedPlace	0.20247611583	Place	0.20247611583	Settlement	0.190311646705		GOLD_STANDARD:	Place	PopulatedPlace	Country
Estonia_**_http://dbpedia.org/resource/Estonia	Country	0.381235717045	PopulatedPlace	0.228435323012	Place	0.228435323012	City	0.204685907006	Settlement	0.183648984542	Airline	0.175867809652	Newspaper	0.134896773657	WrittenWork	0.134896773657	PeriodicalLiterature	0.134896773657	Work	0.134896773657		GOLD_STANDARD:	Place	PopulatedPlace	Country
Bistrita_**_http://dbpedia.org/resource/Bistriţa	Country	0.209037174308	PopulatedPlace	0.144529858423	Place	0.144529858423	Settlement	0.121987044855	City	0.11339869681	Region	0.0822580238413	AdministrativeRegion	0.0822580238413	Person	0.067559891976	Agent	0.0567708867392	Organisation	0.0560965739119		GOLD_STANDARD:	
TALLINN_**_http://dbpedia.org/resource/Tallinn	City	0.343034744258	Settlement	0.333184110715	Place	0.280923175077	PopulatedPlace	0.280923175077	Country	0.240059278667	AdministrativeRegion	0.143318494331	Region	0.143318494331	Airline	0.129835233043	WrittenWork	0.0811518147076	Newspaper	0.0811518147076		GOLD_STANDARD:	Place	PopulatedPlace	Settlement	City
Hungary_**_http://dbpedia.org/resource/Hungary	Country	0.424225098036	Airline	0.263311827005	PopulatedPlace	0.250236172479	Place	0.250236172479	City	0.22479266385	Settlement	0.196962560919	AdministrativeRegion	0.141808524661	Region	0.141808524661	Organisation	0.132730587801	Newspaper	0.127860382427		GOLD_STANDARD:	Place	PopulatedPlace	Country
IRVINE_**_http://dbpedia.org/resource/Irvine,_California	Settlement	0.28023179138	City	0.277776962825	PopulatedPlace	0.200883963887	Place	0.200883963887	AdministrativeRegion	0.171911027616	Region	0.171911027616	Country	0.0637765530612	Person	0.0603078255212	Bank	0.0265427741399	Agent	0.0196085053176		GOLD_STANDARD:	Place	PopulatedPlace	Settlement	City
SYDNEY_**_http://dbpedia.org/resource/Sydney	City	0.427974593167	Settlement	0.420199826995	PopulatedPlace	0.322765780039	Place	0.322765780039	Region	0.208997887966	AdministrativeRegion	0.208997887966	Newspaper	0.190808517808	PeriodicalLiterature	0.190808517808	Work	0.190808517808	WrittenWork	0.190808517808		GOLD_STANDARD:	Place	PopulatedPlace	Settlement	City
Merrill Lynch_**_http://dbpedia.org/resource/Merrill_Lynch	Bank	0.242877430646	Company	0.185997197045	Organisation	0.178507946487	Agent	0.178144123194	Person	0.172686773799	Airline	0.122437944418	WrittenWork	0.107487698928	Newspaper	0.107487698928	PeriodicalLiterature	0.107487698928	Work	0.107487698928		GOLD_STANDARD:	Agent	Organisation	Company	Bank
German_**_http://dbpedia.org/resource/Germany	Airline	0.418134048245	Country	0.413175642296	PopulatedPlace	0.242132132547	Place	0.242132132547	City	0.210341398953	Settlement	0.201900917199	Organisation	0.181167759152	Agent	0.172761046643	Company	0.168211798686	WrittenWork	0.112108028754		GOLD_STANDARD:	Place	PopulatedPlace	Country
French_**_http://dbpedia.org/resource/France	Country	0.312836663399	Airline	0.191289545605	PopulatedPlace	0.178487606183	Place	0.178487606183	Settlement	0.139261714452	City	0.126321948148	Organisation	0.115785885881	Agent	0.111142958946	Company	0.101936340366	AdministrativeRegion	0.0890485762888		GOLD_STANDARD:	Place	PopulatedPlace	Country
Jiangxi_**_http://dbpedia.org/resource/Jiangxi	Country	0.179495532163	Region	0.149136309866	AdministrativeRegion	0.149136309866	WrittenWork	0.146667214482	Newspaper	0.146667214482	PeriodicalLiterature	0.146667214482	Work	0.146667214482	PopulatedPlace	0.136230286902	Place	0.136230286902	Settlement	0.118436124151		GOLD_STANDARD:	Place	PopulatedPlace
European Commission_**_http://dbpedia.org/resource/European_Commission	Country	0.292462683526	Airline	0.264987596094	PopulatedPlace	0.175858318766	Place	0.175858318766	Company	0.173248388357	Organisation	0.173248388357	Agent	0.166394019386	City	0.145888841202	Settlement	0.143711715848	Newspaper	0.100149672351		GOLD_STANDARD:	Agent	Organisation
Johannesburg_**_http://dbpedia.org/resource/Johannesburg	Newspaper	0.28887957182	PeriodicalLiterature	0.28887957182	Work	0.28887957182	WrittenWork	0.28887957182	City	0.232287258017	Settlement	0.226755615953	Airline	0.202033332473	PopulatedPlace	0.18525769577	Place	0.18525769577	Person	0.17571782584		GOLD_STANDARD:	Place	PopulatedPlace	Settlement
HARLEYSVILLE_**_http://dbpedia.org/resource/Harleysville,_Pennsylvania	Bank	0.160375825186	City	0.12854017065	Settlement	0.12613145481	PopulatedPlace	0.108379676858	Place	0.108379676858	Company	0.0985867345522	AdministrativeRegion	0.0974206177032	Region	0.0974206177032	Organisation	0.097006969927	Agent	0.0928283665454		GOLD_STANDARD:	
NEW YORK_**_http://dbpedia.org/resource/New_York_City	Settlement	0.28682390408	City	0.278046426791	PopulatedPlace	0.212157736077	Place	0.212157736077	Region	0.152222305653	AdministrativeRegion	0.152222305653	Country	0.108519350331	Company	0.0766009329022	Person	0.0764310815872	Agent	0.0750556594637		GOLD_STANDARD:	Place	PopulatedPlace	Settlement	City
Land Securities_**_http://dbpedia.org/resource/Land_Securities	Company	0.265917111204	Organisation	0.259703179653	Agent	0.250968318694	Bank	0.239194275522	Airline	0.182390181692	Person	0.11994540431	WrittenWork	0.104720075665	Newspaper	0.104720075665	PeriodicalLiterature	0.104720075665	Work	0.104720075665		GOLD_STANDARD:	Agent	Organisation	Company
Chicago_**_http://dbpedia.org/resource/Chicago	Newspaper	0.198304200157	PeriodicalLiterature	0.198304200157	Work	0.198304200157	WrittenWork	0.198304200157	Settlement	0.153438804585	City	0.150879694797	Bank	0.149267237089	Region	0.148655945084	AdministrativeRegion	0.148655945084	Airline	0.139183278691		GOLD_STANDARD:	Place	PopulatedPlace	Settlement	City
FRANKFURT_**_http://dbpedia.org/resource/Frankfurt_am_Main	City	0.409349772068	Settlement	0.405194462021	PopulatedPlace	0.316444923735	Place	0.316444923735	Airline	0.306497853278	Country	0.204941433335	AdministrativeRegion	0.173886598257	Region	0.173886598257	Organisation	0.156999280389	Company	0.150731065849		GOLD_STANDARD:	
Deutsche Bahn AG_**_http://dbpedia.org/resource/Deutsche_Bahn	Airline	0.65608956584	Company	0.33061051503	Organisation	0.324941736022	Agent	0.313049147705	Bank	0.249550187408	WrittenWork	0.197469598585	Newspaper	0.197469598585	PeriodicalLiterature	0.197469598585	Work	0.197469598585	Country	0.18232557278		GOLD_STANDARD:	Agent	Organisation	Company
Indonesia_**_http://dbpedia.org/resource/Indonesia	Newspaper	0.50631666216	PeriodicalLiterature	0.50631666216	Work	0.50631666216	WrittenWork	0.50631666216	Country	0.237796247418	Airline	0.19240635419	Region	0.186718608	AdministrativeRegion	0.186718608	PopulatedPlace	0.176483191508	Place	0.176483191508		GOLD_STANDARD:	Place	PopulatedPlace	Country
ROMANIA_**_http://dbpedia.org/resource/Romania	Country	0.319375593212	City	0.313368269369	Settlement	0.292929068372	PopulatedPlace	0.283504019661	Place	0.283504019661	Airline	0.211241975474	AdministrativeRegion	0.183643744438	Region	0.183643744438	Organisation	0.112825694533	Agent	0.108172702654		GOLD_STANDARD:	Place	PopulatedPlace	Country
U.S._**_http://dbpedia.org/resource/United_States	Country	0.282699419477	Newspaper	0.196228384461	PeriodicalLiterature	0.196228384461	Work	0.196228384461	WrittenWork	0.196228384461	PopulatedPlace	0.165874650443	Place	0.165874650443	AdministrativeRegion	0.162641638792	Region	0.162641638792	Organisation	0.133604382019		GOLD_STANDARD:	Place	PopulatedPlace	Country
Czech Republic_**_http://dbpedia.org/resource/Czech_Republic	Country	0.392044192867	Place	0.220455039893	PopulatedPlace	0.220455039893	Airline	0.19575215759	Newspaper	0.169261792177	PeriodicalLiterature	0.169261792177	Work	0.169261792177	WrittenWork	0.169261792177	Settlement	0.167367690933	City	0.166241810318		GOLD_STANDARD:	Place	PopulatedPlace	Country
BUCHAREST_**_http://dbpedia.org/resource/Bucharest	City	0.409926975734	Settlement	0.402004693303	PopulatedPlace	0.331830094743	Place	0.331830094743	Country	0.2614504982	AdministrativeRegion	0.18595442814	Region	0.18595442814	Airline	0.110821226723	WrittenWork	0.0736861033349	Newspaper	0.0736861033349		GOLD_STANDARD:	Place	PopulatedPlace	Settlement	City
BSE_**_http://dbpedia.org/resource/Budapest_Stock_Exchange	Airline	0.154428488363	Country	0.110233629902	Organisation	0.101409348752	Agent	0.100133238556	Company	0.0994052214197	Region	0.0810596547203	AdministrativeRegion	0.0810596547203	Person	0.0797154754256	PopulatedPlace	0.0717609795379	Place	0.0717609795379		GOLD_STANDARD:	
Bangkok_**_http://dbpedia.org/resource/Bangkok	WrittenWork	0.53147206332	Newspaper	0.53147206332	PeriodicalLiterature	0.53147206332	Work	0.53147206332	City	0.202104150378	Settlement	0.185627594696	Country	0.184891965324	PopulatedPlace	0.179024713162	Place	0.179024713162	Airline	0.17722874922		GOLD_STANDARD:	
Chinese_**_http://dbpedia.org/resource/People's_Republic_of_China	Country	0.322001105557	Newspaper	0.230349064775	PeriodicalLiterature	0.230349064775	Work	0.230349064775	WrittenWork	0.230349064775	PopulatedPlace	0.191973285998	Place	0.191973285998	AdministrativeRegion	0.159221815613	Region	0.159221815613	Settlement	0.129699670952		GOLD_STANDARD:	
BUDAPEST_**_http://dbpedia.org/resource/Budapest	City	0.406985024999	Settlement	0.392842071626	PopulatedPlace	0.332172661022	Place	0.332172661022	Country	0.276904375861	Airline	0.19861557981	AdministrativeRegion	0.19801370468	Region	0.19801370468	Organisation	0.0864118209075	Agent	0.0863386097555		GOLD_STANDARD:	Place	PopulatedPlace	Settlement	City
BANGKOK_**_http://dbpedia.org/resource/Bangkok	City	0.413606972178	Settlement	0.400709500373	PopulatedPlace	0.310095682644	Place	0.310095682644	WrittenWork	0.206622293833	Newspaper	0.206622293833	PeriodicalLiterature	0.206622293833	Work	0.206622293833	Region	0.184902992661	AdministrativeRegion	0.184902992661		GOLD_STANDARD:	
Jakarta Post_**_http://dbpedia.org/resource/The_Jakarta_Post	Airline	0.176597622179	Country	0.163780149063	AdministrativeRegion	0.146152550674	Region	0.146152550674	PopulatedPlace	0.142481405635	Place	0.142481405635	City	0.139767511953	Settlement	0.135601369341	Company	0.130090494008	Organisation	0.128219192654		GOLD_STANDARD:	Work	WrittenWork	PeriodicalLiterature	Newspaper
MADRID_**_http://dbpedia.org/resource/Madrid	City	0.429679170803	Settlement	0.423937364986	PopulatedPlace	0.337501794393	Place	0.337501794393	Country	0.229605204404	Region	0.227410362127	AdministrativeRegion	0.227410362127	Airline	0.124807333366	Newspaper	0.0652868716969	PeriodicalLiterature	0.0652868716969		GOLD_STANDARD:	Place	PopulatedPlace	Settlement
Estonian_**_http://dbpedia.org/resource/Estonia	Country	0.424586577667	PopulatedPlace	0.244108487834	Place	0.244108487834	City	0.213850468641	Airline	0.207120202837	Settlement	0.190250429234	WrittenWork	0.16668086853	Newspaper	0.16668086853	PeriodicalLiterature	0.16668086853	Work	0.16668086853		GOLD_STANDARD:	Place	PopulatedPlace	Country
Ltd_**_http://dbpedia.org/resource/Limited_company	Person	0.268030575013	Company	0.249532122072	Agent	0.242435087805	Organisation	0.240835369855	Airline	0.217702052471	Bank	0.125888820596	WrittenWork	0.107354588026	Newspaper	0.107354588026	PeriodicalLiterature	0.107354588026	Work	0.107354588026		GOLD_STANDARD:	
Amsterdam_**_http://dbpedia.org/resource/Amsterdam	Airline	0.361891988468	WrittenWork	0.273742938927	Newspaper	0.273742938927	PeriodicalLiterature	0.273742938927	Work	0.273742938927	City	0.182921309764	Country	0.180920443389	Settlement	0.172790844359	PopulatedPlace	0.166888302509	Place	0.166888302509		GOLD_STANDARD:	Place	PopulatedPlace	Settlement	City
GMT_**_http://dbpedia.org/resource/Greenwich_Mean_Time	Airline	0.16878591695	Country	0.138551282209	PopulatedPlace	0.116166936722	Place	0.116166936722	City	0.114366019142	WrittenWork	0.113210573643	Newspaper	0.113210573643	PeriodicalLiterature	0.113210573643	Work	0.113210573643	Settlement	0.109995295404		GOLD_STANDARD:	
