ENGLISH_**_http://dbpedia.org/resource/England	Country	0.205657148372	City	0.197649911325	Settlement	0.181408205866	PopulatedPlace	0.180809042629	Place	0.180809042629	Region	0.103987905103	AdministrativeRegion	0.103987905103	Bank	0.0858475516901	Company	0.0780160768582	Organisation	0.0754935222194		GOLD_STANDARD:	Place	PopulatedPlace
Warsaw_**_http://dbpedia.org/resource/Warsaw	Country	0.272199278874	Town	0.253130542637	Bank	0.194798110295	PopulatedPlace	0.193825185842	Place	0.193825185842	Settlement	0.147779538266	City	0.138672131655	AdministrativeRegion	0.137264139006	Region	0.137264139006	Company	0.12282114654		GOLD_STANDARD:	Place	PopulatedPlace	Settlement
BOMBAY_**_http://dbpedia.org/resource/Mumbai	City	0.359128864478	Settlement	0.347625058637	PopulatedPlace	0.260344741706	Place	0.260344741706	Country	0.191320917058	OfficeHolder	0.186091570011	Person	0.186091570011	Bank	0.151035709153	Region	0.146888509459	AdministrativeRegion	0.146888509459		GOLD_STANDARD:	Place	PopulatedPlace	Settlement	City
UTI Bank_**_http://dbpedia.org/resource/Axis_Bank	OfficeHolder	0.242800670509	Person	0.242800670509	Agent	0.21072405599	Organisation	0.194437526879	Company	0.19050297801	Country	0.1048903069	Bank	0.0962606268007	City	0.0880986788094	PopulatedPlace	0.0862484984497	Place	0.0862484984497		GOLD_STANDARD:	Agent	Organisation	Company	Bank
LONDON_**_http://dbpedia.org/resource/London	City	0.405797251198	Settlement	0.388599677985	PopulatedPlace	0.298108278026	Place	0.298108278026	Country	0.224637484966	AdministrativeRegion	0.201854093414	Region	0.201854093414	Bank	0.10313248686	Company	0.0993827071828	Organisation	0.0819010269866		GOLD_STANDARD:	Place	PopulatedPlace	Settlement
Lamonts_**_http://dbpedia.org/resource/Lamonts	Town	0.136115781671	Organisation	0.0650476088748	Company	0.0627490276613	Agent	0.0613940911931	Bank	0.0402771747305	City	0.0228982457026	OfficeHolder	0.019676202016	Person	0.019676202016	Settlement	0.0174082033875	Country	0.0161868776853		GOLD_STANDARD:	Agent	Organisation	Company
RAO Gazprom_**_http://dbpedia.org/resource/Gazprom	Country	0.247238364681	Company	0.210228959695	Agent	0.209631453214	Organisation	0.19450838709	OfficeHolder	0.193305540269	Person	0.193305540269	Bank	0.191241057183	PopulatedPlace	0.158897240406	Place	0.158897240406	Region	0.106293851512		GOLD_STANDARD:	Agent	Organisation	Company
WARSAW_**_http://dbpedia.org/resource/Warsaw	Settlement	0.335803184182	City	0.300573637532	PopulatedPlace	0.264083358787	Place	0.264083358787	Region	0.207141394547	AdministrativeRegion	0.207141394547	Country	0.199077061463	Town	0.160083460723	Company	0.109086303583	Agent	0.101285714531		GOLD_STANDARD:	Place	PopulatedPlace	Settlement
DBRS_**_http://dbpedia.org/resource/Dominion_Bond_Rating_Service	Town	0.183362017323	Company	0.133022924232	OfficeHolder	0.132942958915	Person	0.132942958915	Agent	0.124878582554	Organisation	0.120506516095	Bank	0.106933761321	Country	0.0327306639643	City	0.0265148596033	Settlement	0.0242386118228		GOLD_STANDARD:	
KIRKLAND_**_http://dbpedia.org/resource/Kirkland,_Washington	City	0.233368216502	Settlement	0.232162361483	Town	0.159779800853	PopulatedPlace	0.148262793687	Place	0.148262793687	Region	0.107485788013	AdministrativeRegion	0.107485788013	Organisation	0.06147649456	Company	0.055414247204	Country	0.0542642699829		GOLD_STANDARD:	Place	PopulatedPlace	Settlement	City
Dominion Bond Rating Service_**_http://dbpedia.org/resource/Dominion_Bond_Rating_Service	Town	0.248339851568	Bank	0.20132632896	Company	0.182922532677	OfficeHolder	0.180640341306	Person	0.180640341306	Organisation	0.175654738259	Agent	0.166590754809	Settlement	0.131684571699	City	0.121931280765	PopulatedPlace	0.115602984991		GOLD_STANDARD:	
Colo._**_http://dbpedia.org/resource/Colorado	Town	0.280142897859	Region	0.199944254671	AdministrativeRegion	0.199944254671	City	0.170235507639	Settlement	0.165962397385	PopulatedPlace	0.148633410452	Place	0.148633410452	Bank	0.120228742314	Country	0.118125898952	Company	0.0780786116258		GOLD_STANDARD:	
MOSCOW_**_http://dbpedia.org/resource/Moscow	Settlement	0.38987491245	City	0.3669856234	PopulatedPlace	0.310234721214	Place	0.310234721214	Country	0.265788574331	Company	0.147415258386	Region	0.125208378759	AdministrativeRegion	0.125208378759	Organisation	0.124352874131	Agent	0.109823176888		GOLD_STANDARD:	
Rangarajan_**_http://dbpedia.org/resource/C._Rangarajan	OfficeHolder	0.716817499526	Person	0.716817499526	Bank	0.156259983716	Agent	0.151353412839	Country	0.113032913795	Company	0.110126254817	Organisation	0.0942949881366	City	0.0904953340708	PopulatedPlace	0.0895951493126	Place	0.0895951493126		GOLD_STANDARD:	Agent	Person	OfficeHolder
KinderCare Learning Centers Inc_**_http://dbpedia.org/resource/KinderCare_Learning_Centers	Town	0.232842475146	Bank	0.187543785486	Organisation	0.16712368742	Agent	0.138991719574	Company	0.130275873944	AdministrativeRegion	0.121242773822	Region	0.121242773822	Settlement	0.107373466306	City	0.105931302998	PopulatedPlace	0.0865510243735		GOLD_STANDARD:	Agent	Organisation	Company
Belgium_**_http://dbpedia.org/resource/Belgium	Country	0.301336611935	PopulatedPlace	0.184014864742	Place	0.184014864742	Bank	0.183262939033	Region	0.127084108122	AdministrativeRegion	0.127084108122	Settlement	0.116955199619	Company	0.112204529148	Town	0.0966680831023	City	0.0925133497077		GOLD_STANDARD:	Place	PopulatedPlace	Country
YMCA_**_http://dbpedia.org/resource/YMCA	Town	0.251723752453	Bank	0.133072092812	Organisation	0.124942886546	Company	0.124942886546	Agent	0.0962490414797	City	0.0317868349948	Settlement	0.0316203446712	Region	0.026892281713	AdministrativeRegion	0.026892281713	PopulatedPlace	0.0262515366112		GOLD_STANDARD:	Agent	Organisation
Mostostal_**_http://dbpedia.org/resource/Mostostal	Company	0.261666086074	Bank	0.25475729678	Country	0.251641072375	Organisation	0.245331224947	Agent	0.2106541874	PopulatedPlace	0.160287050571	Place	0.160287050571	Town	0.132950708427	Settlement	0.106166886939	OfficeHolder	0.0953872379362		GOLD_STANDARD:	Agent
Ohio_**_http://dbpedia.org/resource/Ohio	Town	0.228878700066	AdministrativeRegion	0.208328182069	Region	0.208328182069	Settlement	0.184158932292	PopulatedPlace	0.168755213175	Place	0.168755213175	City	0.161601186063	Country	0.145421853119	Bank	0.137340805605	OfficeHolder	0.0777242502631		GOLD_STANDARD:	
Bombay_**_http://dbpedia.org/resource/Mumbai	OfficeHolder	0.24529659934	Person	0.24529659934	Bank	0.215811328836	City	0.151307178563	Settlement	0.134901774214	Agent	0.125636829409	Country	0.125419225552	Company	0.125216369047	PopulatedPlace	0.120344468688	Place	0.120344468688		GOLD_STANDARD:	Place	PopulatedPlace	Settlement	City
Fairview_**_http://dbpedia.org/resource/Fairview,_Texas	AdministrativeRegion	0.139780982287	Region	0.139780982287	City	0.0901469859909	Organisation	0.0856492059538	Agent	0.0826116329265	Settlement	0.0797845115552	PopulatedPlace	0.0679882443306	Place	0.0679882443306	Company	0.0648898876414	Bank	0.0549413923593		GOLD_STANDARD:	Place	PopulatedPlace	Settlement	Town
C. Rangarajan_**_http://dbpedia.org/resource/C._Rangarajan	OfficeHolder	0.716817499526	Person	0.716817499526	Agent	0.181778974573	Bank	0.164044660934	Company	0.136442907426	Organisation	0.126283944105	City	0.0985183248176	Country	0.0934311353786	PopulatedPlace	0.0908923646242	Place	0.0908923646242		GOLD_STANDARD:	Agent	Person	OfficeHolder
SWEDEN_**_http://dbpedia.org/resource/Sweden	Country	0.273831430837	PopulatedPlace	0.242800816972	Place	0.242800816972	City	0.234082724153	Settlement	0.233570288955	Region	0.178032275753	AdministrativeRegion	0.178032275753	Bank	0.155292185093	Company	0.120190889991	Agent	0.109815650215		GOLD_STANDARD:	Place	PopulatedPlace	Country
Poland_**_http://dbpedia.org/resource/Poland	Country	0.372656921057	PopulatedPlace	0.230282010477	Place	0.230282010477	Bank	0.169933966853	Region	0.153482304669	AdministrativeRegion	0.153482304669	Settlement	0.150437490154	Company	0.139769166399	Agent	0.137460180738	Organisation	0.127177203874		GOLD_STANDARD:	Place	PopulatedPlace	Country
TORONTO_**_http://dbpedia.org/resource/Toronto	Settlement	0.338162520011	City	0.328206257843	PopulatedPlace	0.227845468405	Place	0.227845468405	AdministrativeRegion	0.17352615379	Region	0.17352615379	Country	0.116003400024	Bank	0.0722527999884	Company	0.0656613049252	OfficeHolder	0.0626935625552		GOLD_STANDARD:	Place	PopulatedPlace	Settlement	City
HONG KONG_**_http://dbpedia.org/resource/Hong_Kong	City	0.231151958627	Settlement	0.204807506554	PopulatedPlace	0.159279381178	Place	0.159279381178	Company	0.125297475493	Organisation	0.113159238664	Agent	0.112372455579	AdministrativeRegion	0.110330623397	Region	0.110330623397	OfficeHolder	0.104690645282		GOLD_STANDARD:	Place	PopulatedPlace	Country
Nasdaq_**_http://dbpedia.org/resource/NASDAQ	Company	0.129781214799	Bank	0.125287098827	Organisation	0.122683301938	Agent	0.114468688347	Country	0.0934155460724	City	0.0933676579662	Settlement	0.0909053353825	PopulatedPlace	0.0873879934997	Place	0.0873879934997	AdministrativeRegion	0.0729878893734		GOLD_STANDARD:	
Texas_**_http://dbpedia.org/resource/Texas	AdministrativeRegion	0.23025028045	Region	0.23025028045	Town	0.148297517263	PopulatedPlace	0.13704389138	Place	0.13704389138	City	0.135662218295	Settlement	0.135492926214	Country	0.118635200151	OfficeHolder	0.114574537973	Person	0.114574537973		GOLD_STANDARD:	
United States_**_http://dbpedia.org/resource/United_States	Bank	0.195081455214	Country	0.165691399102	Company	0.132061931371	Organisation	0.131967920709	PopulatedPlace	0.113310607241	Place	0.113310607241	Agent	0.11010357431	Region	0.107466936082	AdministrativeRegion	0.107466936082	Town	0.0996121413415		GOLD_STANDARD:	Place	PopulatedPlace	Country
European_**_http://dbpedia.org/resource/European_Union	Country	0.369860719247	PopulatedPlace	0.214499475403	Place	0.214499475403	Bank	0.1816041847	Company	0.153587737384	Organisation	0.135001431226	Settlement	0.130582095893	Agent	0.121228930893	Region	0.114575357275	AdministrativeRegion	0.114575357275		GOLD_STANDARD:	Place	PopulatedPlace	Country
WASHINGTON_**_http://dbpedia.org/resource/Washington,_D.C.	City	0.379158153183	Settlement	0.366154913499	AdministrativeRegion	0.259214449872	Region	0.259214449872	PopulatedPlace	0.2573258796	Place	0.2573258796	Country	0.133631000395	Company	0.0791993548083	Organisation	0.0679460986579	OfficeHolder	0.0503230903137		GOLD_STANDARD:	Place	PopulatedPlace	Settlement
TOKYO_**_http://dbpedia.org/resource/Tokyo	Settlement	0.351092297012	City	0.334326428989	PopulatedPlace	0.273157852556	Place	0.273157852556	AdministrativeRegion	0.211281481436	Region	0.211281481436	Country	0.207396148754	Company	0.11262907408	Bank	0.10265211071	Organisation	0.0945196566136		GOLD_STANDARD:	Place	PopulatedPlace	Settlement	City
Ala_**_http://dbpedia.org/resource/Alabama	OfficeHolder	0.109920380209	Person	0.109920380209	Company	0.0778935368341	Agent	0.0768515620334	Organisation	0.0712454588456	AdministrativeRegion	0.0651553394602	Region	0.0651553394602	Town	0.0617898345061	Bank	0.0614555901966	Country	0.0397794510014		GOLD_STANDARD:	
Seattle_**_http://dbpedia.org/resource/Seattle	Town	0.181629251845	AdministrativeRegion	0.167015419452	Region	0.167015419452	City	0.155424763076	Settlement	0.124423884301	Bank	0.110996100708	PopulatedPlace	0.106560809804	Place	0.106560809804	Country	0.0717761119368	Organisation	0.0621984577681		GOLD_STANDARD:	Place	PopulatedPlace	Settlement	City
GERMAN_**_http://dbpedia.org/resource/Germany	Country	0.28428926614	PopulatedPlace	0.258969982616	Place	0.258969982616	City	0.25294959049	Settlement	0.252121756366	Bank	0.165438147131	Region	0.152913692802	AdministrativeRegion	0.152913692802	Company	0.103485283139	Organisation	0.0931711207695		GOLD_STANDARD:	Place	PopulatedPlace	Country
Reuters_**_http://dbpedia.org/resource/Reuters	Settlement	0.167293704032	Country	0.165798804617	PopulatedPlace	0.159638573256	Place	0.159638573256	City	0.156657535582	AdministrativeRegion	0.111437814635	Region	0.111437814635	Bank	0.105347608815	Company	0.0912594828761	Organisation	0.0716096730948		GOLD_STANDARD:	Agent	Organisation	Company
Gazprom_**_http://dbpedia.org/resource/Gazprom	Country	0.243851856831	Company	0.20064333654	Agent	0.191690122402	Bank	0.185515242889	Organisation	0.183899234167	PopulatedPlace	0.143931387577	Place	0.143931387577	Person	0.125436316047	OfficeHolder	0.125436316047	Region	0.0999123799985		GOLD_STANDARD:	Agent	Organisation	Company
Munich Re_**_http://dbpedia.org/resource/Munich_Re	Country	0.222226437839	PopulatedPlace	0.174826424101	Place	0.174826424101	City	0.171418398093	Settlement	0.151233222712	AdministrativeRegion	0.128022106172	Region	0.128022106172	Company	0.109424766843	Agent	0.103149497972	Organisation	0.101267273071		GOLD_STANDARD:	Agent	Organisation	Company	Bank
BRUSSELS_**_http://dbpedia.org/resource/Brussels	Settlement	0.359518995776	City	0.347259172112	PopulatedPlace	0.293895034732	Place	0.293895034732	Country	0.261110555158	AdministrativeRegion	0.181534155214	Region	0.181534155214	Company	0.121590426002	Organisation	0.104310865678	Bank	0.0991694160039		GOLD_STANDARD:	Place	PopulatedPlace	Settlement
DAX_**_http://dbpedia.org/resource/DAX	Country	0.192807310686	Bank	0.181383951962	Company	0.150437344038	Agent	0.146065571734	PopulatedPlace	0.138072361941	Place	0.138072361941	Organisation	0.134721116369	OfficeHolder	0.126966172025	Person	0.126966172025	Settlement	0.123031332207		GOLD_STANDARD:	
NEW DELHI_**_http://dbpedia.org/resource/New_Delhi	City	0.341476648978	Settlement	0.331247267303	PopulatedPlace	0.262137237965	Place	0.262137237965	Country	0.1931287725	AdministrativeRegion	0.184979393125	Region	0.184979393125	Bank	0.135525521766	Town	0.0961543567833	OfficeHolder	0.0868674975363		GOLD_STANDARD:	Place	PopulatedPlace	Settlement	City
SWEDISH_**_http://dbpedia.org/resource/Sweden	Country	0.263808758802	City	0.235073206992	PopulatedPlace	0.229865884493	Place	0.229865884493	Settlement	0.219060685259	AdministrativeRegion	0.126543964984	Region	0.126543964984	Company	0.0940615080544	Bank	0.0889625420533	Organisation	0.0878123064973		GOLD_STANDARD:	Place	PopulatedPlace	Country
RBI_**_http://dbpedia.org/resource/Reserve_Bank_of_India	OfficeHolder	0.19398439192	Person	0.19398439192	Bank	0.125360182544	Agent	0.101935290905	Company	0.0847529976746	Organisation	0.0784622176241	Town	0.0717490280509	Country	0.038500679294	Region	0.0342706552047	AdministrativeRegion	0.0342706552047		GOLD_STANDARD:	Agent
India_**_http://dbpedia.org/resource/India	OfficeHolder	0.361696157181	Person	0.361696157181	Country	0.270740104374	Bank	0.226595027116	City	0.22645573913	PopulatedPlace	0.212111055076	Place	0.212111055076	Settlement	0.203127089489	Agent	0.174327130509	Company	0.163813352961		GOLD_STANDARD:	Place	PopulatedPlace	Country
NEW YORK_**_http://dbpedia.org/resource/New_York_City	Settlement	0.319350226218	City	0.313570156627	PopulatedPlace	0.245517947155	Place	0.245517947155	AdministrativeRegion	0.201436851368	Region	0.201436851368	Country	0.162956976552	Bank	0.105619870675	Town	0.0917392099989	Organisation	0.0668259792701		GOLD_STANDARD:	Place	PopulatedPlace	Settlement	City
MONTGOMERY_**_http://dbpedia.org/resource/Montgomery,_Alabama	Settlement	0.269286079932	Region	0.264932602141	AdministrativeRegion	0.264932602141	City	0.255547584981	PopulatedPlace	0.193208508193	Place	0.193208508193	Town	0.185194269732	Country	0.0694206945885	OfficeHolder	0.043953934689	Person	0.043953934689		GOLD_STANDARD:	Place	PopulatedPlace	Settlement
MUNICH_**_http://dbpedia.org/resource/Munich	Settlement	0.339684620639	City	0.305314214978	PopulatedPlace	0.282137736969	Place	0.282137736969	Country	0.244820296142	AdministrativeRegion	0.186608686659	Region	0.186608686659	Bank	0.165202728634	Company	0.121530688781	Organisation	0.103376466298		GOLD_STANDARD:	Place	PopulatedPlace	Settlement	City
Russian Trading System_**_http://dbpedia.org/resource/Russian_Trading_System	Country	0.245184683361	Company	0.240087822291	Organisation	0.213502073838	Bank	0.207438861448	Agent	0.198255508239	PopulatedPlace	0.167153002808	Place	0.167153002808	AdministrativeRegion	0.144639076153	Region	0.144639076153	Settlement	0.11650800492		GOLD_STANDARD:	
LIBOR_**_http://dbpedia.org/resource/London_Interbank_Offered_Rate	Bank	0.181088889364	Company	0.127494865727	Organisation	0.118211952063	Agent	0.117653437451	OfficeHolder	0.0884515392915	Person	0.0884515392915	City	0.0694623970164	Settlement	0.0576970704619	Country	0.0548797396471	PopulatedPlace	0.0543732178795		GOLD_STANDARD:	
IPO_**_http://dbpedia.org/resource/Intellectual_Property_Owners_Association	Company	0.171527277241	Bank	0.166465614505	Agent	0.148833565779	Organisation	0.146819133158	Settlement	0.0856817418183	City	0.0840925874418	Country	0.0825456438694	OfficeHolder	0.0790466262022	Person	0.0790466262022	PopulatedPlace	0.0776306593966		GOLD_STANDARD:	
New Delhi_**_http://dbpedia.org/resource/New_Delhi	City	0.255112183655	Settlement	0.234737944152	OfficeHolder	0.231422472789	Person	0.231422472789	PopulatedPlace	0.207974794363	Place	0.207974794363	Country	0.203447042937	Bank	0.194281555521	Region	0.15709761769	AdministrativeRegion	0.15709761769		GOLD_STANDARD:	Place	PopulatedPlace	Settlement	City
Russian_**_http://dbpedia.org/resource/Russia	Country	0.343421373175	PopulatedPlace	0.212953389672	Place	0.212953389672	AdministrativeRegion	0.186629019682	Region	0.186629019682	Company	0.178920515018	Organisation	0.158346846683	Agent	0.146211542377	Settlement	0.125999686118	City	0.107195918816		GOLD_STANDARD:	Place	PopulatedPlace	Country
Indian_**_http://dbpedia.org/resource/India	OfficeHolder	0.323894522264	Person	0.323894522264	Country	0.221400667924	PopulatedPlace	0.171053407579	Place	0.171053407579	City	0.159466212373	Settlement	0.146799713034	Agent	0.132110404713	Bank	0.128539403636	Region	0.123954689641		GOLD_STANDARD:	Place	PopulatedPlace	Country
Ka Wah Bank_**_http://dbpedia.org/resource/Ka_Wah_Bank	Bank	0.243561611083	OfficeHolder	0.214034305895	Person	0.214034305895	Agent	0.15111225496	Organisation	0.130005825495	Company	0.128294236768	Region	0.0662758819511	AdministrativeRegion	0.0662758819511	Country	0.0615128608281	City	0.03999550176		GOLD_STANDARD:	Agent	Organisation	Company
Gujarat_**_http://dbpedia.org/resource/Gujarat	OfficeHolder	0.338566021748	Person	0.338566021748	City	0.214951372833	Country	0.203028946016	Bank	0.190120193041	PopulatedPlace	0.178372360628	Place	0.178372360628	Settlement	0.171952549661	AdministrativeRegion	0.164962875998	Region	0.164962875998		GOLD_STANDARD:	Place	PopulatedPlace	Settlement
Polish_**_http://dbpedia.org/resource/Poland	Country	0.34691752028	PopulatedPlace	0.217249384651	Place	0.217249384651	Bank	0.154380237057	Settlement	0.141584000883	Agent	0.130987098839	Company	0.130667492693	Region	0.13020005112	AdministrativeRegion	0.13020005112	Organisation	0.118818426319		GOLD_STANDARD:	Place	PopulatedPlace	Country
Wash_**_http://dbpedia.org/resource/Washington_(U.S._state)	AdministrativeRegion	0.105102370795	Region	0.105102370795	Bank	0.102404097622	Town	0.100762213733	City	0.0878789993824	OfficeHolder	0.0862844957261	Person	0.0862844957261	Organisation	0.0714325620336	Agent	0.0654145480895	Company	0.0596924452912		GOLD_STANDARD:	
Germany_**_http://dbpedia.org/resource/Germany	Country	0.354556243509	Bank	0.247870760381	PopulatedPlace	0.219711861454	Place	0.219711861454	Company	0.148394230097	Settlement	0.147299735517	Region	0.13994388193	AdministrativeRegion	0.13994388193	Organisation	0.131561757964	City	0.126985875565		GOLD_STANDARD:	Place	PopulatedPlace	Country
Russia_**_http://dbpedia.org/resource/Russia	Country	0.352903334161	PopulatedPlace	0.220887633034	Place	0.220887633034	Company	0.20619847828	Region	0.187771810069	AdministrativeRegion	0.187771810069	Organisation	0.183883750667	Agent	0.165642650579	Bank	0.150491980437	Settlement	0.139876239089		GOLD_STANDARD:	Place	PopulatedPlace	Country
Akron_**_http://dbpedia.org/resource/Akron,_Ohio	Town	0.374461738539	Region	0.269062077465	AdministrativeRegion	0.269062077465	Settlement	0.163138044299	PopulatedPlace	0.153574038928	Place	0.153574038928	City	0.12719496476	Bank	0.119818739589	Country	0.108716635495	OfficeHolder	0.0885822802034		GOLD_STANDARD:	Place	PopulatedPlace	Settlement	City
European Union_**_http://dbpedia.org/resource/European_Union	Country	0.315119206234	Bank	0.227750322408	PopulatedPlace	0.196631841096	Place	0.196631841096	Company	0.167219606221	Organisation	0.161615396939	Agent	0.153604421932	Settlement	0.136082947164	OfficeHolder	0.131176778446	Person	0.131176778446		GOLD_STANDARD:	Place	PopulatedPlace	Country
GMT_**_http://dbpedia.org/resource/Greenwich_Mean_Time	Company	0.107490334376	Country	0.106064676766	Organisation	0.0893265764697	Bank	0.0890109691122	PopulatedPlace	0.0869608520213	Place	0.0869608520213	Region	0.0764286364496	AdministrativeRegion	0.0764286364496	Settlement	0.0764044014422	Agent	0.0757009673038		GOLD_STANDARD:	
