Hungary_**_http://dbpedia.org/resource/Hungary	Continent	0.467185217205	Country	0.374912945726	PopulatedPlace	0.217652142246	Place	0.217652142246	City	0.188528961903	Settlement	0.168273800269	Bank	0.154686138488	Region	0.144172919419	AdministrativeRegion	0.144172919419	PoliticalParty	0.126896411537		GOLD_STANDARD:	Place	PopulatedPlace	Country
Siam Commercial Bank_**_http://dbpedia.org/resource/Siam_Commercial_Bank	Bank	0.549407363791	Company	0.213665249848	GovernmentAgency	0.204482506098	LawFirm	0.151153865121	Organisation	0.150977708361	Agent	0.123243779753	Continent	0.122513335243	Country	0.103802330673	PoliticalParty	0.103366725498	Town	0.0987037037351		GOLD_STANDARD:	Agent	Organisation	Company	Bank
Sidia Toure_**_http://dbpedia.org/resource/Sidya_Touré	GovernmentAgency	0.165879732696	LawFirm	0.154650473119	Legislature	0.154224277042	Person	0.137004362316	OfficeHolder	0.134242293405	Politician	0.119433256655	President	0.119433256655	Agent	0.105298749615	Bank	0.0983459207962	Company	0.0947070851765		GOLD_STANDARD:	
Brazil_**_http://dbpedia.org/resource/Brazil	Country	0.382545489359	Continent	0.333086030383	PopulatedPlace	0.18509769993	Place	0.18509769993	Legislature	0.119078575032	Settlement	0.117082295201	Company	0.115179712827	Region	0.11063982154	AdministrativeRegion	0.11063982154	City	0.110461563402		GOLD_STANDARD:	Place	PopulatedPlace	Country
Avalon Borough_**_http://dbpedia.org/resource/Avalon,_New_Jersey	Town	0.377895019849	Politician	0.164175587064	President	0.164175587064	Person	0.150267663319	OfficeHolder	0.134001358487	Settlement	0.130453090725	Bank	0.121384267271	City	0.120103806846	PoliticalParty	0.116763595258	Agent	0.11413528199		GOLD_STANDARD:	Place	PopulatedPlace	Settlement
CANBERRA_**_http://dbpedia.org/resource/Canberra	PoliticalParty	0.230220371207	City	0.200670016518	Settlement	0.194328960493	Country	0.172026821888	PopulatedPlace	0.169995319257	Place	0.169995319257	Organisation	0.15148597359	Region	0.144365330688	AdministrativeRegion	0.144365330688	Company	0.144350418379		GOLD_STANDARD:	Place	PopulatedPlace	Settlement	City
Steptoe & Johnson_**_http://dbpedia.org/resource/Steptoe_&_Johnson	OfficeHolder	0.320530807356	Person	0.318930318678	Politician	0.258284378961	President	0.258284378961	GovernmentAgency	0.184028848184	Agent	0.175301690631	Bank	0.148456255023	Settlement	0.0961131333379	City	0.0944190220662	Organisation	0.0915183242697		GOLD_STANDARD:	Agent	Organisation	Company	LawFirm
Texas_**_http://dbpedia.org/resource/Texas	LawFirm	0.287327336139	AdministrativeRegion	0.201615233412	Region	0.201615233412	Continent	0.158703770425	Person	0.154125989265	OfficeHolder	0.153788307837	Bank	0.15110502555	Company	0.149385939579	Politician	0.148886354454	President	0.148886354454		GOLD_STANDARD:	
N.J._**_http://dbpedia.org/resource/New_Jersey	AdministrativeRegion	0.251120089208	Region	0.251120089208	Settlement	0.225567912197	City	0.211564284882	PopulatedPlace	0.207548090533	Place	0.207548090533	Politician	0.190776403235	President	0.190776403235	Country	0.160573845091	Town	0.154820450794		GOLD_STANDARD:	
Colo._**_http://dbpedia.org/resource/Colorado	Town	0.280142897859	Region	0.225531633455	AdministrativeRegion	0.225531633455	PopulatedPlace	0.143441117105	Place	0.143441117105	Politician	0.13872101727	President	0.13872101727	Settlement	0.134059329317	City	0.131182189399	Country	0.122675224564		GOLD_STANDARD:	
Budapest_**_http://dbpedia.org/resource/Budapest	Continent	0.35736231628	Country	0.27426992197	City	0.215725458578	PopulatedPlace	0.207512901593	Place	0.207512901593	Settlement	0.196778071699	Region	0.139490089883	AdministrativeRegion	0.139490089883	Town	0.129263651935	Bank	0.108309864888		GOLD_STANDARD:	Place	PopulatedPlace	Settlement	City
Howard_**_http://dbpedia.org/resource/John_Howard	OfficeHolder	0.438254386117	Person	0.398808370505	LawFirm	0.353241410383	PoliticalParty	0.2725995415	Politician	0.258765757527	President	0.258765757527	Agent	0.249956553875	Organisation	0.18125571543	Company	0.163566794171	Town	0.126883176197		GOLD_STANDARD:	Agent	Person	OfficeHolder
Alain Juppe_**_http://dbpedia.org/resource/Alain_Juppé	Continent	0.257265728752	Country	0.215890332923	OfficeHolder	0.180535161248	Person	0.171597597727	PopulatedPlace	0.112778943341	Place	0.112778943341	Politician	0.106938302818	President	0.106938302818	City	0.10087734352	Settlement	0.0940280816972		GOLD_STANDARD:	
Italy_**_http://dbpedia.org/resource/Italy	Continent	0.484402531336	Country	0.421049410788	PopulatedPlace	0.228930213909	Place	0.228930213909	Settlement	0.167751374931	City	0.155089826777	AdministrativeRegion	0.124812415202	Region	0.124812415202	Bank	0.0987608041596	Company	0.0965895918971		GOLD_STANDARD:	Place	PopulatedPlace	Country
YMCA_**_http://dbpedia.org/resource/YMCA	Town	0.251723752453	Bank	0.194218346368	Politician	0.116609698436	President	0.116609698436	PoliticalParty	0.114387435565	LawFirm	0.103128303588	Company	0.102288414293	Organisation	0.0963509915076	Agent	0.0959622596013	Person	0.0952958620477		GOLD_STANDARD:	Agent	Organisation
Lansana Conte_**_http://dbpedia.org/resource/Lansana_Conté	LawFirm	0.204930970594	OfficeHolder	0.195294601813	Person	0.170617458922	Country	0.104086456907	Politician	0.0948501983787	President	0.0948501983787	Agent	0.0926105456897	Settlement	0.0800679469473	Company	0.0795880891216	PopulatedPlace	0.0745545156377		GOLD_STANDARD:	
Ala_**_http://dbpedia.org/resource/Alabama	Bank	0.132903461434	AdministrativeRegion	0.0768544367342	Region	0.0768544367342	Company	0.0688696896761	Settlement	0.0652387430455	City	0.0651985705581	PopulatedPlace	0.0624383035565	Place	0.0624383035565	Town	0.0617898345061	Country	0.0471839376021		GOLD_STANDARD:	
Ohio_**_http://dbpedia.org/resource/Ohio	AdministrativeRegion	0.26328471066	Region	0.26328471066	Politician	0.26073865257	President	0.26073865257	Town	0.228878700066	Bank	0.227800495671	Continent	0.201244476152	PopulatedPlace	0.194196436715	Place	0.194196436715	Settlement	0.191576383447		GOLD_STANDARD:	
Italian_**_http://dbpedia.org/resource/Italy	Continent	0.487236646418	Country	0.357917525654	PopulatedPlace	0.204864553623	Place	0.204864553623	Settlement	0.150740010793	City	0.134121270449	AdministrativeRegion	0.116892734169	Region	0.116892734169	OfficeHolder	0.0834146753355	PoliticalParty	0.0787874255634		GOLD_STANDARD:	Place	PopulatedPlace	Country
HARTFORD_**_http://dbpedia.org/resource/Hartford,_Connecticut	Region	0.247926946084	AdministrativeRegion	0.247926946084	Settlement	0.24455586579	City	0.236262173629	PopulatedPlace	0.181910298496	Place	0.181910298496	LawFirm	0.156126480064	Legislature	0.091354397218	Company	0.0839844214087	OfficeHolder	0.0739009434778		GOLD_STANDARD:	Place	PopulatedPlace	Settlement
KARACHI_**_http://dbpedia.org/resource/Karachi	City	0.214616929757	Settlement	0.198783342199	PopulatedPlace	0.167935941979	Place	0.167935941979	Country	0.153831167596	Continent	0.149889762276	AdministrativeRegion	0.137985473441	Region	0.137985473441	Company	0.115582029206	Bank	0.097629243798		GOLD_STANDARD:	Place	PopulatedPlace	Settlement	City
Robert W. Baird_**_http://dbpedia.org/resource/Robert_W._Baird	OfficeHolder	0.401519899855	Person	0.397702854943	Politician	0.378617630385	President	0.378617630385	LawFirm	0.371573815004	Town	0.277123129859	Agent	0.223271998216	Company	0.168235310868	Bank	0.159973666941	PoliticalParty	0.146822520154		GOLD_STANDARD:	Agent	Person
Telstra_**_http://dbpedia.org/resource/Telstra	PoliticalParty	0.266667747203	GovernmentAgency	0.185776650929	OfficeHolder	0.183912412657	Country	0.165952485806	Organisation	0.158771877084	Agent	0.157170694507	Person	0.154425810088	Continent	0.146878895688	President	0.101809843169	Politician	0.101809843169		GOLD_STANDARD:	Agent	Organisation	Company
Liberal Party_**_http://dbpedia.org/resource/Liberal_Party_of_Australia	PoliticalParty	0.569527409174	Legislature	0.295689993585	Organisation	0.293605594399	Agent	0.247091874192	Bank	0.200325692932	Politician	0.182809388272	President	0.182809388272	Person	0.167354068123	OfficeHolder	0.164589894127	Company	0.138041661125		GOLD_STANDARD:	Agent	Organisation	PoliticalParty
Labor Party_**_http://dbpedia.org/resource/Australian_Labor_Party	PoliticalParty	0.550740030726	Organisation	0.304041385675	Legislature	0.302372635449	Agent	0.251335778037	Bank	0.228247742882	Politician	0.200076608584	President	0.200076608584	GovernmentAgency	0.177080449158	Company	0.170337010302	OfficeHolder	0.162694002233		GOLD_STANDARD:	Agent	Organisation	PoliticalParty
BANGKOK_**_http://dbpedia.org/resource/Bangkok	City	0.268581232056	Settlement	0.253094364851	PopulatedPlace	0.200132458867	Place	0.200132458867	Region	0.157552627202	AdministrativeRegion	0.157552627202	Country	0.151242043716	Company	0.129635338862	PoliticalParty	0.118437012211	Continent	0.115484970593		GOLD_STANDARD:	
BRASILIA_**_http://dbpedia.org/resource/Brasília	City	0.243886667922	Settlement	0.243380484392	PopulatedPlace	0.202568163021	Place	0.202568163021	Country	0.182113106588	Legislature	0.168308521969	Region	0.163028226782	AdministrativeRegion	0.163028226782	Continent	0.117822479163	Company	0.112243152299		GOLD_STANDARD:	
N.Y._**_http://dbpedia.org/resource/New_York	Region	0.23506424974	AdministrativeRegion	0.23506424974	Settlement	0.211204489415	City	0.210164921721	PopulatedPlace	0.184497569051	Place	0.184497569051	Politician	0.17619005094	President	0.17619005094	Country	0.119627560288	Town	0.113878325654		GOLD_STANDARD:	
Australian Democrats_**_http://dbpedia.org/resource/Australian_Democrats	PoliticalParty	0.398823232305	Legislature	0.350402964992	Country	0.305491215943	Continent	0.288625088836	Politician	0.282085466223	President	0.282085466223	Organisation	0.262265881963	Agent	0.244342971561	Person	0.213617982299	OfficeHolder	0.207334164863		GOLD_STANDARD:	Agent	Organisation	PoliticalParty
Jacques Chirac_**_http://dbpedia.org/resource/Jacques_Chirac	Continent	0.249249442015	Country	0.231156097866	Politician	0.175923428153	President	0.175923428153	LawFirm	0.154785597648	PopulatedPlace	0.133969922081	Place	0.133969922081	Person	0.131514984856	City	0.121792141359	Settlement	0.116697650367		GOLD_STANDARD:	Agent	Person	OfficeHolder
London Stock Exchange_**_http://dbpedia.org/resource/London_Stock_Exchange	Continent	0.25664006056	Bank	0.248472653984	GovernmentAgency	0.224653554748	LawFirm	0.216269085644	Company	0.207446908155	City	0.199073319654	Settlement	0.18368407914	PopulatedPlace	0.158266023918	Place	0.158266023918	Organisation	0.147768956981		GOLD_STANDARD:	
Bill Clinton_**_http://dbpedia.org/resource/Bill_Clinton	Person	0.311103489915	OfficeHolder	0.297600661821	LawFirm	0.258284378961	Legislature	0.240130623802	Agent	0.208234580775	PoliticalParty	0.19538445242	Town	0.193467861719	Organisation	0.16075662271	Bank	0.150453804034	Company	0.13171629993		GOLD_STANDARD:	Agent	Person	Politician	President
Pakistan_**_http://dbpedia.org/resource/Pakistan	Country	0.246560162119	Legislature	0.201381531143	Continent	0.199934398099	Politician	0.166732122963	President	0.166732122963	Bank	0.153323400381	PopulatedPlace	0.14208780995	Place	0.14208780995	Company	0.139957089369	City	0.131301065803		GOLD_STANDARD:	Place	PopulatedPlace	Country
Tommy Thompson_**_http://dbpedia.org/resource/Tommy_Thompson	OfficeHolder	0.461298819968	Person	0.447581984336	Politician	0.376649547165	President	0.376649547165	LawFirm	0.363420142985	Agent	0.205340945635	Town	0.192049765912	Company	0.127930156177	Region	0.1186804051	AdministrativeRegion	0.1186804051		GOLD_STANDARD:	Agent	Person	OfficeHolder
European_**_http://dbpedia.org/resource/Europe	Country	0.407263065712	PopulatedPlace	0.193709454824	Place	0.193709454824	Bank	0.18538929325	GovernmentAgency	0.184138227774	Company	0.171853439244	City	0.141194170422	Organisation	0.124330874242	Settlement	0.12236238592	PoliticalParty	0.104693239971		GOLD_STANDARD:	Place	PopulatedPlace	Continent
CONAKRY_**_http://dbpedia.org/resource/Conakry	City	0.226439205838	Settlement	0.208784980688	PopulatedPlace	0.165124269151	Place	0.165124269151	Region	0.155819682979	AdministrativeRegion	0.155819682979	Company	0.143237922947	Bank	0.128308636162	Country	0.112788757586	Legislature	0.110783635915		GOLD_STANDARD:	
Reuters_**_http://dbpedia.org/resource/Reuters	Continent	0.27261056972	Country	0.183277172911	Bank	0.137821394318	PopulatedPlace	0.124913556852	Place	0.124913556852	City	0.11620175779	Settlement	0.106282702522	Company	0.0897024716725	AdministrativeRegion	0.0871584618389	Region	0.0871584618389		GOLD_STANDARD:	Agent	Organisation	Company
CHICAGO_**_http://dbpedia.org/resource/Chicago	City	0.245349177839	Settlement	0.24519276397	Region	0.218944909695	AdministrativeRegion	0.218944909695	PopulatedPlace	0.180337783523	Place	0.180337783523	LawFirm	0.135102944035	Company	0.106995219262	Legislature	0.101354142319	Person	0.0662240248182		GOLD_STANDARD:	Place	PopulatedPlace	Settlement	City
Wisc._**_http://dbpedia.org/resource/Wisconsin	Town	0.253694719517	AdministrativeRegion	0.184527039341	Region	0.184527039341	Bank	0.174766723218	Politician	0.138956720733	President	0.138956720733	Person	0.130251558694	OfficeHolder	0.107189361009	Settlement	0.100327682707	LawFirm	0.0943255505492		GOLD_STANDARD:	
BUDAPEST_**_http://dbpedia.org/resource/Budapest	City	0.267983318989	Continent	0.264110041936	Settlement	0.256661502615	PopulatedPlace	0.216622498169	Place	0.216622498169	Country	0.18892372522	Region	0.174990428494	AdministrativeRegion	0.174990428494	Company	0.0969762615424	PoliticalParty	0.0928643863392		GOLD_STANDARD:	Place	PopulatedPlace	Settlement	City
Michigan National Bank_**_http://dbpedia.org/resource/Michigan_National_Bank	Bank	0.549407363791	Legislature	0.278784577079	Continent	0.248265251257	Company	0.240215305382	Organisation	0.227083581445	PoliticalParty	0.218000856743	Politician	0.214855111589	President	0.214855111589	AdministrativeRegion	0.199628861601	Region	0.199628861601		GOLD_STANDARD:	Agent	Organisation	Company	Bank
Clarksburg_**_http://dbpedia.org/resource/Clarksburg,_West_Virginia	Town	0.431606055162	Settlement	0.17079054021	Politician	0.154137141922	President	0.154137141922	AdministrativeRegion	0.146413228813	Region	0.146413228813	City	0.124546730704	PopulatedPlace	0.122022580797	Place	0.122022580797	Person	0.100002029463		GOLD_STANDARD:	Place	PopulatedPlace	Settlement	City
AMSTERDAM_**_http://dbpedia.org/resource/Amsterdam	City	0.287760272112	Settlement	0.270433820953	Continent	0.267520005131	PopulatedPlace	0.221966625444	Place	0.221966625444	Country	0.183625989426	Region	0.176169773645	AdministrativeRegion	0.176169773645	Company	0.108181593802	PoliticalParty	0.0974762535648		GOLD_STANDARD:	Place	PopulatedPlace	Settlement	City
Australia_**_http://dbpedia.org/resource/Australia	Country	0.354499492055	Continent	0.340218675039	PoliticalParty	0.251777962765	Company	0.211208957004	Organisation	0.186777081099	PopulatedPlace	0.169844316795	Place	0.169844316795	Agent	0.169699382622	OfficeHolder	0.163976524741	Bank	0.145129687936		GOLD_STANDARD:	Place	PopulatedPlace	Country
BUCHAREST_**_http://dbpedia.org/resource/Bucharest	City	0.257252388629	Settlement	0.249640136263	Continent	0.226275982651	PopulatedPlace	0.205721523515	Place	0.205721523515	Country	0.170053818479	Region	0.166519815573	AdministrativeRegion	0.166519815573	PoliticalParty	0.0908265891079	Company	0.0835393650294		GOLD_STANDARD:	Place	PopulatedPlace	Settlement	City
NYC_**_http://dbpedia.org/resource/New_York_City	Region	0.242778744975	AdministrativeRegion	0.242778744975	City	0.240713663537	Settlement	0.240015781195	PopulatedPlace	0.2102850175	Place	0.2102850175	Country	0.149302272511	LawFirm	0.125969985527	President	0.120432337144	Politician	0.120432337144		GOLD_STANDARD:	Place	PopulatedPlace	Settlement	City
Thailand_**_http://dbpedia.org/resource/Thailand	Country	0.294552206442	Bank	0.242744913062	Continent	0.230118762336	Region	0.194382714032	AdministrativeRegion	0.194382714032	PopulatedPlace	0.178286689747	Place	0.178286689747	Company	0.169589165631	City	0.128986399923	Settlement	0.114272977492		GOLD_STANDARD:	Place	PopulatedPlace	Country
Congress_**_http://dbpedia.org/resource/National_Congress_of_Brazil	PoliticalParty	0.275134483238	Politician	0.240130623802	President	0.240130623802	Bank	0.175684182178	Organisation	0.172467463791	GovernmentAgency	0.119679793638	Agent	0.118688789758	Company	0.103635753851	LawFirm	0.089370073969	Continent	0.0631187593396		GOLD_STANDARD:	Agent	Organisation	Legislature
ROME_**_http://dbpedia.org/resource/Rome	City	0.298402652318	Settlement	0.277986972376	PopulatedPlace	0.243693194622	Place	0.243693194622	Continent	0.235635932763	Country	0.225786571049	AdministrativeRegion	0.203467473286	Region	0.203467473286	Company	0.0844572187365	Legislature	0.0696134394076		GOLD_STANDARD:	Place	PopulatedPlace	Settlement
Australian_**_http://dbpedia.org/resource/Australia	Continent	0.39024291225	Country	0.325562694124	PoliticalParty	0.286814575362	Company	0.200748984668	Organisation	0.187579597484	OfficeHolder	0.180730584977	Agent	0.174210186312	PopulatedPlace	0.168972374142	Place	0.168972374142	Person	0.14938127985		GOLD_STANDARD:	Place	PopulatedPlace	Country
Coalition_**_http://dbpedia.org/resource/Coalition_(Australia)	PoliticalParty	0.422302553006	Legislature	0.29375070895	Organisation	0.236242375242	Agent	0.188483614745	Politician	0.177714373903	President	0.177714373903	Bank	0.15232399529	GovernmentAgency	0.116043405144	Person	0.106611453895	Company	0.104932525565		GOLD_STANDARD:	Agent	Organisation	PoliticalParty
U.S._**_http://dbpedia.org/resource/United_States	Continent	0.469385204447	Country	0.326472959171	Legislature	0.269829973149	Bank	0.235169386749	Company	0.197085598869	Region	0.19190597266	AdministrativeRegion	0.19190597266	President	0.180115533961	Politician	0.180115533961	PopulatedPlace	0.178409678581		GOLD_STANDARD:	Place	PopulatedPlace	Country
STATE OF OHIO_**_http://dbpedia.org/resource/Ohio	AdministrativeRegion	0.191287316087	Region	0.191287316087	Settlement	0.162208689004	City	0.157859802047	Town	0.133554695104	LawFirm	0.13102258037	PopulatedPlace	0.128377720198	Place	0.128377720198	Company	0.0776536606336	Politician	0.0774975704257		GOLD_STANDARD:	
Romania_**_http://dbpedia.org/resource/Romania	Continent	0.491950581939	Country	0.390189384873	PopulatedPlace	0.220039157218	Place	0.220039157218	City	0.18966819333	Settlement	0.170287544233	Bank	0.147451436426	Region	0.12690924368	AdministrativeRegion	0.12690924368	Company	0.123442007832		GOLD_STANDARD:	Place	PopulatedPlace	Country
Fairmont_**_http://dbpedia.org/resource/Fairmont,_West_Virginia	Town	0.412636495018	Politician	0.228589074266	President	0.228589074266	Bank	0.17106841205	Person	0.136830405512	Settlement	0.133944114135	City	0.117433806338	AdministrativeRegion	0.111932524588	Region	0.111932524588	OfficeHolder	0.110947575707		GOLD_STANDARD:	Place	PopulatedPlace	Settlement	City
New York City_**_http://dbpedia.org/resource/New_York_City	Town	0.327075637758	Bank	0.291168096175	President	0.226993440605	Politician	0.226993440605	LawFirm	0.204164638162	Settlement	0.184914459511	AdministrativeRegion	0.17679659166	Region	0.17679659166	Person	0.164250176031	Company	0.160497199035		GOLD_STANDARD:	Place	PopulatedPlace	Settlement	City
French_**_http://dbpedia.org/resource/France	Continent	0.463395979198	Country	0.34568858722	PopulatedPlace	0.172721429755	Place	0.172721429755	OfficeHolder	0.137266038394	City	0.122098496187	Settlement	0.114865347272	Person	0.111187732951	Company	0.0773190130033	Agent	0.0749779417106		GOLD_STANDARD:	Place	PopulatedPlace	Country
Brazilian_**_http://dbpedia.org/resource/Brazil	Continent	0.373812272182	Country	0.345768205279	PopulatedPlace	0.172584768746	Place	0.172584768746	Settlement	0.109962900249	City	0.101996109934	AdministrativeRegion	0.101333042815	Region	0.101333042815	Company	0.0843210741438	OfficeHolder	0.0681689771664		GOLD_STANDARD:	Place	PopulatedPlace	Country
Greens_**_http://dbpedia.org/resource/Australian_Greens	PoliticalParty	0.521848068725	Organisation	0.242988146084	Agent	0.215719540738	OfficeHolder	0.177061971766	Person	0.168973360145	Continent	0.158583622983	President	0.13423642512	Politician	0.13423642512	Legislature	0.133456113216	Town	0.120295408348		GOLD_STANDARD:	Agent	Organisation	PoliticalParty
NEW YORK_**_http://dbpedia.org/resource/New_York_City	AdministrativeRegion	0.243551228434	Region	0.243551228434	Settlement	0.218134169382	City	0.20835973531	PopulatedPlace	0.176754717837	Place	0.176754717837	LawFirm	0.155964691069	Company	0.0923087667943	Town	0.0917392099989	Continent	0.0869563651308		GOLD_STANDARD:	Place	PopulatedPlace	Settlement	City
Wisconsin_**_http://dbpedia.org/resource/Wisconsin	Bank	0.26076823891	AdministrativeRegion	0.251470674796	Region	0.251470674796	Politician	0.191822030099	President	0.191822030099	Town	0.178226441933	PopulatedPlace	0.168505243287	Place	0.168505243287	Person	0.157037944158	Continent	0.153590282709		GOLD_STANDARD:	
Ivory Coast_**_http://dbpedia.org/resource/Côte_d'Ivoire	Bank	0.239433688968	LawFirm	0.225714810705	OfficeHolder	0.184221420076	Person	0.175279905391	Company	0.160643778468	Politician	0.142537287135	President	0.142537287135	Agent	0.131702622804	Continent	0.117494781889	Organisation	0.10823793218		GOLD_STANDARD:	
Dutch_**_http://dbpedia.org/resource/Netherlands	Continent	0.474888290026	Country	0.336195457972	PopulatedPlace	0.19678539762	Place	0.19678539762	City	0.174487554872	Settlement	0.155133173877	PoliticalParty	0.137806332773	GovernmentAgency	0.129412244259	Region	0.114903498131	AdministrativeRegion	0.114903498131		GOLD_STANDARD:	Place	PopulatedPlace	Country
Paris_**_http://dbpedia.org/resource/Paris,_Arkansas	Continent	0.320184047716	Country	0.260008439158	PopulatedPlace	0.186476009415	Place	0.186476009415	City	0.186225507168	Settlement	0.175345736739	OfficeHolder	0.113208334024	LawFirm	0.112737454962	AdministrativeRegion	0.100568958086	Region	0.100568958086		GOLD_STANDARD:	Place	PopulatedPlace	Settlement	City
Riviera_**_http://dbpedia.org/resource/French_Riviera	Bank	0.203326797525	Continent	0.194554620301	Town	0.147758174553	Country	0.107559690182	Company	0.104678774854	Settlement	0.0885206082547	PopulatedPlace	0.0872763233844	Place	0.0872763233844	OfficeHolder	0.085690049726	Person	0.0762572333737		GOLD_STANDARD:	Place	PopulatedPlace
Karachi_**_http://dbpedia.org/resource/Karachi	Country	0.181061341733	City	0.166544251676	Settlement	0.15579667556	PopulatedPlace	0.14923573057	Place	0.14923573057	Bank	0.121056631546	Region	0.109829146724	AdministrativeRegion	0.109829146724	Company	0.0976545964715	Continent	0.0854442020879		GOLD_STANDARD:	Place	PopulatedPlace	Settlement	City
Eau Claire_**_http://dbpedia.org/resource/Eau_Claire,_Wisconsin	Politician	0.200866377376	President	0.200866377376	Person	0.193695331388	Town	0.186887432478	OfficeHolder	0.179483804373	LawFirm	0.158112580933	GovernmentAgency	0.116539974195	Agent	0.112820758756	Country	0.0848815480633	Bank	0.080793345183		GOLD_STANDARD:	Place	PopulatedPlace	Settlement	City
Milan_**_http://dbpedia.org/resource/Milan	Continent	0.304607089154	Country	0.260581780652	City	0.205659515708	PopulatedPlace	0.197451546896	Place	0.197451546896	Settlement	0.192154799942	Town	0.156397640403	Region	0.119574883714	AdministrativeRegion	0.119574883714	Politician	0.0702294471338		GOLD_STANDARD:	Place	PopulatedPlace	Settlement
Detroit_**_http://dbpedia.org/resource/Detroit	AdministrativeRegion	0.210452831353	Region	0.210452831353	Bank	0.207636409636	Town	0.202429998807	City	0.187681767145	Settlement	0.185261042028	PopulatedPlace	0.160772373279	Place	0.160772373279	Legislature	0.130364222936	Company	0.126136154852		GOLD_STANDARD:	Place	PopulatedPlace	Settlement	City
Fairview_**_http://dbpedia.org/resource/Fairview,_Texas	Politician	0.193467861719	President	0.193467861719	Person	0.165847818565	AdministrativeRegion	0.143418936381	Region	0.143418936381	Settlement	0.139195532376	OfficeHolder	0.138068747675	City	0.134444014991	Bank	0.132599729413	Agent	0.108126500553		GOLD_STANDARD:	Place	PopulatedPlace	Settlement	Town
Charleston_**_http://dbpedia.org/resource/Charleston,_West_Virginia	Town	0.242090144682	Politician	0.211012103206	President	0.211012103206	City	0.192078810401	Settlement	0.190068619887	Person	0.175673491378	LawFirm	0.173576778806	Region	0.169350554017	AdministrativeRegion	0.169350554017	OfficeHolder	0.1679865416		GOLD_STANDARD:	Place	PopulatedPlace	Settlement
France_**_http://dbpedia.org/resource/France	Continent	0.495825419111	Country	0.388854628912	PopulatedPlace	0.190171988369	Place	0.190171988369	City	0.140573989629	Settlement	0.127678689558	Company	0.106795504095	OfficeHolder	0.102360412523	Bank	0.0934877661928	GovernmentAgency	0.0816745357754		GOLD_STANDARD:	Place	PopulatedPlace	Country
Hartford_**_http://dbpedia.org/resource/Hartford,_Connecticut	LawFirm	0.239572817303	Town	0.218624017482	Settlement	0.193945757201	Region	0.186521845674	AdministrativeRegion	0.186521845674	City	0.174969722099	Person	0.163175218617	OfficeHolder	0.160081932435	President	0.156401434803	Politician	0.156401434803		GOLD_STANDARD:	Place	PopulatedPlace	Settlement
Bangkok_**_http://dbpedia.org/resource/Bangkok	Country	0.208053299407	Bank	0.192413473894	City	0.189845201911	Settlement	0.171191844287	PopulatedPlace	0.165067840986	Place	0.165067840986	Company	0.138658064483	PoliticalParty	0.107419528681	Region	0.101410936027	AdministrativeRegion	0.101410936027		GOLD_STANDARD:	
Thompson_**_http://dbpedia.org/resource/Tommy_Thompson	OfficeHolder	0.428631002697	LawFirm	0.408583092793	Person	0.384884186106	Politician	0.237630131825	President	0.237630131825	Agent	0.19976227708	Town	0.165139732715	Company	0.15413811004	PoliticalParty	0.116366089078	GovernmentAgency	0.115295733027		GOLD_STANDARD:	Agent	Person	OfficeHolder
John Howard_**_http://dbpedia.org/resource/John_Howard	Person	0.484779866916	OfficeHolder	0.468272029076	Politician	0.439034444436	President	0.439034444436	LawFirm	0.32262379297	Agent	0.256896493239	PoliticalParty	0.208980866421	Town	0.169505428688	Company	0.16075917286	Organisation	0.151719551542		GOLD_STANDARD:	Agent	Person	OfficeHolder
FSA_**_http://dbpedia.org/resource/Financial_Services_Authority	Bank	0.187285144229	Continent	0.184138227774	LawFirm	0.184028848184	Company	0.160035867013	PoliticalParty	0.13691673472	Organisation	0.135099738725	Legislature	0.119679793638	Agent	0.117751011878	Politician	0.0975920112365	President	0.0975920112365		GOLD_STANDARD:	Agent	Organisation	GovernmentAgency
Akron_**_http://dbpedia.org/resource/Akron,_Ohio	Town	0.374461738539	AdministrativeRegion	0.240008398341	Region	0.240008398341	Settlement	0.203553335635	PopulatedPlace	0.180782985201	Place	0.180782985201	City	0.178275007253	Politician	0.163263588516	President	0.163263588516	LawFirm	0.151326632791		GOLD_STANDARD:	Place	PopulatedPlace	Settlement	City
Amsterdam_**_http://dbpedia.org/resource/Amsterdam	Continent	0.286832572627	City	0.216995314974	Country	0.212766060686	Settlement	0.198077844902	PopulatedPlace	0.185204011825	Place	0.185204011825	Town	0.175598007912	Region	0.117807794934	AdministrativeRegion	0.117807794934	Bank	0.105183702644		GOLD_STANDARD:	Place	PopulatedPlace	Settlement	City
GMT_**_http://dbpedia.org/resource/Greenwich_Mean_Time	Continent	0.189016053048	Company	0.13014752495	Country	0.123921823259	Bank	0.115755395225	PopulatedPlace	0.0908222938768	Place	0.0908222938768	City	0.0814232132045	Settlement	0.07615405464	Region	0.0735041136928	AdministrativeRegion	0.0735041136928		GOLD_STANDARD:	
