American_**_http://dbpedia.org/resource/United_States	Continent	0.362042083813	Country	0.249969257988	Building	0.249584766299	Region	0.226151840902	AdministrativeRegion	0.226151840902	PopulatedPlace	0.199100674139	Place	0.187494248686	GovernmentAgency	0.140709749213	PoliticalParty	0.107875044879	Organisation	0.102086500297		GOLD_STANDARD:	Place	PopulatedPlace	Country
Brazil_**_http://dbpedia.org/resource/Brazil	Continent	0.371893856138	Country	0.303258160317	PopulatedPlace	0.242294473444	Place	0.234789749961	Region	0.214284548097	AdministrativeRegion	0.214284548097	Airport	0.199748422934	Infrastructure	0.199748422934	ArchitecturalStructure	0.179254796183	GovernmentAgency	0.137743364297		GOLD_STANDARD:	Place	PopulatedPlace	Country
Britain_**_http://dbpedia.org/resource/United_Kingdom	Continent	0.501804052424	Country	0.303367845534	PopulatedPlace	0.26810276248	AdministrativeRegion	0.263782688674	Region	0.263782688674	Place	0.256452859619	Settlement	0.187858521968	Airport	0.171148869596	Infrastructure	0.171148869596	ArchitecturalStructure	0.170243578441		GOLD_STANDARD:	Place	PopulatedPlace	Country
BOSTON_**_http://dbpedia.org/resource/Boston	Settlement	0.316131873496	City	0.247568785704	Region	0.235605629994	AdministrativeRegion	0.235605629994	PopulatedPlace	0.161818678578	Place	0.142234589825	Country	0.0791556304531	Royalty	0.0657604537948	Continent	0.059298495235	Work	0.0488574085688		GOLD_STANDARD:	Place	PopulatedPlace	Settlement
Allahu_**_http://dbpedia.org/resource/Allah	Royalty	0.366976158906	Writer	0.309660269093	PoliticalParty	0.26940621349	Person	0.117431661598	Country	0.0970004155432	City	0.0963750948589	PopulatedPlace	0.0798005205668	Place	0.0765200078736	Settlement	0.072349902998	OfficeHolder	0.0647692284188		GOLD_STANDARD:	
Microsoft_**_http://dbpedia.org/resource/Microsoft	Work	0.614509697665	Software	0.614509697665	Company	0.211319827939	Organisation	0.177581922834	Continent	0.163713160099	Agent	0.163522792774	GovernmentAgency	0.147619696356	Person	0.131186793635	City	0.112125733171	Airport	0.107533906597		GOLD_STANDARD:	Agent	Organisation	Company
HAMBURG_**_http://dbpedia.org/resource/Hamburg	Settlement	0.306330166978	Airport	0.262521656354	Infrastructure	0.262521656354	City	0.241555318839	ArchitecturalStructure	0.239935641022	Place	0.194591166303	PopulatedPlace	0.188463534584	Continent	0.152717117116	Country	0.132172909941	Region	0.113720790058		GOLD_STANDARD:	Place	PopulatedPlace	Settlement	City
China_**_http://dbpedia.org/resource/People's_Republic_of_China	Continent	0.391915776647	Country	0.312702407946	PopulatedPlace	0.254777122206	Place	0.240845348492	Region	0.212714476363	AdministrativeRegion	0.212714476363	Work	0.205288907443	Software	0.205288907443	GovernmentAgency	0.174049273987	Organisation	0.159879210254		GOLD_STANDARD:	
Agriculture Department_**_http://dbpedia.org/resource/United_States_Department_of_Agriculture	GovernmentAgency	0.758867625225	Building	0.343337765757	Organisation	0.205482594741	Agent	0.161930909053	PoliticalParty	0.117107277742	Region	0.112608693217	AdministrativeRegion	0.112608693217	Company	0.106204397071	Royalty	0.0978814844388	Work	0.0806736833632		GOLD_STANDARD:	Agent	Organisation	GovernmentAgency
Ford_**_http://dbpedia.org/resource/Ford_Motor_Company	Company	0.199456811787	Organisation	0.152115771712	Agent	0.129606160503	Building	0.129586881723	GovernmentAgency	0.126766838088	OfficeHolder	0.092346148401	Work	0.0910470415385	Software	0.0910470415385	Continent	0.085951630252	Person	0.0778340547222		GOLD_STANDARD:	Agent	Organisation	Company
Jordan_**_http://dbpedia.org/resource/Jordan	Royalty	0.297293344934	PoliticalParty	0.221385390957	Country	0.138697882977	Building	0.128717752431	Continent	0.127462504725	City	0.120672958896	PopulatedPlace	0.115647821454	Place	0.110821032115	Person	0.110627920571	Company	0.0979858497347		GOLD_STANDARD:	Place	PopulatedPlace	Country
Rubber Board_**_http://dbpedia.org/resource/Rubber_Board	GovernmentAgency	0.258671102748	Building	0.232906160483	Organisation	0.166670617532	Agent	0.140556217924	Writer	0.128009836509	OfficeHolder	0.114981624811	Company	0.112368832917	Person	0.0778816588629	ArchitecturalStructure	0.0655144508685	Country	0.0601812309391		GOLD_STANDARD:	
Sri Lanka_**_http://dbpedia.org/resource/Sri_Lanka	Writer	0.4103749398	OfficeHolder	0.263084191059	Person	0.193297132336	Country	0.178337363473	City	0.152707890503	PopulatedPlace	0.150423969667	Royalty	0.149342440185	Place	0.142710277226	Work	0.132526622413	Software	0.132526622413		GOLD_STANDARD:	Place	PopulatedPlace	Country
PARIS_**_http://dbpedia.org/resource/Paris	Settlement	0.352469710084	City	0.291855888094	Continent	0.259434944394	PopulatedPlace	0.238854499252	Place	0.227804406451	Country	0.183985241885	Airport	0.164926116562	Infrastructure	0.164926116562	ArchitecturalStructure	0.146033719721	AdministrativeRegion	0.139251376336		GOLD_STANDARD:	Place	PopulatedPlace	Settlement
America_**_http://dbpedia.org/resource/United_States	Continent	0.448002948964	AdministrativeRegion	0.269713821693	Region	0.269713821693	Country	0.224723161525	PopulatedPlace	0.185686894847	Place	0.178063539293	Building	0.170291213957	ArchitecturalStructure	0.121650708194	Airport	0.116246207554	Infrastructure	0.116246207554		GOLD_STANDARD:	Place	PopulatedPlace	Country
Redmond_**_http://dbpedia.org/resource/Redmond,_Washington	Work	0.389280167214	Software	0.389280167214	Person	0.141980322956	OfficeHolder	0.137554000672	City	0.120479796116	Company	0.109696370639	Agent	0.100041983371	Settlement	0.0948560418953	Building	0.0907270765088	Royalty	0.0884188813718		GOLD_STANDARD:	Place	PopulatedPlace	Settlement	City
Australia_**_http://dbpedia.org/resource/Australia	Continent	0.404479226717	Country	0.267563049683	PopulatedPlace	0.22716885407	Place	0.215646606262	AdministrativeRegion	0.202794612119	Region	0.202794612119	City	0.165853276005	Work	0.150329666049	Software	0.150329666049	Settlement	0.144815149012		GOLD_STANDARD:	Place	PopulatedPlace	Country
Taiwan_**_http://dbpedia.org/resource/Taiwan	Work	0.282026155268	Software	0.282026155268	Continent	0.275193702897	Country	0.253761724306	OfficeHolder	0.207483807403	PopulatedPlace	0.205308171813	Place	0.191800615097	Region	0.17610487777	AdministrativeRegion	0.17610487777	PoliticalParty	0.151436248526		GOLD_STANDARD:	Place	PopulatedPlace	Country
Yemen_**_http://dbpedia.org/resource/Yemen	Royalty	0.391235167213	PoliticalParty	0.297434374791	Country	0.275641988272	PopulatedPlace	0.223113065479	Continent	0.211989609352	Place	0.210376795632	City	0.176621557671	AdministrativeRegion	0.171105847863	Region	0.171105847863	Settlement	0.137792903969		GOLD_STANDARD:	Place	PopulatedPlace	Country
Karak_**_http://dbpedia.org/resource/Al_Karak	Royalty	0.226117464699	PoliticalParty	0.192798788643	Writer	0.167292428625	City	0.143475145673	Settlement	0.110172844418	Country	0.0949794472665	PopulatedPlace	0.0944051160862	OfficeHolder	0.0935975992503	Place	0.087533337142	Person	0.0840113962269		GOLD_STANDARD:	Place	PopulatedPlace	Settlement	City
German_**_http://dbpedia.org/resource/Germany	Continent	0.48632915121	Airport	0.463002722782	Infrastructure	0.463002722782	ArchitecturalStructure	0.425828393555	Country	0.283868944397	Place	0.273610831131	AdministrativeRegion	0.264360730241	Region	0.264360730241	PopulatedPlace	0.253040890262	City	0.179208136356		GOLD_STANDARD:	Place	PopulatedPlace	Country
SEATTLE_**_http://dbpedia.org/resource/Seattle	Settlement	0.314524766476	City	0.256738249916	Work	0.189839211555	Software	0.189839211555	PopulatedPlace	0.162542695124	Place	0.14997817631	AdministrativeRegion	0.14650787233	Region	0.14650787233	Country	0.0871931152146	Airport	0.0614207502335		GOLD_STANDARD:	Place	PopulatedPlace	Settlement	City
Islamist_**_http://dbpedia.org/resource/Islam	PoliticalParty	0.448864571962	Royalty	0.35396693771	Country	0.166675790872	PopulatedPlace	0.146191723896	City	0.145859550132	Place	0.142413292328	Continent	0.137101176712	Work	0.129649412295	Software	0.129649412295	Settlement	0.120907701696		GOLD_STANDARD:	
CJD_**_http://dbpedia.org/resource/Creutzfeldt–Jakob_disease	GovernmentAgency	0.138709328662	Writer	0.117298231961	Organisation	0.0858173833449	Company	0.0818533434707	Agent	0.0708987228431	PoliticalParty	0.056955091012	Work	0.0527069369476	Software	0.0527069369476	Continent	0.0422334626894	City	0.0400634490364		GOLD_STANDARD:	
USDA_**_http://dbpedia.org/resource/United_States_Department_of_Agriculture	GovernmentAgency	0.603103462465	Organisation	0.165295839766	Agent	0.12951856593	Building	0.11053111556	Company	0.102440737392	Work	0.0947846141424	Software	0.0947846141424	Region	0.0865589549953	AdministrativeRegion	0.0865589549953	Country	0.0807448700175		GOLD_STANDARD:	Agent	Organisation	GovernmentAgency
Empire State_**_http://dbpedia.org/resource/Empire_State_Building	GovernmentAgency	0.277747670661	Region	0.208162048521	AdministrativeRegion	0.208162048521	PoliticalParty	0.151982113272	Organisation	0.128885900835	Country	0.117995162089	Work	0.115768513085	Software	0.115768513085	Agent	0.108957548526	PopulatedPlace	0.0981374050069		GOLD_STANDARD:	Place	ArchitecturalStructure	Building
FRANKFURT_**_http://dbpedia.org/resource/Frankfurt_am_Main	Settlement	0.33481243231	City	0.281255854425	Continent	0.280417524754	Airport	0.252889422528	Infrastructure	0.252889422528	ArchitecturalStructure	0.22827734464	Place	0.212055136758	PopulatedPlace	0.209892175708	Country	0.142914570139	AdministrativeRegion	0.126537221524		GOLD_STANDARD:	
Tegel_**_http://dbpedia.org/resource/Berlin_Tegel_Airport	Airport	0.247610372767	Infrastructure	0.247610372767	ArchitecturalStructure	0.219224331908	Continent	0.158855884646	Company	0.119663903942	Organisation	0.106894711366	City	0.104712262649	Place	0.101008016004	GovernmentAgency	0.0995782313998	Work	0.0975145967937		GOLD_STANDARD:	Place	ArchitecturalStructure	Infrastructure	Airport
European Union_**_http://dbpedia.org/resource/European_Union	Continent	0.631237571266	Building	0.363997033694	Country	0.269526263508	AdministrativeRegion	0.242796202844	Region	0.242796202844	PopulatedPlace	0.232879883456	Place	0.23178335887	ArchitecturalStructure	0.223669076929	Airport	0.208077081733	Infrastructure	0.208077081733		GOLD_STANDARD:	Place	PopulatedPlace	Country
Baghdad_**_http://dbpedia.org/resource/Baghdad	Royalty	0.502169377697	PoliticalParty	0.415019873946	Airport	0.229087954538	Infrastructure	0.229087954538	ArchitecturalStructure	0.211181648894	Country	0.203229135106	City	0.197448444674	Place	0.193184807916	PopulatedPlace	0.190752802379	Continent	0.183302886176		GOLD_STANDARD:	Place	PopulatedPlace	Settlement	City
Gartner Group_**_http://dbpedia.org/resource/Gartner	Work	0.204346691129	Software	0.204346691129	Continent	0.177378905213	Company	0.166772621712	Organisation	0.159427806772	Agent	0.139306904433	GovernmentAgency	0.102545560396	Person	0.0930288290532	Airport	0.0908238679186	Infrastructure	0.0908238679186		GOLD_STANDARD:	Agent	Organisation	Company
WARSAW_**_http://dbpedia.org/resource/Warsaw	Settlement	0.294370240057	City	0.24564198911	PopulatedPlace	0.164665676943	Place	0.161484774971	Airport	0.145899622592	Infrastructure	0.145899622592	ArchitecturalStructure	0.137946100377	Country	0.105945046354	Continent	0.0919313983457	Work	0.0693254051933		GOLD_STANDARD:	Place	PopulatedPlace	Settlement
U.N._**_http://dbpedia.org/resource/United_Nations	Royalty	0.2530246118	GovernmentAgency	0.229046206585	PoliticalParty	0.203240362084	Country	0.19407013825	Continent	0.178682202096	PopulatedPlace	0.163322737416	Place	0.154884322937	Organisation	0.153979453674	Building	0.151734162995	Agent	0.136734135694		GOLD_STANDARD:	Place	PopulatedPlace	Country
Dan Glickman_**_http://dbpedia.org/resource/Dan_Glickman	AdministrativeRegion	0.166833771261	Region	0.166833771261	Person	0.149873627673	GovernmentAgency	0.141766134979	Agent	0.0952076283742	Company	0.0835914249363	Organisation	0.0747078786372	Work	0.0677361605985	Software	0.0677361605985	Royalty	0.0585962287932		GOLD_STANDARD:	Agent	Person	OfficeHolder
International Monetary Fund_**_http://dbpedia.org/resource/International_Monetary_Fund	GovernmentAgency	0.250885303791	Continent	0.250162203583	Building	0.221626113599	Organisation	0.194737041665	Country	0.171255919786	Agent	0.154879183804	PopulatedPlace	0.147822080824	Company	0.146169932002	Place	0.144547952793	Region	0.140102857999		GOLD_STANDARD:	Agent	Organisation
Hussein_**_http://dbpedia.org/resource/Hussein_of_Jordan	PoliticalParty	0.48932951701	Writer	0.222430702112	City	0.146207031396	Country	0.141427616624	OfficeHolder	0.12724718153	PopulatedPlace	0.122015178252	Person	0.118509991052	Place	0.11593116596	Settlement	0.102934888577	GovernmentAgency	0.0932038206142		GOLD_STANDARD:	
TOKYO_**_http://dbpedia.org/resource/Tokyo	Settlement	0.343835822661	City	0.271702443665	PopulatedPlace	0.237030099692	Place	0.219904407532	Continent	0.200679189715	OfficeHolder	0.191134329049	Country	0.188517438668	AdministrativeRegion	0.13450817128	Region	0.13450817128	Work	0.112438821997		GOLD_STANDARD:	Place	PopulatedPlace	Settlement	City
U.S._**_http://dbpedia.org/resource/United_States	Continent	0.452462889395	GovernmentAgency	0.406244757922	Country	0.322224621364	PopulatedPlace	0.259507742025	Building	0.254746495173	Place	0.241736439797	Region	0.232726190958	AdministrativeRegion	0.232726190958	Organisation	0.182021804344	Work	0.145934510507		GOLD_STANDARD:	Place	PopulatedPlace	Country
Loyola de Palacio_**_http://dbpedia.org/resource/Loyola_de_Palacio	PoliticalParty	0.171102132241	Writer	0.155775565645	Person	0.131870476573	Building	0.123208243838	Country	0.119393658046	OfficeHolder	0.114434343502	ArchitecturalStructure	0.109495481169	Region	0.108862355322	AdministrativeRegion	0.108862355322	Airport	0.107971840872		GOLD_STANDARD:	Agent	Person
Spanish_**_http://dbpedia.org/resource/Spain	Continent	0.278326441771	Country	0.226517850544	PopulatedPlace	0.174035983584	Place	0.167442435059	Airport	0.118704332024	Infrastructure	0.118704332024	ArchitecturalStructure	0.118650175975	Building	0.118162771542	Region	0.118026309646	AdministrativeRegion	0.118026309646		GOLD_STANDARD:	Place	PopulatedPlace	Country
Microsoft Corp._**_http://dbpedia.org/resource/Microsoft	Work	0.503087503539	Software	0.503087503539	Company	0.212057887878	Organisation	0.196460296696	GovernmentAgency	0.194179834647	Agent	0.173654564458	Continent	0.133876426604	Person	0.12120138031	City	0.114573888652	Settlement	0.111632487808		GOLD_STANDARD:	Agent	Organisation	Company
Nani Palkhivala_**_http://dbpedia.org/resource/Nanabhoy_Palkhivala	Writer	0.820296853323	Royalty	0.217004315129	Person	0.197211513422	OfficeHolder	0.148026541968	PoliticalParty	0.118266487769	Agent	0.102629881879	Country	0.080827208818	Airport	0.0763836889809	Infrastructure	0.0763836889809	ArchitecturalStructure	0.0697404266461		GOLD_STANDARD:	Agent	Person	Writer
CEFTA_**_http://dbpedia.org/resource/Central_European_Free_Trade_Agreement	Continent	0.277512767564	PoliticalParty	0.229950702405	GovernmentAgency	0.177518069584	Airport	0.158894351965	Infrastructure	0.158894351965	ArchitecturalStructure	0.154748766744	Country	0.147959738555	Organisation	0.137777407075	Work	0.135956643248	Software	0.135956643248		GOLD_STANDARD:	Agent	Organisation
Michoacan_**_http://dbpedia.org/resource/Michoacán	Region	0.21100189001	AdministrativeRegion	0.21100189001	Country	0.16818703164	PoliticalParty	0.166273200807	Continent	0.150672126397	PopulatedPlace	0.146320812461	Place	0.143459574163	Work	0.134272560644	Software	0.134272560644	Airport	0.124011683626		GOLD_STANDARD:	
Europe_**_http://dbpedia.org/resource/Europe	Continent	0.752781535823	Country	0.306699688498	AdministrativeRegion	0.28277713897	Region	0.28277713897	Airport	0.280362350112	Infrastructure	0.280362350112	ArchitecturalStructure	0.257491002889	Place	0.256790396801	PopulatedPlace	0.256695720303	Organisation	0.151398778711		GOLD_STANDARD:	Place	PopulatedPlace	Continent
SINGAPORE_**_http://dbpedia.org/resource/Singapore	Settlement	0.337548540995	City	0.27999870929	PopulatedPlace	0.200589065159	Place	0.181775379169	Continent	0.157619369926	Work	0.140643892182	Software	0.140643892182	Country	0.133180329869	Royalty	0.0984054633475	Region	0.0765680142702		GOLD_STANDARD:	Place	PopulatedPlace	Country
European_**_http://dbpedia.org/resource/Europe	Continent	0.752781535823	Country	0.316514273098	PopulatedPlace	0.264783306999	Place	0.261295123613	Airport	0.25072835239	Infrastructure	0.25072835239	AdministrativeRegion	0.242389142091	Region	0.242389142091	ArchitecturalStructure	0.235482566558	Organisation	0.187470926018		GOLD_STANDARD:	Place	PopulatedPlace	Continent
Egypt_**_http://dbpedia.org/resource/Egypt	Royalty	0.375597371769	Country	0.299193885792	PoliticalParty	0.286469583418	Continent	0.282781835812	PopulatedPlace	0.241272484946	Place	0.227982223838	City	0.174328127269	Settlement	0.147909032528	Region	0.142114475453	AdministrativeRegion	0.142114475453		GOLD_STANDARD:	Place	PopulatedPlace	Country
Honda_**_http://dbpedia.org/resource/Honda	Company	0.215779356966	OfficeHolder	0.169101221372	Organisation	0.154587486305	Agent	0.133297102336	Building	0.0948614061823	GovernmentAgency	0.0892606457921	Country	0.0846886129711	Person	0.0843292192076	Writer	0.0835566764538	PoliticalParty	0.0673861880438		GOLD_STANDARD:	Agent	Organisation	Company
BNZ_**_http://dbpedia.org/resource/Bank_of_New_Zealand	Work	0.248114914608	Software	0.248114914608	GovernmentAgency	0.173577895066	Company	0.15489194029	Organisation	0.150896260361	Continent	0.129839345665	Agent	0.122034913576	City	0.0956138532538	Settlement	0.0775491374671	PopulatedPlace	0.0764961998164		GOLD_STANDARD:	Agent	Organisation	Company
Germans_**_http://dbpedia.org/resource/Germany	Continent	0.389606872061	Airport	0.381304807737	Infrastructure	0.381304807737	ArchitecturalStructure	0.346477378469	Country	0.232945236672	Place	0.21097401821	PopulatedPlace	0.19266275331	Region	0.17655030342	AdministrativeRegion	0.17655030342	PoliticalParty	0.157197093821		GOLD_STANDARD:	Place	PopulatedPlace	Country
Bonn_**_http://dbpedia.org/resource/Bonn	Airport	0.409037881784	Infrastructure	0.409037881784	ArchitecturalStructure	0.372678826609	Continent	0.232653813915	Region	0.219903148693	AdministrativeRegion	0.219903148693	Place	0.18338208015	City	0.182833852457	PopulatedPlace	0.157801438737	OfficeHolder	0.155826290513		GOLD_STANDARD:	Place	PopulatedPlace	Settlement	City
Opel AG_**_http://dbpedia.org/resource/Opel	Airport	0.352149111024	Infrastructure	0.352149111024	ArchitecturalStructure	0.32784628677	Continent	0.243684753115	Company	0.2314144342	Organisation	0.204688101135	Agent	0.179363073462	Region	0.170041337685	AdministrativeRegion	0.170041337685	Place	0.152724904992		GOLD_STANDARD:	Agent	Organisation	Company
TAIPEI_**_http://dbpedia.org/resource/Taipei	Settlement	0.300138496421	City	0.258054934942	PopulatedPlace	0.188484785312	Work	0.177622614778	Software	0.177622614778	Place	0.172686099136	Country	0.140434646104	Continent	0.101739553211	OfficeHolder	0.0963515958275	PoliticalParty	0.0907007602278		GOLD_STANDARD:	Place	PopulatedPlace	Settlement
Nepal_**_http://dbpedia.org/resource/Nepal	Country	0.265329886873	Writer	0.242572659739	PopulatedPlace	0.22177737271	Place	0.202490615032	City	0.189399853734	OfficeHolder	0.187656102947	Continent	0.177066549194	Work	0.173175549627	Software	0.173175549627	PoliticalParty	0.171770429397		GOLD_STANDARD:	Place	PopulatedPlace	Country
Germany_**_http://dbpedia.org/resource/Germany	Continent	0.580601117758	Airport	0.494346055721	Infrastructure	0.494346055721	ArchitecturalStructure	0.449798592039	AdministrativeRegion	0.3456157527	Region	0.3456157527	Country	0.317200982723	Place	0.298179921375	PopulatedPlace	0.277690911826	Settlement	0.175769389667		GOLD_STANDARD:	Place	PopulatedPlace	Country
Berlin_**_http://dbpedia.org/resource/Berlin	Airport	0.524872731049	Infrastructure	0.524872731049	ArchitecturalStructure	0.490251171691	Continent	0.342658635214	Place	0.234271038724	City	0.215106443398	Country	0.201499953004	PopulatedPlace	0.199679128864	Settlement	0.193135712117	Building	0.178657137465		GOLD_STANDARD:	
European Commission_**_http://dbpedia.org/resource/European_Commission	Continent	0.640694957991	GovernmentAgency	0.310818468799	Country	0.24532478308	Organisation	0.234459267107	PopulatedPlace	0.214343717517	Place	0.210866431511	Region	0.193926829394	AdministrativeRegion	0.193926829394	Building	0.191201011055	ArchitecturalStructure	0.18478678646		GOLD_STANDARD:	Agent	Organisation
Windows NT_**_http://dbpedia.org/resource/Windows_NT	Work	0.756755888148	Software	0.756755888148	Company	0.164560122829	PoliticalParty	0.149454183074	Organisation	0.146995974768	GovernmentAgency	0.145250183772	Building	0.131512690437	Agent	0.130862521578	City	0.124036054495	OfficeHolder	0.115843069729		GOLD_STANDARD:	Work	Software
Czech_**_http://dbpedia.org/resource/Czech_Republic	Continent	0.406829856838	Airport	0.287047013342	Infrastructure	0.287047013342	Country	0.266405386269	ArchitecturalStructure	0.263872707029	Place	0.233419299754	PopulatedPlace	0.229303974447	Settlement	0.162447885385	City	0.134365236625	PoliticalParty	0.130252224455		GOLD_STANDARD:	Place	PopulatedPlace	Country
Commission_**_http://dbpedia.org/resource/European_Commission	GovernmentAgency	0.356858333861	Building	0.193037051113	Organisation	0.184356345945	Agent	0.140440273595	Company	0.103968795092	Continent	0.0997509686264	Work	0.0831521124284	Software	0.0831521124284	Writer	0.0745229268729	Country	0.0572544842558		GOLD_STANDARD:	Agent	Organisation
Amman_**_http://dbpedia.org/resource/Amman	Royalty	0.451553878875	PoliticalParty	0.343442864743	Airport	0.256341459379	Infrastructure	0.256341459379	City	0.244665609548	ArchitecturalStructure	0.238388813308	Country	0.201515785479	Place	0.198569766792	Continent	0.196129708344	PopulatedPlace	0.19318881456		GOLD_STANDARD:	Place	PopulatedPlace	Settlement	City
Polish_**_http://dbpedia.org/resource/Poland	Continent	0.364020344409	Airport	0.26430262914	Infrastructure	0.26430262914	Country	0.254236857597	ArchitecturalStructure	0.242297285539	Place	0.223185150733	PopulatedPlace	0.220602429813	Work	0.165719929602	Software	0.165719929602	Settlement	0.158087202419		GOLD_STANDARD:	Place	PopulatedPlace	Country
Tychy_**_http://dbpedia.org/resource/Tychy	Airport	0.284408162545	Infrastructure	0.284408162545	Continent	0.269040927822	ArchitecturalStructure	0.252274872107	Company	0.158569500774	Writer	0.152308473108	Country	0.140551413088	Place	0.137994058813	Organisation	0.126898983838	PopulatedPlace	0.122550705665		GOLD_STANDARD:	Place	PopulatedPlace	Settlement
Associated Cement Companies_**_http://dbpedia.org/resource/ACC_Limited	Building	0.221924963547	Company	0.175324281319	Organisation	0.170209139385	GovernmentAgency	0.131097828116	Agent	0.129763913093	Royalty	0.109747608379	Work	0.0967654360315	Software	0.0967654360315	Country	0.0914259200763	PopulatedPlace	0.0823835326591		GOLD_STANDARD:	
GMT_**_http://dbpedia.org/resource/Greenwich_Mean_Time	Airport	0.145374210827	Infrastructure	0.145374210827	Continent	0.14418310685	ArchitecturalStructure	0.13541506557	PoliticalParty	0.112959638757	Settlement	0.101788534981	Place	0.098735521832	City	0.0958694121193	PopulatedPlace	0.0938449160003	Country	0.0898885131075		GOLD_STANDARD:	
Enderle_**_http://dbpedia.org/resource/Rob_Enderle	Work	0.306521338361	Software	0.306521338361	Person	0.17048338881	PoliticalParty	0.142442734738	Company	0.141955838872	Agent	0.1223673578	Airport	0.116546582723	Infrastructure	0.116546582723	ArchitecturalStructure	0.113170112271	OfficeHolder	0.106568621579		GOLD_STANDARD:	Agent	Person
Massachusetts_**_http://dbpedia.org/resource/Massachusetts	AdministrativeRegion	0.287246328138	Region	0.287246328138	Continent	0.209420154716	Building	0.195911028621	GovernmentAgency	0.150869739414	Country	0.134297758945	PopulatedPlace	0.13402053419	Place	0.126693490231	Settlement	0.115231496475	OfficeHolder	0.0906955672084		GOLD_STANDARD:	
California_**_http://dbpedia.org/resource/California	AdministrativeRegion	0.250465530019	Region	0.250465530019	Building	0.249917979476	Continent	0.235670631661	GovernmentAgency	0.188273775341	Country	0.160031256919	PopulatedPlace	0.141343735451	Place	0.136663026586	OfficeHolder	0.103269753325	ArchitecturalStructure	0.102025780983		GOLD_STANDARD:	
Bremen_**_http://dbpedia.org/resource/Bremen_Airport	Airport	0.44842373939	Infrastructure	0.44842373939	ArchitecturalStructure	0.404826649571	Continent	0.204294028037	AdministrativeRegion	0.203319754696	Region	0.203319754696	City	0.177198780058	Place	0.174671307817	Settlement	0.153362490589	PopulatedPlace	0.147052666807		GOLD_STANDARD:	Place	ArchitecturalStructure	Infrastructure	Airport
SAB_**_http://dbpedia.org/resource/South_African_Breweries	Writer	0.117190214464	Company	0.100224357889	GovernmentAgency	0.093432173338	Organisation	0.0931373150313	Agent	0.0837030173267	Work	0.0674637262885	Software	0.0674637262885	Person	0.0620041326062	Airport	0.0608153409891	Infrastructure	0.0608153409891		GOLD_STANDARD:	Agent	Organisation	Company
Jordanian_**_http://dbpedia.org/resource/Jordan	Royalty	0.477649630033	PoliticalParty	0.385546279485	Country	0.272240120599	Continent	0.250012594092	PopulatedPlace	0.236187676368	City	0.229339439437	Place	0.225050278445	Settlement	0.186481528807	Airport	0.150206325426	Infrastructure	0.150206325426		GOLD_STANDARD:	Place	PopulatedPlace	Country
Iraqi_**_http://dbpedia.org/resource/Iraq	Royalty	0.52933760079	PoliticalParty	0.514037657566	Country	0.239701179031	PopulatedPlace	0.205957218559	Place	0.197346527942	Work	0.184598151402	Software	0.184598151402	City	0.184483596289	GovernmentAgency	0.169573459312	Settlement	0.160346724265		GOLD_STANDARD:	Place	PopulatedPlace	Country
El Salvador_**_http://dbpedia.org/resource/El_Salvador	Royalty	0.19931158328	Writer	0.1740541523	PoliticalParty	0.16533171469	Person	0.154809304767	Country	0.103017011939	OfficeHolder	0.0958679728631	Airport	0.0886776009311	Infrastructure	0.0886776009311	Region	0.0838990759734	AdministrativeRegion	0.0838990759734		GOLD_STANDARD:	Place	PopulatedPlace	Country
Indonesia_**_http://dbpedia.org/resource/Indonesia	Continent	0.301831319852	Country	0.2893739343	PopulatedPlace	0.235498687594	Place	0.219148840242	Royalty	0.196443657767	Work	0.181472738729	Software	0.181472738729	OfficeHolder	0.1718574075	City	0.170183544678	Settlement	0.148327138851		GOLD_STANDARD:	Place	PopulatedPlace	Country
Colombia_**_http://dbpedia.org/resource/Colombia	Country	0.285234729746	Continent	0.274997325877	PopulatedPlace	0.215877711001	Place	0.202317222761	Region	0.162730335869	AdministrativeRegion	0.162730335869	GovernmentAgency	0.145421091328	Work	0.105549065942	Software	0.105549065942	Airport	0.102397878529		GOLD_STANDARD:	Place	PopulatedPlace	Country
Bombay_**_http://dbpedia.org/resource/Mumbai	Writer	0.312730017621	Airport	0.188286263082	Infrastructure	0.188286263082	ArchitecturalStructure	0.178166555601	Region	0.170472193387	AdministrativeRegion	0.170472193387	City	0.165503609455	Country	0.147830242618	Place	0.144834564782	PopulatedPlace	0.140330241698		GOLD_STANDARD:	Place	PopulatedPlace	Settlement	City
Waitrose_**_http://dbpedia.org/resource/Waitrose	Company	0.169484059087	Continent	0.165321652922	GovernmentAgency	0.147182578818	Organisation	0.136907660969	Agent	0.101872866445	Work	0.0938848671951	Software	0.0938848671951	Settlement	0.0829887355149	PopulatedPlace	0.0823653701247	Country	0.0806736473663		GOLD_STANDARD:	Agent	Organisation	Company
World Trade Organisation_**_http://dbpedia.org/resource/World_Trade_Organization	GovernmentAgency	0.29239225664	Continent	0.286396083538	Building	0.239023986966	Country	0.199633187315	Organisation	0.181352992269	PopulatedPlace	0.169841360746	Place	0.167077850925	Agent	0.151459919062	ArchitecturalStructure	0.146351527267	Writer	0.138823325129		GOLD_STANDARD:	Agent	Organisation
Kenya_**_http://dbpedia.org/resource/Kenya	Country	0.271947178861	Royalty	0.247879680076	Continent	0.246690586767	PopulatedPlace	0.214462001505	Place	0.199286723427	Region	0.145029153161	AdministrativeRegion	0.145029153161	Writer	0.143666745384	GovernmentAgency	0.139697219345	City	0.132141497848		GOLD_STANDARD:	Place	PopulatedPlace	Country
BSE_**_http://dbpedia.org/resource/Bovine_spongiform_encephalopathy	GovernmentAgency	0.229354602541	Writer	0.1662806926	Continent	0.143245270652	PoliticalParty	0.132238738123	Organisation	0.128876972824	Work	0.126131791046	Software	0.126131791046	Agent	0.108047171499	Company	0.107873125174	Country	0.10520335623		GOLD_STANDARD:	
UNITED NATIONS_**_http://dbpedia.org/resource/United_Nations	Settlement	0.19034936179	Continent	0.169662682892	PopulatedPlace	0.15433478185	City	0.147419612905	Country	0.143916619023	Place	0.136611352996	GovernmentAgency	0.0970375543651	Writer	0.0876011686052	Organisation	0.0821365576264	Company	0.0694680971726		GOLD_STANDARD:	Place	PopulatedPlace	Country
Reuters_**_http://dbpedia.org/resource/Reuters	Continent	0.23243442751	Settlement	0.181357291563	PopulatedPlace	0.158658214195	Country	0.148291195826	GovernmentAgency	0.148132295039	Place	0.146009385647	City	0.14452376445	Organisation	0.108262147909	Company	0.088851542618	Agent	0.0835025604679		GOLD_STANDARD:	Agent	Organisation	Company
Okocim_**_http://dbpedia.org/resource/Okocim	Continent	0.242916201386	Airport	0.155996301608	Infrastructure	0.155996301608	ArchitecturalStructure	0.142510917456	Company	0.120583388393	Country	0.10687105443	Organisation	0.0997265368203	Place	0.0934534913852	Work	0.0880140194087	Software	0.0880140194087		GOLD_STANDARD:	Place	PopulatedPlace	Settlement
Munich_**_http://dbpedia.org/resource/Munich_Airport	Airport	0.496352150438	Infrastructure	0.496352150438	ArchitecturalStructure	0.447056437772	Continent	0.3645303812	Region	0.326583824147	AdministrativeRegion	0.326583824147	Place	0.226371561734	City	0.204745561333	PopulatedPlace	0.199889376609	Country	0.197072776908		GOLD_STANDARD:	Place	ArchitecturalStructure	Infrastructure	Airport
Japan_**_http://dbpedia.org/resource/Japan	Continent	0.457788231933	OfficeHolder	0.309347605681	Country	0.303655196276	PopulatedPlace	0.256082679209	Place	0.246278210724	AdministrativeRegion	0.23811120765	Region	0.23811120765	Airport	0.185960132898	Infrastructure	0.185960132898	ArchitecturalStructure	0.173725143934		GOLD_STANDARD:	Place	PopulatedPlace	Country
Leipzig_**_http://dbpedia.org/resource/Leipzig/Halle_Airport	Airport	0.505043766164	Infrastructure	0.505043766164	ArchitecturalStructure	0.453512508755	Continent	0.310389864322	AdministrativeRegion	0.284688098895	Region	0.284688098895	Place	0.201130371596	City	0.181282498501	PopulatedPlace	0.170844515136	Settlement	0.162274876134		GOLD_STANDARD:	Place	ArchitecturalStructure	Infrastructure	Airport
India_**_http://dbpedia.org/resource/India	Continent	0.364466030671	Country	0.320853709798	Writer	0.271234371041	PopulatedPlace	0.265253284162	Place	0.247542426946	City	0.182997444912	AdministrativeRegion	0.176700985646	Region	0.176700985646	Settlement	0.170085791145	Company	0.132174960028		GOLD_STANDARD:	Place	PopulatedPlace	Country
Security Council_**_http://dbpedia.org/resource/United_Nations_Security_Council	GovernmentAgency	0.290010058475	Building	0.183047878597	Organisation	0.182090427224	Agent	0.145742999908	Work	0.125634838493	Software	0.125634838493	Company	0.112161494252	Royalty	0.109851817235	Country	0.0749818146527	PoliticalParty	0.0740839510766		GOLD_STANDARD:	
Baath_**_http://dbpedia.org/resource/Ba'ath_Party	Royalty	0.48932951701	Building	0.151982113272	Work	0.1420079454	Software	0.1420079454	Country	0.132253097976	Person	0.118012051733	City	0.112029907184	ArchitecturalStructure	0.111411642492	Place	0.111313223121	PopulatedPlace	0.111300100538		GOLD_STANDARD:	Agent	Organisation	PoliticalParty
Dresden_**_http://dbpedia.org/resource/Dresden_Airport	Airport	0.440579887811	Infrastructure	0.440579887811	ArchitecturalStructure	0.401804404934	Continent	0.254229834533	Region	0.25072132003	AdministrativeRegion	0.25072132003	Place	0.165888822734	City	0.160189988945	PoliticalParty	0.150729907594	Settlement	0.13907313372		GOLD_STANDARD:	Place	ArchitecturalStructure	Infrastructure	Airport
Carlsberg_**_http://dbpedia.org/resource/Carlsberg_Group	Continent	0.233799584645	Company	0.216046492627	Work	0.184828030114	Software	0.184828030114	Organisation	0.165848731608	Agent	0.131495462784	Country	0.126418174737	Airport	0.114813431351	Infrastructure	0.114813431351	PopulatedPlace	0.109820259467		GOLD_STANDARD:	Agent	Organisation	Company
Yasushi Akashi_**_http://dbpedia.org/resource/Yasushi_Akashi	OfficeHolder	0.430729178118	Writer	0.213598079393	Person	0.191581954001	Royalty	0.176750346207	Airport	0.115977064036	Infrastructure	0.115977064036	City	0.114013694167	Country	0.111746807556	ArchitecturalStructure	0.106568530341	PoliticalParty	0.103045139963		GOLD_STANDARD:	Agent	Person	OfficeHolder
Wellington_**_http://dbpedia.org/resource/Wellington	Work	0.16061114346	Software	0.16061114346	City	0.147646317477	Settlement	0.120381186854	PopulatedPlace	0.108027451228	Place	0.10742700003	Country	0.105823022089	Airport	0.103520165683	Infrastructure	0.103520165683	ArchitecturalStructure	0.102983661163		GOLD_STANDARD:	Place	PopulatedPlace	Settlement	City
Morocco_**_http://dbpedia.org/resource/Morocco	Continent	0.342304404437	Country	0.301485739498	Royalty	0.28431886982	PopulatedPlace	0.240354092432	Place	0.227915764218	PoliticalParty	0.173415964509	City	0.155665563201	Region	0.154904871956	AdministrativeRegion	0.154904871956	Airport	0.143707855844		GOLD_STANDARD:	Place	PopulatedPlace	Country
Palkhivala_**_http://dbpedia.org/resource/Nanabhoy_Palkhivala	Writer	0.820296853323	Royalty	0.227857089094	Person	0.193598390098	OfficeHolder	0.152401896337	Agent	0.0871076665893	PoliticalParty	0.0719359968722	City	0.0692496212657	Country	0.0596087982021	Company	0.0530562087798	Airport	0.0527260137483		GOLD_STANDARD:	Agent	Person	Writer
France_**_http://dbpedia.org/resource/France	Continent	0.51500223949	Country	0.288725584201	Region	0.25959057492	AdministrativeRegion	0.25959057492	Airport	0.257587038217	Infrastructure	0.257587038217	PopulatedPlace	0.244568525529	Place	0.242759778496	ArchitecturalStructure	0.22937505045	Settlement	0.143414759222		GOLD_STANDARD:	Place	PopulatedPlace	Country
Tempelhof_**_http://dbpedia.org/resource/Berlin_Tempelhof_Airport	Airport	0.37587211207	Infrastructure	0.37587211207	ArchitecturalStructure	0.336925503871	Continent	0.207107807079	PoliticalParty	0.176670738268	Region	0.170357236158	AdministrativeRegion	0.170357236158	Place	0.155869560288	PopulatedPlace	0.134142847058	Settlement	0.130797135919		GOLD_STANDARD:	Place	ArchitecturalStructure	Infrastructure	Airport
BOMBAY_**_http://dbpedia.org/resource/Mumbai	Settlement	0.285787834767	City	0.242559828557	PopulatedPlace	0.184514623552	Place	0.167339231166	Writer	0.159080785173	Country	0.14347153005	Work	0.0800262387622	Software	0.0800262387622	Continent	0.0776320639201	Company	0.0718836700595		GOLD_STANDARD:	Place	PopulatedPlace	Settlement	City
LONDON_**_http://dbpedia.org/resource/London	Settlement	0.363955163286	City	0.311019396461	Continent	0.275589769047	PopulatedPlace	0.241068000526	Place	0.224175764849	Country	0.181663032464	Region	0.126030707021	AdministrativeRegion	0.126030707021	Airport	0.103376639746	Infrastructure	0.103376639746		GOLD_STANDARD:	Place	PopulatedPlace	Settlement
Volkswagen AG_**_http://dbpedia.org/resource/Volkswagen	Airport	0.316849050495	Infrastructure	0.316849050495	ArchitecturalStructure	0.297668574277	Company	0.285102334382	Organisation	0.233642000193	Continent	0.21464702129	Agent	0.192328075415	Region	0.176403535711	AdministrativeRegion	0.176403535711	GovernmentAgency	0.141122919315		GOLD_STANDARD:	Agent	Organisation	Company
Iraq_**_http://dbpedia.org/resource/Iraq	Royalty	0.437599968518	PoliticalParty	0.375643215086	Country	0.244919162846	Continent	0.208890669086	PopulatedPlace	0.19605793904	Place	0.188366691082	Building	0.169196479579	GovernmentAgency	0.167835806107	Region	0.150416487752	AdministrativeRegion	0.150416487752		GOLD_STANDARD:	Place	PopulatedPlace	Country
WELLINGTON_**_http://dbpedia.org/resource/Wellington	Settlement	0.314944414541	City	0.256824126418	PopulatedPlace	0.177799303072	Place	0.161190747931	Country	0.119373177751	Work	0.0909698458137	Software	0.0909698458137	Company	0.0658876183664	GovernmentAgency	0.0582248100805	Organisation	0.0549497786795		GOLD_STANDARD:	Place	PopulatedPlace	Settlement	City
Hamburg_**_http://dbpedia.org/resource/Hamburg	Airport	0.527771701125	Infrastructure	0.527771701125	ArchitecturalStructure	0.4870196186	Continent	0.300229655175	Region	0.29255428712	AdministrativeRegion	0.29255428712	Place	0.203350605551	PopulatedPlace	0.165016955139	City	0.1586710575	Country	0.158016405122		GOLD_STANDARD:	Place	PopulatedPlace	Settlement	City
Rob Enderle_**_http://dbpedia.org/resource/Rob_Enderle	Work	0.210483900635	Software	0.210483900635	Person	0.189686178576	OfficeHolder	0.175529493464	Company	0.172819876138	Agent	0.134080650876	Organisation	0.113228577988	AdministrativeRegion	0.113071980553	Region	0.113071980553	Airport	0.102481955965		GOLD_STANDARD:	Agent	Person
Porsche_**_http://dbpedia.org/resource/Porsche	Company	0.259552392652	Airport	0.229319856149	Infrastructure	0.229319856149	ArchitecturalStructure	0.207421201293	Organisation	0.185208155623	Continent	0.181289181672	Agent	0.15095446126	Work	0.136842135951	Software	0.136842135951	AdministrativeRegion	0.125805135586		GOLD_STANDARD:	Agent	Organisation	Company
U.S_**_http://dbpedia.org/resource/United_States	Continent	0.300921172392	Country	0.24359807821	PopulatedPlace	0.210870949713	GovernmentAgency	0.201614115674	Place	0.194477021122	Building	0.185572792834	Settlement	0.155584732232	City	0.133937193495	Organisation	0.133889891763	AdministrativeRegion	0.131558062317		GOLD_STANDARD:	Place	PopulatedPlace	Country
John Lewis_**_http://dbpedia.org/resource/John_Lewis_Partnership	Person	0.179198365292	OfficeHolder	0.13912396018	Building	0.136291147116	Writer	0.135551635954	Royalty	0.120225284425	AdministrativeRegion	0.112819091532	Region	0.112819091532	Agent	0.103622569352	Company	0.0921544148986	City	0.0768945549677		GOLD_STANDARD:	Agent	Organisation	Company
S. Korea_**_http://dbpedia.org/resource/South_Korea	Country	0.213759193996	Continent	0.21115012766	Writer	0.183248067322	GovernmentAgency	0.182272942078	PopulatedPlace	0.179888229483	Place	0.173997372113	Region	0.163423451414	AdministrativeRegion	0.163423451414	OfficeHolder	0.154925333309	Building	0.149131333566		GOLD_STANDARD:	Place	PopulatedPlace	Country
Nuremberg_**_http://dbpedia.org/resource/Nuremberg_Airport	Airport	0.464694814671	Infrastructure	0.464694814671	ArchitecturalStructure	0.417096471687	Continent	0.264613461495	Region	0.239235542168	AdministrativeRegion	0.239235542168	Place	0.194087247898	Royalty	0.180422765408	City	0.172644811653	PopulatedPlace	0.167326141043		GOLD_STANDARD:	Place	ArchitecturalStructure	Infrastructure	Airport
United States_**_http://dbpedia.org/resource/United_States	Building	0.340220564232	Continent	0.313171132648	Country	0.173316406249	Writer	0.171910034583	Region	0.15302479475	AdministrativeRegion	0.15302479475	GovernmentAgency	0.152373465414	PopulatedPlace	0.141485877138	Organisation	0.139335368261	Place	0.136076822525		GOLD_STANDARD:	Place	PopulatedPlace	Country
WASHINGTON_**_http://dbpedia.org/resource/Washington,_D.C.	Settlement	0.325813245842	City	0.273410475367	GovernmentAgency	0.215090857126	PopulatedPlace	0.197064383531	Place	0.175460430294	Country	0.138358725865	AdministrativeRegion	0.11581127373	Region	0.11581127373	Royalty	0.0975444408476	Continent	0.0948349979972		GOLD_STANDARD:	Place	PopulatedPlace	Settlement
BRUSSELS_**_http://dbpedia.org/resource/Brussels	Continent	0.363661724582	Settlement	0.343507346769	City	0.275162776423	PopulatedPlace	0.234640605773	Place	0.221353414404	Country	0.179462427683	Airport	0.136428248313	Infrastructure	0.136428248313	Work	0.127120511161	Software	0.127120511161		GOLD_STANDARD:	Place	PopulatedPlace	Settlement
General Motors_**_http://dbpedia.org/resource/General_Motors	Building	0.225148179485	Company	0.162986770835	Organisation	0.156412050221	Agent	0.13305984672	GovernmentAgency	0.125831259003	PoliticalParty	0.122572810233	Royalty	0.117453602027	Writer	0.111561375821	Person	0.0793497786682	OfficeHolder	0.0746448049541		GOLD_STANDARD:	Agent	Organisation	Company
Windows_**_http://dbpedia.org/resource/Microsoft_Windows	Work	0.756755888148	Software	0.756755888148	Company	0.172657323304	Organisation	0.143155138449	PoliticalParty	0.134561707725	Agent	0.126398400417	Continent	0.123150152102	Royalty	0.103579475168	Airport	0.100226927544	Infrastructure	0.100226927544		GOLD_STANDARD:	Work	Software
Stuttgart_**_http://dbpedia.org/resource/Stuttgart_Airport	Airport	0.507194171838	Infrastructure	0.507194171838	ArchitecturalStructure	0.454641841736	Continent	0.274450904929	Region	0.204158027831	AdministrativeRegion	0.204158027831	Place	0.201900607334	City	0.182177648889	Country	0.172344691723	PopulatedPlace	0.171571659206		GOLD_STANDARD:	Place	ArchitecturalStructure	Infrastructure	Airport
New York_**_http://dbpedia.org/resource/New_York_City	Building	0.251306068069	Region	0.250138383597	AdministrativeRegion	0.250138383597	ArchitecturalStructure	0.13465608802	Place	0.12423236341	Settlement	0.123236800119	PopulatedPlace	0.122823751976	Airport	0.121694979126	Infrastructure	0.121694979126	Continent	0.117054304465		GOLD_STANDARD:	Place	PopulatedPlace	Settlement	City
British_**_http://dbpedia.org/resource/United_Kingdom	Continent	0.419967982521	Country	0.298728360259	PopulatedPlace	0.249176444582	Building	0.238433582144	Place	0.236276515699	AdministrativeRegion	0.185813523959	Region	0.185813523959	PoliticalParty	0.159673188218	Royalty	0.15838987026	Settlement	0.155905300432		GOLD_STANDARD:	Place	PopulatedPlace	Country
Heineken_**_http://dbpedia.org/resource/Heineken_Pilsener	Continent	0.242329853142	Company	0.238401685548	Organisation	0.185316075389	Airport	0.151372683234	Infrastructure	0.151372683234	ArchitecturalStructure	0.142463516708	Agent	0.138491507914	Country	0.126208177254	Work	0.123341949641	Software	0.123341949641		GOLD_STANDARD:	
Frankfurt_**_http://dbpedia.org/resource/Frankfurt_Airport	Airport	0.466861741341	Infrastructure	0.466861741341	ArchitecturalStructure	0.418031998293	Continent	0.351435995017	Region	0.278914862422	AdministrativeRegion	0.278914862422	Place	0.199471674244	City	0.198632259473	PopulatedPlace	0.173244435358	Country	0.163660869099		GOLD_STANDARD:	Place	ArchitecturalStructure	Infrastructure	Airport
AMMAN_**_http://dbpedia.org/resource/Amman	Royalty	0.353862595698	Settlement	0.317126925331	City	0.276078644663	PoliticalParty	0.261264429459	PopulatedPlace	0.212832683302	Place	0.192909133726	Country	0.17253132462	Continent	0.113514484295	Organisation	0.08089867114	Work	0.0797818157452		GOLD_STANDARD:	Place	PopulatedPlace	Settlement	City
Mexico_**_http://dbpedia.org/resource/Mexico	AdministrativeRegion	0.25136046671	Region	0.25136046671	Country	0.240795331213	Continent	0.233296558725	PopulatedPlace	0.196088268005	Place	0.186650232964	GovernmentAgency	0.16001503061	Building	0.152646623869	ArchitecturalStructure	0.116808773665	City	0.114405459403		GOLD_STANDARD:	Place	PopulatedPlace	Country
French_**_http://dbpedia.org/resource/France	Continent	0.360077180042	Country	0.252858759737	PopulatedPlace	0.211729305731	Place	0.207996203311	Airport	0.191978374645	Infrastructure	0.191978374645	ArchitecturalStructure	0.18037124541	Region	0.159323558018	AdministrativeRegion	0.159323558018	PoliticalParty	0.136459029858		GOLD_STANDARD:	Place	PopulatedPlace	Country
Ethiopia_**_http://dbpedia.org/resource/Ethiopia	Royalty	0.33259702838	Country	0.294432976638	PopulatedPlace	0.231581807102	Continent	0.22771832748	Place	0.220164635106	Region	0.168712677058	AdministrativeRegion	0.168712677058	GovernmentAgency	0.158648971857	Building	0.152333077815	City	0.149915364544		GOLD_STANDARD:	Place	PopulatedPlace	Country
Franz Fischler_**_http://dbpedia.org/resource/Franz_Fischler	Airport	0.271979533989	Infrastructure	0.271979533989	ArchitecturalStructure	0.25117821688	Continent	0.222681318055	OfficeHolder	0.174537727507	AdministrativeRegion	0.151037233491	Region	0.151037233491	Person	0.148399162907	Agent	0.130629071176	Organisation	0.123965286777		GOLD_STANDARD:	Agent	Person
God_**_http://dbpedia.org/resource/God	Writer	0.182262913103	Royalty	0.178330958329	PoliticalParty	0.112099098678	Building	0.107968725702	GovernmentAgency	0.0913000349342	Country	0.0847184197428	Person	0.0710581808937	Work	0.066657282718	Software	0.066657282718	Agent	0.0650838748142		GOLD_STANDARD:	
Mexican_**_http://dbpedia.org/resource/Mexico	Country	0.251816106756	Continent	0.21805129147	PopulatedPlace	0.193879197034	GovernmentAgency	0.185729636826	Place	0.177730779095	Region	0.169995085588	AdministrativeRegion	0.169995085588	Building	0.108963652717	PoliticalParty	0.108532346838	Settlement	0.092842561741		GOLD_STANDARD:	Place	PopulatedPlace	Country
Boston_**_http://dbpedia.org/resource/Boston	AdministrativeRegion	0.363008352627	Region	0.363008352627	City	0.134303564421	Settlement	0.118840525334	PopulatedPlace	0.113984289195	Place	0.113271814895	Airport	0.10807189019	Infrastructure	0.10807189019	ArchitecturalStructure	0.107999505073	Building	0.107348039019		GOLD_STANDARD:	Place	PopulatedPlace	Settlement
Czech Republic_**_http://dbpedia.org/resource/Czech_Republic	Continent	0.344165820141	Country	0.271022118969	Airport	0.247328286215	Infrastructure	0.247328286215	ArchitecturalStructure	0.245391141203	Building	0.227956836098	Place	0.223799603835	PopulatedPlace	0.220881828515	PoliticalParty	0.170343857031	Work	0.138849109782		GOLD_STANDARD:	Place	PopulatedPlace	Country
U.S. Agriculture Department_**_http://dbpedia.org/resource/United_States_Department_of_Agriculture	GovernmentAgency	0.740308224265	Building	0.379374130667	Organisation	0.234033270821	Country	0.205861053845	Continent	0.203230474231	AdministrativeRegion	0.193662733264	Region	0.193662733264	Agent	0.181284943727	PopulatedPlace	0.167811579302	Place	0.157484115645		GOLD_STANDARD:	Agent	Organisation	GovernmentAgency
Indian_**_http://dbpedia.org/resource/India	Country	0.245333183097	Writer	0.23515661294	Building	0.220982772126	Continent	0.203607755168	PopulatedPlace	0.190626042101	Place	0.170900527486	GovernmentAgency	0.128916939743	City	0.125866904105	Settlement	0.104443094074	AdministrativeRegion	0.0977913990065		GOLD_STANDARD:	Place	PopulatedPlace	Country
Pakistan_**_http://dbpedia.org/resource/Pakistan	Country	0.284228508543	Royalty	0.255840977655	PopulatedPlace	0.231588123672	Continent	0.225578737009	Place	0.211199878082	Writer	0.188730916375	PoliticalParty	0.180546384902	City	0.176495122664	Settlement	0.152295102611	GovernmentAgency	0.14329575681		GOLD_STANDARD:	Place	PopulatedPlace	Country
Akashi_**_http://dbpedia.org/resource/Yasushi_Akashi	OfficeHolder	0.395241296037	Writer	0.197530364341	Person	0.174838810892	Royalty	0.146394969591	Country	0.110749264414	Airport	0.108817868903	Infrastructure	0.108817868903	ArchitecturalStructure	0.10780528426	City	0.102805385148	Building	0.098692022478		GOLD_STANDARD:	Agent	Person	OfficeHolder
Poland_**_http://dbpedia.org/resource/Poland	Continent	0.478851802113	Country	0.302585193044	Airport	0.301207795274	Infrastructure	0.301207795274	ArchitecturalStructure	0.27515693699	Place	0.258133522598	PopulatedPlace	0.255833061194	Region	0.233061135984	AdministrativeRegion	0.233061135984	Work	0.168506225949		GOLD_STANDARD:	Place	PopulatedPlace	Country
