American_**_http://dbpedia.org/resource/United_States	Continent	0.380677316219	Region	0.33605111636	AdministrativeRegion	0.33605111636	Politician	0.276381457031	President	0.276381457031	Building	0.269771733417	Country	0.251777086015	Person	0.246542529187	ArchitecturalStructure	0.243781780148	RouteOfTransportation	0.217791826878		GOLD_STANDARD:	Place	PopulatedPlace	Country
National Weather Service_**_http://dbpedia.org/resource/National_Weather_Service	Region	0.250546894544	AdministrativeRegion	0.250546894544	Building	0.225982332829	GovernmentAgency	0.223865213178	PoliticalParty	0.219515920258	Holiday	0.1770444194	Politician	0.175561320148	President	0.175561320148	Person	0.167876513998	Agent	0.149520892255		GOLD_STANDARD:	Agent	Organisation	GovernmentAgency
Wall Street_**_http://dbpedia.org/resource/Wall_Street	ArchitecturalStructure	0.344797718161	Building	0.344797718161	Holiday	0.263677502089	Company	0.219933863398	Politician	0.210718020074	President	0.210718020074	Person	0.182598592455	Continent	0.181011774355	Agent	0.152710510542	Organisation	0.145238490064		GOLD_STANDARD:	Place	ArchitecturalStructure	Infrastructure	RouteOfTransportation	Road
Nikkei_**_http://dbpedia.org/resource/Nikkei_225	RouteOfTransportation	0.343995364568	Road	0.343995364568	Infrastructure	0.343995364568	ArchitecturalStructure	0.272673294715	Building	0.201351224862	Company	0.187131722953	Holiday	0.130976199335	Organisation	0.0979200903777	City	0.0955565138014	Settlement	0.0921955366097		GOLD_STANDARD:	
Singapore International Monetary Exchange_**_http://dbpedia.org/resource/Singapore_International_Monetary_Exchange	Building	0.589834923943	ArchitecturalStructure	0.412216344276	Company	0.329057964875	Continent	0.324032686479	Country	0.249773535561	RouteOfTransportation	0.234597764609	Road	0.234597764609	Infrastructure	0.234597764609	Organisation	0.224086826484	Place	0.221657817532		GOLD_STANDARD:	
Africa_**_http://dbpedia.org/resource/Africa	Continent	0.437393147658	Country	0.252438112476	PopulatedPlace	0.19612556548	Politician	0.193866350979	President	0.193866350979	Place	0.192641349785	Building	0.146677270184	Organisation	0.124872538814	Region	0.121381088684	AdministrativeRegion	0.121381088684		GOLD_STANDARD:	Place	PopulatedPlace	Continent
OPEC_**_http://dbpedia.org/resource/OPEC	Company	0.212786243751	Continent	0.186853012281	Country	0.181203381887	RouteOfTransportation	0.170093173774	Road	0.170093173774	Infrastructure	0.170093173774	Politician	0.155897203151	President	0.155897203151	Organisation	0.148938836269	PopulatedPlace	0.139976660922		GOLD_STANDARD:	Agent	Organisation
Clinton_**_http://dbpedia.org/resource/Bill_Clinton	PoliticalParty	0.52943079321	Person	0.275308536945	Holiday	0.259929227745	Agent	0.22635014548	Organisation	0.21819041357	AdministrativeRegion	0.21340449624	Region	0.21340449624	RouteOfTransportation	0.210718020074	Infrastructure	0.210718020074	Road	0.210718020074		GOLD_STANDARD:	Agent	Person	Politician	President
Iraq_**_http://dbpedia.org/resource/Iraq	Politician	0.301794434168	President	0.301794434168	Country	0.273474855938	Continent	0.265127599984	Company	0.22992105801	PopulatedPlace	0.211812387694	Place	0.208940676	Organisation	0.204587712777	Agent	0.189066228607	PoliticalParty	0.184522689977		GOLD_STANDARD:	Place	PopulatedPlace	Country
Tokyo_**_http://dbpedia.org/resource/Tokyo	Building	0.403868461788	ArchitecturalStructure	0.362111648946	RouteOfTransportation	0.320354836104	Road	0.320354836104	Infrastructure	0.320354836104	Continent	0.244636997675	Company	0.218802890756	Country	0.205970580663	Place	0.186829325751	PopulatedPlace	0.179370503487		GOLD_STANDARD:	Place	PopulatedPlace	Settlement	City
U.S._**_http://dbpedia.org/resource/United_States	RouteOfTransportation	0.429927167296	Road	0.429927167296	Infrastructure	0.429927167296	Politician	0.422559913638	President	0.422559913638	ArchitecturalStructure	0.383471728289	Continent	0.367038751417	Building	0.337016289282	Country	0.335860047824	Region	0.305303205879		GOLD_STANDARD:	Place	PopulatedPlace	Country
Algeria_**_http://dbpedia.org/resource/Algeria	Country	0.272785268174	Continent	0.263542137077	PopulatedPlace	0.207488391576	Place	0.200110262958	Politician	0.183966511987	President	0.183966511987	Company	0.154941885771	Organisation	0.149576174608	Region	0.126877469438	AdministrativeRegion	0.126877469438		GOLD_STANDARD:	Place	PopulatedPlace	Country
Dubai_**_http://dbpedia.org/resource/Dubai	Company	0.221182122277	Continent	0.190246967756	Country	0.171454377642	PopulatedPlace	0.162342906068	Place	0.160501803187	Building	0.140502282089	Settlement	0.13236209925	ArchitecturalStructure	0.117235885494	City	0.102503503538	Organisation	0.0963780388417		GOLD_STANDARD:	Place	PopulatedPlace	Settlement	City
Dow Jones_**_http://dbpedia.org/resource/Dow_Jones_Industrial_Average	RouteOfTransportation	0.561415410633	Road	0.561415410633	Infrastructure	0.561415410633	ArchitecturalStructure	0.442673138978	Building	0.323930867322	Holiday	0.278072895773	Person	0.208577981546	Company	0.192589695094	Politician	0.170234016634	President	0.170234016634		GOLD_STANDARD:	
Dick Morris_**_http://dbpedia.org/resource/Dick_Morris	Person	0.542962173159	Politician	0.301996283591	President	0.301996283591	PoliticalParty	0.293209468637	Agent	0.172401253401	Region	0.168023865048	AdministrativeRegion	0.168023865048	RouteOfTransportation	0.135517928149	Road	0.135517928149	Infrastructure	0.135517928149		GOLD_STANDARD:	Agent	Person
U.S_**_http://dbpedia.org/resource/United_States	Country	0.255361304745	RouteOfTransportation	0.237361943651	Road	0.237361943651	Infrastructure	0.237361943651	ArchitecturalStructure	0.232738271888	Building	0.228114600124	Place	0.219104423537	PopulatedPlace	0.218524259777	Continent	0.214776859413	Holiday	0.212183851135		GOLD_STANDARD:	Place	PopulatedPlace	Country
SIMEX_**_http://dbpedia.org/resource/Singapore_International_Monetary_Exchange	Company	0.300813629356	Building	0.290101461117	ArchitecturalStructure	0.274526680656	RouteOfTransportation	0.258951900196	Road	0.258951900196	Infrastructure	0.258951900196	Holiday	0.216161746235	Continent	0.144152168264	Organisation	0.140212206337	Country	0.117976635031		GOLD_STANDARD:	
New York Mercantile Exchange_**_http://dbpedia.org/resource/New_York_Mercantile_Exchange	Building	0.936838870582	ArchitecturalStructure	0.635212877286	RouteOfTransportation	0.333586883989	Road	0.333586883989	Infrastructure	0.333586883989	Region	0.27073146324	AdministrativeRegion	0.27073146324	Holiday	0.22478098503	GovernmentAgency	0.212732836004	Company	0.210464051985		GOLD_STANDARD:	Agent	Organisation	Company
Elf_**_http://dbpedia.org/resource/Elf_Aquitaine	Country	0.18785891914	Company	0.179784557428	PopulatedPlace	0.145692273728	Place	0.143537964325	Continent	0.141459851326	Organisation	0.105195551808	Agent	0.101670410137	RouteOfTransportation	0.100631765972	Road	0.100631765972	Infrastructure	0.100631765972		GOLD_STANDARD:	Agent	Organisation
IPE_**_http://dbpedia.org/resource/International_Petroleum_Exchange	Company	0.374714262285	RouteOfTransportation	0.257868685883	Road	0.257868685883	Infrastructure	0.257868685883	ArchitecturalStructure	0.238431697261	Building	0.218994708638	Organisation	0.178946007501	Agent	0.149563569461	Settlement	0.14678649705	Place	0.141984787018		GOLD_STANDARD:	
Repsol_**_http://dbpedia.org/resource/Repsol_YPF	Company	0.166517038725	Building	0.132484212092	Country	0.129196702036	ArchitecturalStructure	0.125088037972	RouteOfTransportation	0.117691863851	Road	0.117691863851	Infrastructure	0.117691863851	Organisation	0.11308963568	Place	0.105808565157	PopulatedPlace	0.105005253789		GOLD_STANDARD:	
Spanish_**_http://dbpedia.org/resource/Spain	Country	0.269161139155	PopulatedPlace	0.204145291856	Continent	0.203198684545	Place	0.202384418413	RouteOfTransportation	0.185683964168	Road	0.185683964168	Infrastructure	0.185683964168	Region	0.161408823051	AdministrativeRegion	0.161408823051	ArchitecturalStructure	0.161003892502		GOLD_STANDARD:	Place	PopulatedPlace	Country
Nigeria_**_http://dbpedia.org/resource/Nigeria	Continent	0.313351455562	Country	0.293535911519	PopulatedPlace	0.22685310736	Place	0.219342352201	Region	0.179340396091	AdministrativeRegion	0.179340396091	Politician	0.168807417384	President	0.168807417384	Organisation	0.15156279769	Agent	0.143416346168		GOLD_STANDARD:	Place	PopulatedPlace	Country
Labor Day_**_http://dbpedia.org/resource/Labor_Day	RouteOfTransportation	0.263677502089	Infrastructure	0.263677502089	Road	0.263677502089	Politician	0.259929227745	President	0.259929227745	PoliticalParty	0.257734610988	ArchitecturalStructure	0.225344818911	Building	0.187012135734	GovernmentAgency	0.171174721847	Person	0.166629380859		GOLD_STANDARD:	Holiday
LONDON_**_http://dbpedia.org/resource/London	RouteOfTransportation	0.271613233487	Road	0.271613233487	Infrastructure	0.271613233487	ArchitecturalStructure	0.19909133416	City	0.160083602346	Settlement	0.15418131072	Building	0.126569434833	Place	0.1003173157	PopulatedPlace	0.096114165978	Continent	0.0866968695544		GOLD_STANDARD:	Place	PopulatedPlace	Settlement
Commerce Department_**_http://dbpedia.org/resource/United_States_Department_of_Commerce	Politician	0.333514830302	President	0.333514830302	Holiday	0.292040271537	Building	0.261874358582	GovernmentAgency	0.237258481012	Region	0.224163294445	AdministrativeRegion	0.224163294445	ArchitecturalStructure	0.217692236884	PoliticalParty	0.215839938235	Organisation	0.187437170727		GOLD_STANDARD:	Agent	Organisation	GovernmentAgency
Venezuela_**_http://dbpedia.org/resource/Venezuela	Country	0.279770699554	Continent	0.266868459229	Region	0.245711767487	AdministrativeRegion	0.245711767487	PopulatedPlace	0.215624500372	Place	0.211863330199	Politician	0.198417721256	President	0.198417721256	Organisation	0.155697762886	Company	0.153887678124		GOLD_STANDARD:	Place	PopulatedPlace	Country
Canada_**_http://dbpedia.org/resource/Canada	Continent	0.285904986547	Country	0.260649649451	Politician	0.252338598394	President	0.252338598394	Holiday	0.210650361402	Region	0.209559203162	AdministrativeRegion	0.209559203162	PopulatedPlace	0.201279012305	Place	0.198581445242	GovernmentAgency	0.180324788624		GOLD_STANDARD:	Place	PopulatedPlace	Country
Europe_**_http://dbpedia.org/resource/Europe	Continent	0.442273713832	Country	0.280660812702	PopulatedPlace	0.229319246652	Place	0.227831093021	RouteOfTransportation	0.222068216737	Road	0.222068216737	Infrastructure	0.222068216737	ArchitecturalStructure	0.192859482679	Politician	0.188506867218	President	0.188506867218		GOLD_STANDARD:	Place	PopulatedPlace	Continent
Los Angeles_**_http://dbpedia.org/resource/Los_Angeles	Region	0.289343006653	AdministrativeRegion	0.289343006653	Politician	0.238879047308	President	0.238879047308	Person	0.19453482145	Building	0.184878687697	Company	0.184123645208	Holiday	0.156865204949	ArchitecturalStructure	0.151288917811	PoliticalParty	0.150581009533		GOLD_STANDARD:	Place	PopulatedPlace	Settlement	City
Saudi Arabia_**_http://dbpedia.org/resource/Saudi_Arabia	Country	0.309755249403	Politician	0.268634932418	President	0.268634932418	Continent	0.246006951563	PopulatedPlace	0.242652515325	Place	0.236861218451	Company	0.188366653028	Region	0.188185212709	AdministrativeRegion	0.188185212709	Organisation	0.177094098164		GOLD_STANDARD:	Place	PopulatedPlace	Country
Asian_**_http://dbpedia.org/resource/Asia	Continent	0.431996385893	Country	0.285277452835	Building	0.266162702953	ArchitecturalStructure	0.256141258786	RouteOfTransportation	0.24611981462	Road	0.24611981462	Infrastructure	0.24611981462	Place	0.229672504703	PopulatedPlace	0.228546174742	Politician	0.214099725719		GOLD_STANDARD:	Place	PopulatedPlace	Continent
SINGAPORE_**_http://dbpedia.org/resource/Singapore	City	0.15791383827	Settlement	0.15724419581	Continent	0.111403774676	RouteOfTransportation	0.0982590084651	Road	0.0982590084651	Infrastructure	0.0982590084651	PopulatedPlace	0.0647320040753	Place	0.0639521427161	ArchitecturalStructure	0.0456254007733	Company	0.0404010113533		GOLD_STANDARD:	Place	PopulatedPlace	Country
Henry Hub_**_http://dbpedia.org/resource/Henry_Hub	Region	0.245879730571	AdministrativeRegion	0.245879730571	Company	0.196096974227	Building	0.185021791982	ArchitecturalStructure	0.132028837619	GovernmentAgency	0.11253477736	Organisation	0.103555108465	Agent	0.0947573213368	RouteOfTransportation	0.0790358832555	Road	0.0790358832555		GOLD_STANDARD:	
Antwerp_**_http://dbpedia.org/resource/Antwerp	Settlement	0.119281778131	Continent	0.101309696184	PopulatedPlace	0.0983948462412	City	0.097410258098	Place	0.0952673513983	Region	0.0922788454775	AdministrativeRegion	0.0922788454775	Country	0.0894470446542	Company	0.0783008536984	Building	0.0548327581022		GOLD_STANDARD:	Place	PopulatedPlace	Settlement
Dow_**_http://dbpedia.org/resource/Dow_Jones_Industrial_Average	RouteOfTransportation	0.596459062376	Road	0.596459062376	Infrastructure	0.596459062376	ArchitecturalStructure	0.462900372967	Building	0.329341683558	Holiday	0.250810072162	Person	0.19813057101	Company	0.195510933671	Politician	0.174677342179	President	0.174677342179		GOLD_STANDARD:	
Treasury_**_http://dbpedia.org/resource/United_States_Department_of_the_Treasury	RouteOfTransportation	0.293220105473	Road	0.293220105473	Infrastructure	0.293220105473	ArchitecturalStructure	0.278773634965	Building	0.264327164456	Holiday	0.255833390603	Politician	0.237038291138	President	0.237038291138	Company	0.208642288175	Person	0.197549621086		GOLD_STANDARD:	Agent	Organisation	GovernmentAgency
Republican_**_http://dbpedia.org/resource/Republican_Party_(United_States)	Politician	0.623006554618	President	0.623006554618	PoliticalParty	0.617377852358	Person	0.388493856818	Region	0.354997039928	AdministrativeRegion	0.354997039928	Agent	0.219959677061	Holiday	0.214711814907	RouteOfTransportation	0.17452102905	Road	0.17452102905		GOLD_STANDARD:	Agent	Organisation	PoliticalParty
International Petroleum Exchange_**_http://dbpedia.org/resource/International_Petroleum_Exchange	Building	0.592373969469	ArchitecturalStructure	0.383852252309	Company	0.318851731965	GovernmentAgency	0.272351046684	Organisation	0.234611669783	Agent	0.215526355952	Continent	0.206748928828	Country	0.190548468143	RouteOfTransportation	0.175330535149	Road	0.175330535149		GOLD_STANDARD:	
British_**_http://dbpedia.org/resource/United_Kingdom	Country	0.282589068182	Continent	0.262150916834	PopulatedPlace	0.220857635601	Place	0.220345667635	RouteOfTransportation	0.210052819396	Road	0.210052819396	Infrastructure	0.210052819396	ArchitecturalStructure	0.208314420439	Building	0.206576021482	Person	0.202768464428		GOLD_STANDARD:	Place	PopulatedPlace	Country
FTSE 100_**_http://dbpedia.org/resource/FTSE_100_Index	RouteOfTransportation	0.362328944261	Road	0.362328944261	Infrastructure	0.362328944261	ArchitecturalStructure	0.287430997678	Building	0.212533051094	Country	0.114960102945	Place	0.107806312074	Company	0.102420900975	PopulatedPlace	0.100321950174	Continent	0.093906364247		GOLD_STANDARD:	
Democratic_**_http://dbpedia.org/resource/Democratic_Party_(United_States)	PoliticalParty	0.617377852358	Politician	0.435855031802	President	0.435855031802	Holiday	0.300757407069	Person	0.296353479697	Region	0.188799679567	AdministrativeRegion	0.188799679567	Agent	0.180666770378	Organisation	0.149115849654	Continent	0.114570799697		GOLD_STANDARD:	Agent	Organisation	PoliticalParty
Nigerian_**_http://dbpedia.org/resource/Nigeria	Country	0.24058879343	Region	0.235749881827	AdministrativeRegion	0.235749881827	Continent	0.200346311026	PopulatedPlace	0.19389926181	Place	0.191001560673	Building	0.168221247734	Company	0.162692800248	Organisation	0.139540664602	Holiday	0.13283330443		GOLD_STANDARD:	Place	PopulatedPlace	Country
Indians_**_http://dbpedia.org/resource/India	Politician	0.201792193004	President	0.201792193004	Region	0.155917728204	AdministrativeRegion	0.155917728204	PoliticalParty	0.151977320929	Country	0.126648376922	Continent	0.0970391893103	Holiday	0.0953366363458	PopulatedPlace	0.0950591915259	Place	0.0916558461783		GOLD_STANDARD:	Place	PopulatedPlace	Country
Lebanon_**_http://dbpedia.org/resource/Lebanon	Continent	0.261899506124	Politician	0.226549053029	President	0.226549053029	Country	0.21481694525	Region	0.18422391398	AdministrativeRegion	0.18422391398	PopulatedPlace	0.171004657009	PoliticalParty	0.169726395345	Place	0.16678682214	Organisation	0.111271889396		GOLD_STANDARD:	Place	PopulatedPlace	Country
LOS ANGELES_**_http://dbpedia.org/resource/Los_Angeles	City	0.12309094685	Settlement	0.101692755949	Person	0.0749156531746	Politician	0.0596591977707	President	0.0596591977707	PoliticalParty	0.0211584579205	Region	0.00237358422524	AdministrativeRegion	0.00237358422524	GovernmentAgency	-0.00975914269127	Agent	-0.0219286688385		GOLD_STANDARD:	Place	PopulatedPlace	Settlement	City
DUBAI_**_http://dbpedia.org/resource/Dubai	Settlement	0.0887580248904	City	0.0811446186577	PopulatedPlace	0.0105971000919	Place	0.00546401378146	Company	-0.0167244074977	Country	-0.0177673213107	GovernmentAgency	-0.0494749317257	Organisation	-0.0590110257839	Building	-0.0681468563331	Agent	-0.079365076496		GOLD_STANDARD:	Place	PopulatedPlace	Settlement	City
IOC_**_http://dbpedia.org/resource/Indian_Oil_Corporation	Politician	0.146053496864	President	0.146053496864	Continent	0.141197071869	Country	0.139421201507	Organisation	0.121407558965	PopulatedPlace	0.115154758946	Place	0.111973551075	Agent	0.110519742714	Company	0.103058757986	PoliticalParty	0.0841665689845		GOLD_STANDARD:	Agent	Organisation	Company
Korea_**_http://dbpedia.org/resource/Korea	Continent	0.358213403165	Country	0.267553727238	Politician	0.242940041889	President	0.242940041889	Building	0.240144106854	PopulatedPlace	0.210929399672	Place	0.2087644679	PoliticalParty	0.199816896705	Region	0.179799624459	AdministrativeRegion	0.179799624459		GOLD_STANDARD:	Agent	Organisation
U.K._**_http://dbpedia.org/resource/United_Kingdom	Country	0.196492513651	Continent	0.185063643626	Region	0.159460035852	AdministrativeRegion	0.159460035852	PopulatedPlace	0.15779465666	Place	0.155424696156	RouteOfTransportation	0.147041259274	Road	0.147041259274	Infrastructure	0.147041259274	ArchitecturalStructure	0.0997306243006		GOLD_STANDARD:	Place	PopulatedPlace	Country
Syria_**_http://dbpedia.org/resource/Syria	Politician	0.291723731818	President	0.291723731818	Continent	0.24408003694	Country	0.230158639652	PoliticalParty	0.193578390355	PopulatedPlace	0.174967766803	Place	0.170441977639	Organisation	0.15137412249	Agent	0.143668824337	Company	0.137270754545		GOLD_STANDARD:	Place	PopulatedPlace	Country
FTSE_**_http://dbpedia.org/resource/FTSE_100_Index	RouteOfTransportation	0.424940068112	Road	0.424940068112	Infrastructure	0.424940068112	ArchitecturalStructure	0.316925742517	Building	0.208911416921	Holiday	0.124122053156	Company	0.121060434881	Country	0.09825014269	Place	0.0977911479166	Organisation	0.0931105927355		GOLD_STANDARD:	
NEW DELHI_**_http://dbpedia.org/resource/New_Delhi	City	0.181222870158	Settlement	0.134774687165	RouteOfTransportation	0.0943409402351	Road	0.0943409402351	Infrastructure	0.0943409402351	Politician	0.082343584713	President	0.082343584713	PopulatedPlace	0.0440776344055	Place	0.0432168761727	GovernmentAgency	0.0387356668414		GOLD_STANDARD:	Place	PopulatedPlace	Settlement	City
Mexico_**_http://dbpedia.org/resource/Mexico	Region	0.353281884961	AdministrativeRegion	0.353281884961	Politician	0.352179012771	President	0.352179012771	Continent	0.268493437146	Country	0.262494972643	Building	0.219940933821	PoliticalParty	0.213568156123	Holiday	0.21065357769	PopulatedPlace	0.210060704745		GOLD_STANDARD:	Place	PopulatedPlace	Country
Spain_**_http://dbpedia.org/resource/Spain	Continent	0.302208519765	Country	0.280127482551	PopulatedPlace	0.214355678717	Place	0.211096993122	Politician	0.208817557746	President	0.208817557746	RouteOfTransportation	0.168362529497	Road	0.168362529497	Infrastructure	0.168362529497	Person	0.136320287207		GOLD_STANDARD:	Place	PopulatedPlace	Country
New York Cotton Exchange_**_http://dbpedia.org/resource/New_York_Cotton_Exchange	Building	0.920475673361	ArchitecturalStructure	0.619586927719	Company	0.428885637972	RouteOfTransportation	0.318698182078	Road	0.318698182078	Infrastructure	0.318698182078	Region	0.270753992409	AdministrativeRegion	0.270753992409	Organisation	0.245531939979	GovernmentAgency	0.233229986585		GOLD_STANDARD:	
German_**_http://dbpedia.org/resource/Germany	Continent	0.342708467199	RouteOfTransportation	0.31165589991	Road	0.31165589991	Infrastructure	0.31165589991	Country	0.274973134224	ArchitecturalStructure	0.238869432221	Place	0.22006923318	PopulatedPlace	0.21926922471	Building	0.166082964532	Region	0.140481632266		GOLD_STANDARD:	Place	PopulatedPlace	Country
NYMEX_**_http://dbpedia.org/resource/New_York_Mercantile_Exchange	Building	0.298070290622	ArchitecturalStructure	0.288335927297	Region	0.286590508509	AdministrativeRegion	0.286590508509	RouteOfTransportation	0.278601563972	Road	0.278601563972	Infrastructure	0.278601563972	Company	0.259482927819	Holiday	0.174955775205	Organisation	0.166352526753		GOLD_STANDARD:	Agent	Organisation	Company
Rotterdam_**_http://dbpedia.org/resource/Rotterdam	Continent	0.154087900174	Country	0.154025882762	PopulatedPlace	0.150982476602	Place	0.148616603457	Settlement	0.144214005386	Company	0.135076277974	Region	0.114364947823	AdministrativeRegion	0.114364947823	Building	0.101369105428	ArchitecturalStructure	0.0930185845507		GOLD_STANDARD:	Place	PopulatedPlace	Settlement	City
India_**_http://dbpedia.org/resource/India	Continent	0.38587758732	Country	0.279227461939	PopulatedPlace	0.2220985306	Place	0.219384635642	Building	0.202740762863	Politician	0.197193395496	President	0.197193395496	Company	0.184389268694	ArchitecturalStructure	0.155608104134	Organisation	0.140485811652		GOLD_STANDARD:	Place	PopulatedPlace	Country
NEW YORK_**_http://dbpedia.org/resource/New_York_City	RouteOfTransportation	0.246708912627	Road	0.246708912627	Infrastructure	0.246708912627	City	0.225737210448	Settlement	0.17944363088	ArchitecturalStructure	0.169551869979	Region	0.122775814245	AdministrativeRegion	0.122775814245	Politician	0.114731695412	President	0.114731695412		GOLD_STANDARD:	Place	PopulatedPlace	Settlement	City
Fed_**_http://dbpedia.org/resource/Federal_Reserve_System	RouteOfTransportation	0.372676597478	Road	0.372676597478	Infrastructure	0.372676597478	Politician	0.293302533756	President	0.293302533756	ArchitecturalStructure	0.281225703322	PoliticalParty	0.22762826472	Holiday	0.222449340744	Person	0.221857568829	Company	0.216684345574		GOLD_STANDARD:	
New York_**_http://dbpedia.org/resource/New_York_City	Building	0.82850484047	ArchitecturalStructure	0.59812741352	Company	0.387908270882	RouteOfTransportation	0.367749986571	Road	0.367749986571	Infrastructure	0.367749986571	Region	0.306764137062	AdministrativeRegion	0.306764137062	Holiday	0.253524786051	Politician	0.245249160901		GOLD_STANDARD:	Place	PopulatedPlace	Settlement	City
London_**_http://dbpedia.org/resource/London	Building	0.501680976115	ArchitecturalStructure	0.422906414841	RouteOfTransportation	0.344131853567	Road	0.344131853567	Infrastructure	0.344131853567	Company	0.301965600193	Continent	0.289084243932	Place	0.19087895414	Country	0.187054672212	PopulatedPlace	0.181005445174		GOLD_STANDARD:	Place	PopulatedPlace	Settlement
Indonesia_**_http://dbpedia.org/resource/Indonesia	Continent	0.355400489204	Country	0.269993264989	Politician	0.239287238703	President	0.239287238703	PopulatedPlace	0.21417153044	Place	0.210675797648	Building	0.183408176963	Company	0.14385973112	Organisation	0.136036150355	Agent	0.134454348998		GOLD_STANDARD:	Place	PopulatedPlace	Country
United Kingdom_**_http://dbpedia.org/resource/United_Kingdom	Continent	0.342563150048	Country	0.251265434395	Politician	0.221000650071	President	0.221000650071	PopulatedPlace	0.198544537858	Place	0.196332137758	Building	0.191954234421	PoliticalParty	0.171492869648	Holiday	0.163583918231	ArchitecturalStructure	0.144340735409		GOLD_STANDARD:	Place	PopulatedPlace	Country
Italian_**_http://dbpedia.org/resource/Italy	Country	0.24700930338	Continent	0.219960010836	RouteOfTransportation	0.206650082584	Road	0.206650082584	Infrastructure	0.206650082584	PopulatedPlace	0.198494014354	Place	0.197686334728	ArchitecturalStructure	0.178705863509	Building	0.150761644434	Company	0.145902876088		GOLD_STANDARD:	Place	PopulatedPlace	Country
Singapore_**_http://dbpedia.org/resource/Singapore	Continent	0.333277499114	Building	0.323992614048	ArchitecturalStructure	0.271989027966	Company	0.248558323848	Country	0.230044125042	RouteOfTransportation	0.219985441883	Road	0.219985441883	Infrastructure	0.219985441883	Place	0.217368050226	PopulatedPlace	0.215043753301		GOLD_STANDARD:	Place	PopulatedPlace	Country
Raymond James_**_http://dbpedia.org/resource/Raymond_James	Region	0.157046450053	AdministrativeRegion	0.157046450053	Person	0.135773036817	Politician	0.0985906702686	President	0.0985906702686	PoliticalParty	0.0935093543147	GovernmentAgency	0.0854388440593	Holiday	0.0833191118054	Building	0.070171089982	Agent	0.0691773577106		GOLD_STANDARD:	
New York Stock Exchange_**_http://dbpedia.org/resource/New_York_Stock_Exchange	Company	0.419515047777	RouteOfTransportation	0.344797718161	Infrastructure	0.344797718161	ArchitecturalStructure	0.344797718161	Road	0.344797718161	Organisation	0.225493957383	Region	0.222001660959	AdministrativeRegion	0.222001660959	Agent	0.212341072562	GovernmentAgency	0.194003374174		GOLD_STANDARD:	
Indian_**_http://dbpedia.org/resource/India	Continent	0.276976341859	Country	0.265508117267	PopulatedPlace	0.212892950715	Place	0.210595057497	Building	0.202866090826	Region	0.193154417525	AdministrativeRegion	0.193154417525	Company	0.159554964848	ArchitecturalStructure	0.156594566887	Politician	0.146877052089		GOLD_STANDARD:	Place	PopulatedPlace	Country
Isthmus_**_http://dbpedia.org/resource/Isthmus_of_Tehuantepec	Company	0.140775789496	Region	0.0822408547286	AdministrativeRegion	0.0822408547286	City	0.0748083140853	Settlement	0.0664236255911	Organisation	0.0443963768979	PopulatedPlace	0.019170597744	Place	0.0159672832436	Agent	0.0129793516743	GovernmentAgency	0.0122504022083		GOLD_STANDARD:	Place	PopulatedPlace
Genoa_**_http://dbpedia.org/resource/Genoa	Settlement	0.173465983761	City	0.157924856903	PopulatedPlace	0.0943516642509	Place	0.0889844553541	Country	0.0724105470049	Company	0.0676100444765	Region	0.034765692993	AdministrativeRegion	0.034765692993	Continent	-0.0054121322963	Building	-0.00588349144165		GOLD_STANDARD:	Place	PopulatedPlace	Settlement
Texas_**_http://dbpedia.org/resource/Texas	PoliticalParty	0.271898359747	Building	0.222001660959	Politician	0.21340449624	President	0.21340449624	Company	0.189847410065	Organisation	0.18267229751	Agent	0.181442715563	ArchitecturalStructure	0.177667954861	GovernmentAgency	0.177549265294	Person	0.176524387775		GOLD_STANDARD:	
Morris_**_http://dbpedia.org/resource/Dick_Morris	Person	0.516274426513	Politician	0.248620790299	President	0.248620790299	PoliticalParty	0.204630742925	RouteOfTransportation	0.201559829143	Road	0.201559829143	Infrastructure	0.201559829143	ArchitecturalStructure	0.188120573182	Agent	0.179449168595	Building	0.174681317221		GOLD_STANDARD:	Agent	Person
Japanese_**_http://dbpedia.org/resource/Japan	Continent	0.333136245096	Country	0.296039301964	RouteOfTransportation	0.266484010442	Road	0.266484010442	Infrastructure	0.266484010442	ArchitecturalStructure	0.247971519697	Place	0.237467583156	PopulatedPlace	0.237020607133	Building	0.229459028952	Politician	0.188740288181		GOLD_STANDARD:	Place	PopulatedPlace	Country
UAE_**_http://dbpedia.org/resource/United_Arab_Emirates	Country	0.259656831879	Continent	0.209539634713	PopulatedPlace	0.208173233516	Politician	0.203272440427	President	0.203272440427	Place	0.201666793085	Company	0.131923169268	City	0.129352322844	Region	0.116523402661	AdministrativeRegion	0.116523402661		GOLD_STANDARD:	Place	PopulatedPlace	Country
France_**_http://dbpedia.org/resource/France	Continent	0.363988640757	Country	0.299742734831	PopulatedPlace	0.235593108887	Politician	0.234657428834	President	0.234657428834	Place	0.2312049946	RouteOfTransportation	0.145132886122	Road	0.145132886122	Infrastructure	0.145132886122	Company	0.1421902604		GOLD_STANDARD:	Place	PopulatedPlace	Country
Chile_**_http://dbpedia.org/resource/Chile	Politician	0.291064952488	President	0.291064952488	Continent	0.281157176977	Country	0.257542937925	PopulatedPlace	0.197634789442	Place	0.194664684218	Person	0.15886996236	Building	0.139926307416	Region	0.125754445434	AdministrativeRegion	0.125754445434		GOLD_STANDARD:	Place	PopulatedPlace	Country
NWS_**_http://dbpedia.org/resource/National_Weather_Service	Region	0.155971200028	AdministrativeRegion	0.155971200028	Company	0.0656266599996	City	0.0647928446457	Settlement	0.056506605035	GovernmentAgency	0.0259662044032	Building	0.0238296408302	Organisation	0.0213112292427	Agent	0.00834193722836	PopulatedPlace	-0.018584059025		GOLD_STANDARD:	Agent	Organisation	GovernmentAgency
