THE HAGUE_**_http://dbpedia.org/resource/The_Hague	AcademicJournal	0.188224399047	Settlement	0.122468504892	City	0.100291432479	Royalty	0.0775219308666	OfficeHolder	0.0744693538593	Person	0.0619229475035	TelevisionStation	0.0424622063378	PoliticalParty	0.0366877936172	Region	0.0332141910264	AdministrativeRegion	0.0332141910264		GOLD_STANDARD:	Place	PopulatedPlace	Settlement	City
Arthur Levitt_**_http://dbpedia.org/resource/Arthur_Levitt	EducationalInstitution	0.216537132633	University	0.216537132633	GovernmentAgency	0.190971783637	Holiday	0.181043108864	Philosopher	0.164439875948	AcademicJournal	0.163987602469	Politician	0.145476111332	Person	0.134330193197	Agent	0.118676785342	Organisation	0.109636971674		GOLD_STANDARD:	Agent	Person	OfficeHolder
American_**_http://dbpedia.org/resource/United_States	Continent	0.328454967133	Airline	0.315396537187	SocietalEvent	0.266342014694	Event	0.266342014694	MilitaryConflict	0.266342014694	GovernmentAgency	0.26287981408	Company	0.238322843051	Country	0.228773324939	Organisation	0.208987771437	EducationalInstitution	0.193376578		GOLD_STANDARD:	Place	PopulatedPlace	Country
Department of Transportation_**_http://dbpedia.org/resource/New_York_City_Department_of_Transportation	GovernmentAgency	0.589762352146	Holiday	0.287471999488	Newspaper	0.280974710881	Organisation	0.275674010275	SocietalEvent	0.259305083931	Event	0.259305083931	MilitaryConflict	0.259305083931	Continent	0.243981007377	Airline	0.239399885668	BroadcastNetwork	0.22104028864		GOLD_STANDARD:	Agent	Organisation	GovernmentAgency
Brazil_**_http://dbpedia.org/resource/Brazil	Continent	0.370380299961	Country	0.276167190264	Newspaper	0.236218861437	SocietalEvent	0.190752363939	Event	0.190752363939	MilitaryConflict	0.190752363939	GovernmentAgency	0.178476538721	PopulatedPlace	0.168569957482	Place	0.1629514716	Airline	0.16039241867		GOLD_STANDARD:	Place	PopulatedPlace	Country
Rosati_**_http://dbpedia.org/resource/Dariusz_Rosati	TelevisionStation	0.261933058226	OfficeHolder	0.259008374012	EthnicGroup	0.212050365025	Person	0.194823848225	Royalty	0.173617320145	Continent	0.160259716271	Broadcaster	0.156907821114	PoliticalParty	0.150047635805	SocietalEvent	0.144276155845	Event	0.144276155845		GOLD_STANDARD:	Agent	Person	OfficeHolder
Itar-Tass_**_http://dbpedia.org/resource/Information_Telegraph_Agency_of_Russia	BroadcastNetwork	0.473031723617	Broadcaster	0.379004628807	TelevisionStation	0.190950439188	OfficeHolder	0.156120378943	Royalty	0.148825937372	Newspaper	0.141520889908	AdministrativeRegion	0.121287617522	Region	0.121287617522	PeriodicalLiterature	0.118722579922	Work	0.118722579922		GOLD_STANDARD:	
Dariusz Rosati_**_http://dbpedia.org/resource/Dariusz_Rosati	TelevisionStation	0.283724631473	OfficeHolder	0.250673724273	Person	0.198449814116	EthnicGroup	0.161249266503	Broadcaster	0.148968337632	Royalty	0.14307841449	PoliticalParty	0.134340877426	Politician	0.132037079294	Continent	0.0897003675406	Country	0.0823836399056		GOLD_STANDARD:	Agent	Person	OfficeHolder
N.J._**_http://dbpedia.org/resource/New_Jersey	University	0.254198021873	EducationalInstitution	0.254198021873	AdministrativeRegion	0.216466876082	Region	0.216466876082	Philosopher	0.162934678944	RouteOfTransportation	0.159121666343	Road	0.159121666343	ArchitecturalStructure	0.157288676857	Infrastructure	0.157288676857	Airport	0.154539192628		GOLD_STANDARD:	
Malaysia_**_http://dbpedia.org/resource/Malaysia	Continent	0.297357649189	BroadcastNetwork	0.279626823768	Country	0.186074407333	Broadcaster	0.182191108281	Newspaper	0.169785298599	SocietalEvent	0.158006425345	Event	0.158006425345	MilitaryConflict	0.158006425345	Island	0.148360412086	GovernmentAgency	0.146422697604		GOLD_STANDARD:	Place	PopulatedPlace	Country
The New York Times_**_http://dbpedia.org/resource/The_New_York_Times	GovernmentAgency	0.351866765333	SocietalEvent	0.287283449868	Event	0.287283449868	MilitaryConflict	0.287283449868	Holiday	0.285382245321	Continent	0.250438539584	EducationalInstitution	0.243171110953	University	0.243171110953	Newspaper	0.234718241189	RouteOfTransportation	0.22037863813		GOLD_STANDARD:	Work	WrittenWork	PeriodicalLiterature	Newspaper
CVRD_**_http://dbpedia.org/resource/Vale_(mining_company)	Company	0.17109741064	Newspaper	0.132019896488	Country	0.122421862294	Organisation	0.117755849436	EthnicGroup	0.112572126712	Holiday	0.105671622374	Airline	0.101815424543	GovernmentAgency	0.0956832657869	AdministrativeRegion	0.082326729712	Region	0.082326729712		GOLD_STANDARD:	Agent	Organisation	Company
China_**_http://dbpedia.org/resource/People's_Republic_of_China	Island	0.513807576081	Newspaper	0.409069979278	Continent	0.402038073527	PeriodicalLiterature	0.310048527494	WrittenWork	0.310048527494	Work	0.310048527494	GovernmentAgency	0.304331503799	BroadcastNetwork	0.304254045264	Country	0.288789084333	SocietalEvent	0.272074810728		GOLD_STANDARD:	
Italian_**_http://dbpedia.org/resource/Italy	Continent	0.271525841948	Country	0.251136180006	SocietalEvent	0.213954112092	Event	0.213954112092	MilitaryConflict	0.213954112092	Newspaper	0.175553009485	PopulatedPlace	0.166167247562	Place	0.159379672637	TelevisionStation	0.157901214828	EthnicGroup	0.149191522193		GOLD_STANDARD:	Place	PopulatedPlace	Country
Agriculture Department_**_http://dbpedia.org/resource/United_States_Department_of_Agriculture	GovernmentAgency	0.580984116624	Holiday	0.298948184467	Organisation	0.223501050163	Agent	0.189277447119	OfficeHolder	0.169371117729	BroadcastNetwork	0.164003202763	University	0.156923812979	EducationalInstitution	0.156923812979	Newspaper	0.152025282746	SocietalEvent	0.148939054064		GOLD_STANDARD:	Agent	Organisation	GovernmentAgency
Bulgarians_**_http://dbpedia.org/resource/Bulgarians	EthnicGroup	0.24942941892	Continent	0.16454896246	PoliticalParty	0.154077303534	Country	0.134729134721	SocietalEvent	0.096076204001	Event	0.096076204001	MilitaryConflict	0.096076204001	Royalty	0.0928954970238	PopulatedPlace	0.0892380080617	TelevisionStation	0.0835327446727		GOLD_STANDARD:	EthnicGroup
C. Rangarajan_**_http://dbpedia.org/resource/C._Rangarajan	Politician	0.227927823299	Philosopher	0.204847277156	OfficeHolder	0.183343916319	Person	0.167619898253	University	0.113402510136	EducationalInstitution	0.113402510136	AcademicJournal	0.103146909126	TelevisionStation	0.0947656884244	Broadcaster	0.0704475355505	Agent	0.0616422140317		GOLD_STANDARD:	Agent	Person	OfficeHolder
Wall Street_**_http://dbpedia.org/resource/Wall_Street	Holiday	0.263677502089	Continent	0.222068216737	GovernmentAgency	0.187251611181	Newspaper	0.172406726422	Country	0.146405681502	EducationalInstitution	0.123506551201	University	0.123506551201	PeriodicalLiterature	0.123003943222	Work	0.123003943222	WrittenWork	0.123003943222		GOLD_STANDARD:	Place	ArchitecturalStructure	Infrastructure	RouteOfTransportation	Road
O Globo_**_http://dbpedia.org/resource/O_Globo	TelevisionStation	0.293527460503	Broadcaster	0.190717974058	BroadcastNetwork	0.139313230836	Politician	0.108590366846	Newspaper	0.107781513007	PeriodicalLiterature	0.0878085539073	Work	0.0878085539073	WrittenWork	0.0878085539073	PoliticalParty	0.0874392015585	Airline	0.0849769477298		GOLD_STANDARD:	Work	WrittenWork	PeriodicalLiterature	Newspaper
Palestinian Authority_**_http://dbpedia.org/resource/Palestinian_National_Authority	Royalty	0.381741067348	GovernmentAgency	0.305503660452	EthnicGroup	0.268418566079	Country	0.233974913655	Newspaper	0.21631174471	Organisation	0.185180444544	BroadcastNetwork	0.175954941324	PeriodicalLiterature	0.173122720964	Work	0.173122720964	WrittenWork	0.173122720964		GOLD_STANDARD:	Place	PopulatedPlace	Country
Warsaw_**_http://dbpedia.org/resource/Warsaw	Continent	0.237595953215	EthnicGroup	0.214320661147	SocietalEvent	0.211655464857	Event	0.211655464857	MilitaryConflict	0.211655464857	Country	0.194824821739	PopulatedPlace	0.157299902898	Place	0.15319229374	Island	0.145067920521	Holiday	0.129095488487		GOLD_STANDARD:	Place	PopulatedPlace	Settlement
Jordan_**_http://dbpedia.org/resource/Jordan	Royalty	0.389198947742	Country	0.232231512475	GovernmentAgency	0.201713864111	SocietalEvent	0.189377066743	Event	0.189377066743	MilitaryConflict	0.189377066743	EthnicGroup	0.181315037164	Continent	0.173012556539	Philosopher	0.160688767979	PopulatedPlace	0.157821831687		GOLD_STANDARD:	Place	PopulatedPlace	Country
European_**_http://dbpedia.org/resource/European_Union	Continent	0.664176346037	SocietalEvent	0.319681636371	Event	0.319681636371	MilitaryConflict	0.319681636371	Country	0.318410580357	GovernmentAgency	0.291308439548	Organisation	0.211638862709	PopulatedPlace	0.203193260075	Place	0.195984951137	EthnicGroup	0.195223583731		GOLD_STANDARD:	Place	PopulatedPlace	Country
Ramallah_**_http://dbpedia.org/resource/Ramallah	Royalty	0.372516280359	EthnicGroup	0.27254149629	Philosopher	0.146094905815	Country	0.124865582273	PoliticalParty	0.120233768379	SocietalEvent	0.11700884228	Event	0.11700884228	MilitaryConflict	0.11700884228	Airport	0.109629043936	Region	0.108644726035		GOLD_STANDARD:	Place	PopulatedPlace	Settlement
Amman_**_http://dbpedia.org/resource/Amman	Royalty	0.328847539333	Country	0.210437728602	Island	0.182955316939	EthnicGroup	0.182116507888	PopulatedPlace	0.163033555701	Place	0.159780939738	PoliticalParty	0.147706065428	Continent	0.138543278166	GovernmentAgency	0.137228113603	Newspaper	0.129542592647		GOLD_STANDARD:	Place	PopulatedPlace	Settlement	City
Miami_**_http://dbpedia.org/resource/Miami	Airport	0.224743625199	Airline	0.223615510692	GovernmentAgency	0.189698435734	AdministrativeRegion	0.180876897914	Region	0.180876897914	Newspaper	0.174421155123	ArchitecturalStructure	0.172830524249	Infrastructure	0.172830524249	Continent	0.162608842758	Company	0.1590317387		GOLD_STANDARD:	Place	PopulatedPlace	Settlement	City
Heathrow_**_http://dbpedia.org/resource/Heathrow,_London	Airport	0.617877110411	ArchitecturalStructure	0.330641533544	Infrastructure	0.330641533544	Airline	0.283162859885	Company	0.191385503172	Continent	0.181687278218	GovernmentAgency	0.169867598682	Organisation	0.151867654292	RouteOfTransportation	0.139151148965	Road	0.139151148965		GOLD_STANDARD:	
Islamist_**_http://dbpedia.org/resource/Islam	Royalty	0.296379533733	PoliticalParty	0.235494212448	EthnicGroup	0.221623174803	Country	0.165251492195	Newspaper	0.13427790687	Airline	0.121775367342	Philosopher	0.120377174217	PopulatedPlace	0.114746671169	Place	0.110195273417	Holiday	0.102260888818		GOLD_STANDARD:	
Gatwick_**_http://dbpedia.org/resource/Gatwick_Airport	Airport	0.753056625725	ArchitecturalStructure	0.285942113763	Infrastructure	0.285942113763	Airline	0.260552333041	Company	0.145451007187	EducationalInstitution	0.130685751718	University	0.130685751718	RouteOfTransportation	0.130237276443	Road	0.130237276443	Continent	0.109742046537		GOLD_STANDARD:	Place	ArchitecturalStructure	Infrastructure	Airport
James Love_**_http://dbpedia.org/resource/James_Love	Philosopher	0.281598632816	AcademicJournal	0.260383681801	University	0.223659351738	EducationalInstitution	0.223659351738	Holiday	0.176739639232	SocietalEvent	0.170867331557	Event	0.170867331557	MilitaryConflict	0.170867331557	Person	0.121256459773	Royalty	0.111275659782		GOLD_STANDARD:	
CJD_**_http://dbpedia.org/resource/Creutzfeldt–Jakob_disease	University	0.221130512163	EducationalInstitution	0.221130512163	AcademicJournal	0.201257629818	GovernmentAgency	0.119383107794	Holiday	0.0947266160901	Airport	0.0841783047508	OfficeHolder	0.0677826826904	Person	0.0596975168469	Agent	0.0525183347998	Continent	0.0488516928342		GOLD_STANDARD:	
New York City_**_http://dbpedia.org/resource/New_York_City	Newspaper	0.356459291793	PeriodicalLiterature	0.268215646451	Work	0.268215646451	WrittenWork	0.268215646451	GovernmentAgency	0.265586321248	University	0.253969040792	EducationalInstitution	0.253969040792	RouteOfTransportation	0.244599048853	Road	0.244599048853	Holiday	0.23853338444		GOLD_STANDARD:	Place	PopulatedPlace	Settlement	City
Israeli_**_http://dbpedia.org/resource/Israel	Royalty	0.38196983799	EthnicGroup	0.350925785254	Country	0.286870670451	SocietalEvent	0.218745022305	Event	0.218745022305	MilitaryConflict	0.218745022305	PoliticalParty	0.20874541362	PopulatedPlace	0.190678175321	Place	0.183614936603	Newspaper	0.182472352895		GOLD_STANDARD:	Place	PopulatedPlace	Country
Gaza Strip_**_http://dbpedia.org/resource/Gaza_Strip	Royalty	0.333586375738	EthnicGroup	0.293388159269	Country	0.212981449644	PopulatedPlace	0.155092798975	Place	0.153344616168	SocietalEvent	0.147322759407	Event	0.147322759407	MilitaryConflict	0.147322759407	RouteOfTransportation	0.141315740837	Road	0.141315740837		GOLD_STANDARD:	Place	PopulatedPlace	Country
Palestinians_**_http://dbpedia.org/resource/State_of_Palestine	EthnicGroup	0.436111322072	Royalty	0.415813241711	Country	0.238685346878	PoliticalParty	0.184498956554	Continent	0.183460658137	PopulatedPlace	0.163930892535	Place	0.159327001015	SocietalEvent	0.148891774868	Event	0.148891774868	MilitaryConflict	0.148891774868		GOLD_STANDARD:	Place	PopulatedPlace	Country
Karak_**_http://dbpedia.org/resource/Al_Karak	Royalty	0.399146874418	EthnicGroup	0.23256522297	PoliticalParty	0.171792168333	Island	0.119821732253	Country	0.117375749177	Philosopher	0.108509790382	PopulatedPlace	0.106265186336	SocietalEvent	0.105982295926	Event	0.105982295926	MilitaryConflict	0.105982295926		GOLD_STANDARD:	Place	PopulatedPlace	Settlement	City
USAir_**_http://dbpedia.org/resource/US_Airways	Airline	0.332857448575	Airport	0.27221283851	Company	0.261089910742	ArchitecturalStructure	0.216682222773	Infrastructure	0.216682222773	RouteOfTransportation	0.179661812282	Road	0.179661812282	Organisation	0.177414748045	GovernmentAgency	0.161775440442	Island	0.150669654053		GOLD_STANDARD:	Agent	Organisation	Company	Airline
Creutzfeldt-Jakob Disease_**_http://dbpedia.org/resource/Creutzfeldt–Jakob_disease	AcademicJournal	0.369515176628	EducationalInstitution	0.204070724324	University	0.204070724324	Politician	0.119962737517	GovernmentAgency	0.114658318902	OfficeHolder	0.0999158921547	Person	0.0980510097598	PeriodicalLiterature	0.0962313160642	Work	0.0962313160642	WrittenWork	0.0962313160642		GOLD_STANDARD:	
USDA_**_http://dbpedia.org/resource/United_States_Department_of_Agriculture	GovernmentAgency	0.322154723246	Holiday	0.166047907367	Organisation	0.145208658021	Newspaper	0.138455040083	Country	0.119259918628	Agent	0.119110590531	RouteOfTransportation	0.114435003614	Road	0.114435003614	BroadcastNetwork	0.112819758795	Company	0.112583034802		GOLD_STANDARD:	Agent	Organisation	GovernmentAgency
Nazi_**_http://dbpedia.org/resource/Nazi_Party	SocietalEvent	0.496202868781	Event	0.496202868781	MilitaryConflict	0.496202868781	EthnicGroup	0.411711308164	Continent	0.190522619217	Country	0.176553262052	PoliticalParty	0.149548379354	Royalty	0.145557463001	GovernmentAgency	0.135017622511	Holiday	0.115755440051		GOLD_STANDARD:	Agent	Organisation	PoliticalParty
RBI_**_http://dbpedia.org/resource/Reserve_Bank_of_India	GovernmentAgency	0.115360790942	OfficeHolder	0.10545902232	Country	0.0621065017561	Organisation	0.054876264799	Agent	0.0527254109281	Holiday	0.0521448634102	RouteOfTransportation	0.0508887116249	Road	0.0508887116249	Person	0.0470987426979	Company	0.042544366552		GOLD_STANDARD:	Agent
Chinese_**_http://dbpedia.org/resource/People's_Republic_of_China	Island	0.429432971708	Newspaper	0.342195293709	BroadcastNetwork	0.284106128206	Country	0.256447393833	Continent	0.253731597768	PeriodicalLiterature	0.252800592374	Work	0.252800592374	WrittenWork	0.252800592374	GovernmentAgency	0.244710048371	SocietalEvent	0.238969422784		GOLD_STANDARD:	
Brazilian_**_http://dbpedia.org/resource/Brazil	Country	0.254767647181	Newspaper	0.250129557492	GovernmentAgency	0.213464528615	Company	0.190231902312	SocietalEvent	0.188310490009	Event	0.188310490009	MilitaryConflict	0.188310490009	Airline	0.184332395402	Holiday	0.168305075534	PopulatedPlace	0.165269081691		GOLD_STANDARD:	Place	PopulatedPlace	Country
POLAND_**_http://dbpedia.org/resource/Poland	Settlement	0.0987510050399	Continent	0.0807935644251	City	0.0775755031335	PopulatedPlace	0.0322191415716	Place	0.0292194838613	Region	0.0247923504957	AdministrativeRegion	0.0247923504957	OfficeHolder	0.0196666637381	AcademicJournal	0.0190706514893	PoliticalParty	0.0142120998731		GOLD_STANDARD:	Place	PopulatedPlace	Country
ITALIAN_**_http://dbpedia.org/resource/Italy	TelevisionStation	0.105376489424	PoliticalParty	0.0712799131947	Royalty	0.0695653450893	Settlement	0.0606154246715	City	0.0561158662437	AcademicJournal	0.0296198150877	Airport	0.0236888429616	OfficeHolder	0.0209767431884	Broadcaster	0.0200073849283	Person	0.016850406898		GOLD_STANDARD:	Place	PopulatedPlace	Country
Chicago Board Options Exchange_**_http://dbpedia.org/resource/Chicago_Board_Options_Exchange	GovernmentAgency	0.366165235397	Organisation	0.197299348794	RouteOfTransportation	0.182625719696	Road	0.182625719696	Company	0.174457633195	University	0.172324451464	EducationalInstitution	0.172324451464	Holiday	0.169371629713	Newspaper	0.163669543176	Continent	0.16206254479		GOLD_STANDARD:	Agent	Organisation	Company
Vale_**_http://dbpedia.org/resource/Vale_(mining_company)	Holiday	0.131116245787	Company	0.109947800898	Newspaper	0.0899278606876	Organisation	0.0813570520897	PeriodicalLiterature	0.0795165324556	Work	0.0795165324556	WrittenWork	0.0795165324556	GovernmentAgency	0.0774600665765	Agent	0.0715447751472	University	0.0688432873805		GOLD_STANDARD:	Agent	Organisation	Company
Norilsk Nickel_**_http://dbpedia.org/resource/MMC_Norilsk_Nickel	AdministrativeRegion	0.172806130927	Region	0.172806130927	Island	0.139995056172	Company	0.137190871388	Country	0.120169494868	Continent	0.102265557231	Organisation	0.0986947868847	GovernmentAgency	0.0955665468197	Holiday	0.091422333222	SocietalEvent	0.0837621900281		GOLD_STANDARD:	
Security Council_**_http://dbpedia.org/resource/United_Nations_Security_Council	GovernmentAgency	0.306199853279	SocietalEvent	0.19781342562	Event	0.19781342562	MilitaryConflict	0.19781342562	Royalty	0.191947866091	Continent	0.18495735705	Holiday	0.172858226838	Organisation	0.164790890478	EthnicGroup	0.154848765666	Agent	0.147781726341		GOLD_STANDARD:	
Sao Paulo_**_http://dbpedia.org/resource/São_Paulo	Newspaper	0.268069035965	Holiday	0.173627920131	PeriodicalLiterature	0.170188702623	WrittenWork	0.170188702623	Work	0.170188702623	Island	0.15219549371	GovernmentAgency	0.143521891976	Country	0.132994761512	Company	0.132970985971	RouteOfTransportation	0.131897041778		GOLD_STANDARD:	
German_**_http://dbpedia.org/resource/Nazi_Germany	Continent	0.437771773589	TelevisionStation	0.351572387085	Country	0.306719562081	SocietalEvent	0.271479171296	Event	0.271479171296	MilitaryConflict	0.271479171296	PoliticalParty	0.246501279735	EthnicGroup	0.22079766693	GovernmentAgency	0.209128097989	PopulatedPlace	0.196184897095		GOLD_STANDARD:	Place	PopulatedPlace	Country
SWISS_**_http://dbpedia.org/resource/Switzerland	TelevisionStation	0.149616831755	Settlement	0.127446718933	City	0.122108652422	AcademicJournal	0.10810344132	Region	0.0676435513909	AdministrativeRegion	0.0676435513909	PoliticalParty	0.0659602042082	PopulatedPlace	0.0359690555071	OfficeHolder	0.0356066565821	Place	0.0340770577334		GOLD_STANDARD:	Place	PopulatedPlace	Country
Tel Aviv_**_http://dbpedia.org/resource/Tel_Aviv	EthnicGroup	0.20791339917	Royalty	0.155380454874	Airport	0.155123442972	Country	0.13437773109	Airline	0.131468491472	Company	0.125544584927	ArchitecturalStructure	0.123747143767	Infrastructure	0.123747143767	Place	0.120349237752	PopulatedPlace	0.120174087957		GOLD_STANDARD:	Place	PopulatedPlace	Settlement
Baath_**_http://dbpedia.org/resource/Ba'ath_Party	Royalty	0.331174769223	Philosopher	0.187318455351	Holiday	0.179672696466	SocietalEvent	0.16894128838	Event	0.16894128838	MilitaryConflict	0.16894128838	EthnicGroup	0.140919608417	AcademicJournal	0.135571662874	BroadcastNetwork	0.131895510687	Broadcaster	0.123622890004		GOLD_STANDARD:	Agent	Organisation	PoliticalParty
ELIZABETH_**_http://dbpedia.org/resource/Elizabeth,_New_Jersey	AcademicJournal	0.337834228455	SocietalEvent	0.145940790106	Event	0.145940790106	MilitaryConflict	0.145940790106	Politician	0.143646266556	Airport	0.12758992658	University	0.11060849054	EducationalInstitution	0.11060849054	Philosopher	0.104159054292	Settlement	0.0780850194648		GOLD_STANDARD:	Place	PopulatedPlace	Settlement	City
ZDF_**_http://dbpedia.org/resource/ZDF	PoliticalParty	0.194344806216	OfficeHolder	0.128133956779	Continent	0.105971012746	Person	0.0951192498939	Broadcaster	0.086190245251	BroadcastNetwork	0.086190245251	Newspaper	0.074723723051	PeriodicalLiterature	0.0666096982283	Work	0.0666096982283	WrittenWork	0.0666096982283		GOLD_STANDARD:	
Bonn_**_http://dbpedia.org/resource/Bonn	Continent	0.308247542378	TelevisionStation	0.293922018472	PoliticalParty	0.286986030798	EthnicGroup	0.268423234415	Country	0.246556853573	SocietalEvent	0.192305834297	Event	0.192305834297	MilitaryConflict	0.192305834297	Royalty	0.190346773264	GovernmentAgency	0.167969508865		GOLD_STANDARD:	Place	PopulatedPlace	Settlement	City
Wuhan_**_http://dbpedia.org/resource/Wuhan	Island	0.624989788958	BroadcastNetwork	0.272305130799	Politician	0.208234256665	Newspaper	0.187537464016	Broadcaster	0.167781420383	PeriodicalLiterature	0.163130212916	Work	0.163130212916	WrittenWork	0.163130212916	Airport	0.129300557112	Region	0.10570109211		GOLD_STANDARD:	Place	PopulatedPlace	Settlement	City
Edward Said_**_http://dbpedia.org/resource/Edward_Said	Philosopher	0.772421735395	Politician	0.28523512222	Royalty	0.234673224446	Person	0.187153431617	University	0.14495057526	EducationalInstitution	0.14495057526	OfficeHolder	0.125252803851	AcademicJournal	0.121776603927	Region	0.0875572956763	AdministrativeRegion	0.0875572956763		GOLD_STANDARD:	Agent	Person	Philosopher
Glickman_**_http://dbpedia.org/resource/Dan_Glickman	GovernmentAgency	0.328555132689	OfficeHolder	0.244316714238	Person	0.19526749825	Royalty	0.174697008467	Agent	0.159029374404	Holiday	0.149529179778	Organisation	0.146697822816	Continent	0.130928836277	AcademicJournal	0.129572460862	SocietalEvent	0.123585977877		GOLD_STANDARD:	Agent	Person	OfficeHolder
European Union_**_http://dbpedia.org/resource/European_Union	Continent	0.592243281943	SocietalEvent	0.33814363788	Event	0.33814363788	MilitaryConflict	0.33814363788	GovernmentAgency	0.318817174225	Country	0.30110525246	Organisation	0.228748945408	EthnicGroup	0.216391084907	PopulatedPlace	0.193575740157	Holiday	0.191939078953		GOLD_STANDARD:	Place	PopulatedPlace	Country
Krasnoyarsk_**_http://dbpedia.org/resource/Krasnoyarsk_Krai	Island	0.240940676115	Region	0.130458077327	AdministrativeRegion	0.130458077327	BroadcastNetwork	0.110526881655	Broadcaster	0.0965501862911	SocietalEvent	0.0743962285624	Event	0.0743962285624	MilitaryConflict	0.0743962285624	TelevisionStation	0.0685967955637	Company	0.0613275759601		GOLD_STANDARD:	
Baghdad_**_http://dbpedia.org/resource/Baghdad	Royalty	0.468702751345	PoliticalParty	0.256918605952	Country	0.252210352086	SocietalEvent	0.244863287986	Event	0.244863287986	MilitaryConflict	0.244863287986	EthnicGroup	0.205865709085	GovernmentAgency	0.204009381218	Continent	0.203578751837	PopulatedPlace	0.166072522418		GOLD_STANDARD:	Place	PopulatedPlace	Settlement	City
London Heathrow_**_http://dbpedia.org/resource/London_Heathrow_Airport	Airport	0.581952702536	ArchitecturalStructure	0.337330339741	Infrastructure	0.337330339741	Continent	0.312369368304	Airline	0.267427757936	Newspaper	0.19869141536	GovernmentAgency	0.195433041015	Company	0.192692451592	Country	0.177189603003	RouteOfTransportation	0.174248764545		GOLD_STANDARD:	
WARSAW_**_http://dbpedia.org/resource/Warsaw	TelevisionStation	0.115735917636	Airport	0.0972088397187	Settlement	0.0950844715381	AcademicJournal	0.0858159656096	City	0.0830156048621	Politician	0.0804712432529	PoliticalParty	0.0377490536483	OfficeHolder	0.0264606424128	Broadcaster	0.0258083168977	Person	0.0225704101423		GOLD_STANDARD:	Place	PopulatedPlace	Settlement
U.N._**_http://dbpedia.org/resource/United_Nations	SocietalEvent	0.29768025129	Event	0.29768025129	MilitaryConflict	0.29768025129	GovernmentAgency	0.242649190631	Royalty	0.22413942796	Continent	0.209136791247	Country	0.181308031867	EthnicGroup	0.169845154163	PoliticalParty	0.167352624161	OfficeHolder	0.152296689984		GOLD_STANDARD:	Place	PopulatedPlace	Country
American Airlines_**_http://dbpedia.org/resource/American_Airlines	Airline	0.386425879814	Continent	0.334274263309	GovernmentAgency	0.2983670288	Company	0.290621278107	SocietalEvent	0.256673015418	Event	0.256673015418	MilitaryConflict	0.256673015418	Organisation	0.24238088416	Country	0.224710230707	Airport	0.205924184514		GOLD_STANDARD:	Agent	Organisation	Company	Airline
Columbia University_**_http://dbpedia.org/resource/Columbia_University	University	0.401813434432	EducationalInstitution	0.401813434432	GovernmentAgency	0.23156620521	AcademicJournal	0.201727706202	Region	0.187111211792	AdministrativeRegion	0.187111211792	PeriodicalLiterature	0.158539021276	Work	0.158539021276	WrittenWork	0.158539021276	Holiday	0.154779783003		GOLD_STANDARD:	
International Monetary Fund_**_http://dbpedia.org/resource/International_Monetary_Fund	SocietalEvent	0.294896947112	Event	0.294896947112	MilitaryConflict	0.294896947112	GovernmentAgency	0.277491422187	AcademicJournal	0.24177118439	Continent	0.228128824817	Country	0.190127373407	PeriodicalLiterature	0.182019204394	WrittenWork	0.182019204394	Work	0.182019204394		GOLD_STANDARD:	Agent	Organisation
Hussein_**_http://dbpedia.org/resource/Hussein_of_Jordan	Philosopher	0.23238524535	PoliticalParty	0.211438160507	SocietalEvent	0.177357394201	Event	0.177357394201	MilitaryConflict	0.177357394201	EthnicGroup	0.174100339915	Country	0.16644603965	OfficeHolder	0.128718541489	Continent	0.127120925071	PopulatedPlace	0.11623170457		GOLD_STANDARD:	
MOSCOW_**_http://dbpedia.org/resource/Moscow	Settlement	0.158342761167	City	0.148761990562	AdministrativeRegion	0.124688576109	Region	0.124688576109	TelevisionStation	0.114046161166	PopulatedPlace	0.0961277559946	Place	0.093513262886	Airport	0.0899908369316	Island	0.066076746064	EthnicGroup	0.0611435331223		GOLD_STANDARD:	
U.S._**_http://dbpedia.org/resource/United_States	GovernmentAgency	0.460682900829	Continent	0.435848476326	SocietalEvent	0.323108513245	Event	0.323108513245	MilitaryConflict	0.323108513245	Country	0.313289408171	Holiday	0.280910258306	Newspaper	0.252577100238	Organisation	0.227816864646	Airline	0.219131440695		GOLD_STANDARD:	Place	PopulatedPlace	Country
Loyola de Palacio_**_http://dbpedia.org/resource/Loyola_de_Palacio	Politician	0.193922523515	OfficeHolder	0.152293235509	Newspaper	0.134817631477	PeriodicalLiterature	0.134604860553	Work	0.134604860553	WrittenWork	0.134604860553	AcademicJournal	0.133966547781	GovernmentAgency	0.130596191794	Person	0.130258764985	Airline	0.118189207482		GOLD_STANDARD:	Agent	Person
Ian Lang_**_http://dbpedia.org/resource/Ian_Lang,_Baron_Lang_of_Monkton	GovernmentAgency	0.223547545634	University	0.203512007976	EducationalInstitution	0.203512007976	Politician	0.171084087207	Holiday	0.155298200313	OfficeHolder	0.154344133275	Person	0.153574623191	Agent	0.137949037799	Organisation	0.137076313621	Airline	0.127064691332		GOLD_STANDARD:	Agent	Person	OfficeHolder
Spanish_**_http://dbpedia.org/resource/Spain	Country	0.271401093775	Continent	0.261191586803	SocietalEvent	0.205787834509	Event	0.205787834509	MilitaryConflict	0.205787834509	PopulatedPlace	0.180724041263	Airline	0.176303810907	Place	0.173255093495	Newspaper	0.160469592099	GovernmentAgency	0.158180977587		GOLD_STANDARD:	Place	PopulatedPlace	Country
Interstate 5_**_http://dbpedia.org/resource/Interstate_5	RouteOfTransportation	0.379181029577	Road	0.379181029577	ArchitecturalStructure	0.262290169681	Infrastructure	0.262290169681	Region	0.163733482547	AdministrativeRegion	0.163733482547	Airport	0.145399309785	EducationalInstitution	0.144630238184	University	0.144630238184	GovernmentAgency	0.1206975405		GOLD_STANDARD:	Place	ArchitecturalStructure	Infrastructure	RouteOfTransportation	Road
Britain_**_http://dbpedia.org/resource/United_Kingdom	Continent	0.537423382235	SocietalEvent	0.324143031683	Event	0.324143031683	MilitaryConflict	0.324143031683	Country	0.298826019603	GovernmentAgency	0.247630997861	Airport	0.221858851295	Newspaper	0.219336520884	Airline	0.211051516358	Holiday	0.208921965913		GOLD_STANDARD:	Place	PopulatedPlace	Country
Michoacan_**_http://dbpedia.org/resource/Michoacán	AdministrativeRegion	0.196381676669	Region	0.196381676669	AcademicJournal	0.126273749372	Politician	0.115535883731	PeriodicalLiterature	0.109006928308	Work	0.109006928308	WrittenWork	0.109006928308	Newspaper	0.103251321287	Holiday	0.09949551457	Person	0.0901233611465		GOLD_STANDARD:	
American Stock Exchange_**_http://dbpedia.org/resource/American_Stock_Exchange	GovernmentAgency	0.275735648371	Company	0.248614968688	Airline	0.232220049767	Newspaper	0.21532297154	Organisation	0.211684366788	Island	0.195223142909	Continent	0.18461777772	RouteOfTransportation	0.16958999668	Road	0.16958999668	Country	0.156225808389		GOLD_STANDARD:	
Office of Fair Trading_**_http://dbpedia.org/resource/Office_of_Fair_Trading	GovernmentAgency	0.491890846246	SocietalEvent	0.254643237297	Event	0.254643237297	MilitaryConflict	0.254643237297	Organisation	0.240604934518	Newspaper	0.236521038893	Holiday	0.230134799462	Continent	0.227999755414	PeriodicalLiterature	0.185930155467	Work	0.185930155467		GOLD_STANDARD:	Agent	Organisation	GovernmentAgency
Amsterdam_**_http://dbpedia.org/resource/Amsterdam	Continent	0.339496429323	Airport	0.179147938633	Country	0.160662344949	PopulatedPlace	0.136128301524	Place	0.135633357165	SocietalEvent	0.132983702701	Event	0.132983702701	MilitaryConflict	0.132983702701	Settlement	0.127922888908	ArchitecturalStructure	0.126031436609		GOLD_STANDARD:	Place	PopulatedPlace	Settlement	City
Colombians_**_http://dbpedia.org/resource/Colombia	EthnicGroup	0.281748924908	Continent	0.214304387955	SocietalEvent	0.193754426469	Event	0.193754426469	MilitaryConflict	0.193754426469	Country	0.193506255715	Airline	0.154618704446	Royalty	0.136228284897	GovernmentAgency	0.134717435427	Newspaper	0.128173766111		GOLD_STANDARD:	Place	PopulatedPlace	Country
Chua_**_http://dbpedia.org/resource/Chua_Jui_Meng	BroadcastNetwork	0.273401157113	Philosopher	0.255363900636	Island	0.247165574315	AcademicJournal	0.233994616292	Broadcaster	0.169355652963	Person	0.149015109359	OfficeHolder	0.147902369653	PeriodicalLiterature	0.0916593320807	WrittenWork	0.0916593320807	Work	0.0916593320807		GOLD_STANDARD:	Agent	Person	Politician
Swiss_**_http://dbpedia.org/resource/Switzerland	EthnicGroup	0.31929101345	SocietalEvent	0.251429636813	Event	0.251429636813	MilitaryConflict	0.251429636813	Country	0.228461791002	Continent	0.201135629259	GovernmentAgency	0.199099314778	PoliticalParty	0.178624190957	PopulatedPlace	0.142211890439	Organisation	0.138953465953		GOLD_STANDARD:	Place	PopulatedPlace	Country
Nature_**_http://dbpedia.org/resource/Nature_(journal)	University	0.23747875392	EducationalInstitution	0.23747875392	Politician	0.233994616292	SocietalEvent	0.193227188956	Event	0.193227188956	MilitaryConflict	0.193227188956	Person	0.109013441388	BroadcastNetwork	0.0990945603122	OfficeHolder	0.086908901718	Philosopher	0.0827930396736		GOLD_STANDARD:	Work	WrittenWork	PeriodicalLiterature	AcademicJournal
Hubei_**_http://dbpedia.org/resource/Hubei	Island	0.647227480672	BroadcastNetwork	0.260032734424	Politician	0.200023604421	Region	0.139745747708	AdministrativeRegion	0.139745747708	Broadcaster	0.139265771863	Newspaper	0.0980872039364	City	0.0803944948489	PeriodicalLiterature	0.0780808257348	Work	0.0780808257348		GOLD_STANDARD:	Place	PopulatedPlace
Ulan Bator_**_http://dbpedia.org/resource/Ulan_Bator	Island	0.277643251448	Politician	0.178681796242	BroadcastNetwork	0.178288928642	Broadcaster	0.150809837552	AdministrativeRegion	0.135930668074	Region	0.135930668074	Airport	0.129088443875	TelevisionStation	0.0958516553716	City	0.0840101159902	Settlement	0.0837211979851		GOLD_STANDARD:	
Geneva_**_http://dbpedia.org/resource/Geneva	SocietalEvent	0.284726674217	Event	0.284726674217	MilitaryConflict	0.284726674217	Continent	0.227921264623	GovernmentAgency	0.189312080901	AcademicJournal	0.156231808384	Country	0.153981896965	OfficeHolder	0.145398742509	PeriodicalLiterature	0.138906312744	Work	0.138906312744		GOLD_STANDARD:	Place	PopulatedPlace	Settlement
Spain_**_http://dbpedia.org/resource/Spain	Continent	0.421856142603	Country	0.290669081152	SocietalEvent	0.200737641936	Event	0.200737641936	MilitaryConflict	0.200737641936	Royalty	0.189243914047	EthnicGroup	0.184139006164	PopulatedPlace	0.18275507699	Place	0.177913844944	GovernmentAgency	0.1544425798		GOLD_STANDARD:	Place	PopulatedPlace	Country
BONN_**_http://dbpedia.org/resource/Bonn	TelevisionStation	0.368301750123	AcademicJournal	0.187851781115	Settlement	0.158740963775	PoliticalParty	0.152478047395	SocietalEvent	0.128330609526	Event	0.128330609526	MilitaryConflict	0.128330609526	City	0.119020018698	Broadcaster	0.109365304222	PopulatedPlace	0.106517883382		GOLD_STANDARD:	Place	PopulatedPlace	Settlement	City
Germany_**_http://dbpedia.org/resource/Germany	Continent	0.648632818009	Country	0.310788215114	SocietalEvent	0.304092371668	Event	0.304092371668	MilitaryConflict	0.304092371668	TelevisionStation	0.285394912748	EthnicGroup	0.271588388651	PoliticalParty	0.245935415491	PopulatedPlace	0.190839933736	Place	0.185368654152		GOLD_STANDARD:	Place	PopulatedPlace	Country
European Commission_**_http://dbpedia.org/resource/European_Commission	Continent	0.493351969158	GovernmentAgency	0.412852063997	Country	0.298131463735	SocietalEvent	0.272015542393	Event	0.272015542393	MilitaryConflict	0.272015542393	Organisation	0.257870777331	Newspaper	0.227044687075	Agent	0.202392580962	PopulatedPlace	0.194362852701		GOLD_STANDARD:	Agent	Organisation
World War Two_**_http://dbpedia.org/resource/World_War_II	Continent	0.270995202141	EthnicGroup	0.263211663458	PoliticalParty	0.246719507411	GovernmentAgency	0.215657512029	Country	0.210737599139	AcademicJournal	0.193227188956	PeriodicalLiterature	0.179783447929	Work	0.179783447929	WrittenWork	0.179783447929	Royalty	0.177357394201		GOLD_STANDARD:	Event	SocietalEvent	MilitaryConflict
Patrick Seale_**_http://dbpedia.org/resource/Patrick_Seale	Philosopher	0.269601848624	Politician	0.213416233931	AcademicJournal	0.158879521948	Person	0.150317743168	OfficeHolder	0.130553143325	EducationalInstitution	0.10513793753	University	0.10513793753	Airport	0.0865159640767	TelevisionStation	0.0681773963348	AdministrativeRegion	0.0644785152202		GOLD_STANDARD:	Agent	Person
AMR Corp._**_http://dbpedia.org/resource/AMR_Corporation	Airline	0.320962604504	Company	0.301362801652	RouteOfTransportation	0.255244602077	Road	0.255244602077	GovernmentAgency	0.255040517522	Organisation	0.219689062476	University	0.209029930847	EducationalInstitution	0.209029930847	ArchitecturalStructure	0.178291801147	Infrastructure	0.178291801147		GOLD_STANDARD:	Agent	Organisation	Company
Egypt_**_http://dbpedia.org/resource/Egypt	Continent	0.304151635033	Royalty	0.301901840439	Country	0.283666268823	EthnicGroup	0.224725875541	SocietalEvent	0.216688510746	Event	0.216688510746	MilitaryConflict	0.216688510746	GovernmentAgency	0.186574288314	PopulatedPlace	0.182488429648	Place	0.175477353578		GOLD_STANDARD:	Place	PopulatedPlace	Country
Federal Aviation Administration_**_http://dbpedia.org/resource/Federal_Aviation_Administration	GovernmentAgency	0.452398743939	Holiday	0.269300587176	Airline	0.244178502853	Organisation	0.237421850911	Company	0.200595128698	Newspaper	0.196648550566	Island	0.189055291259	Agent	0.185843119495	SocietalEvent	0.166273417389	Event	0.166273417389		GOLD_STANDARD:	Agent	Organisation	GovernmentAgency
Moscow_**_http://dbpedia.org/resource/Russia	Continent	0.326109874536	SocietalEvent	0.294489129986	Event	0.294489129986	MilitaryConflict	0.294489129986	EthnicGroup	0.255756017662	Country	0.25526538973	Royalty	0.219144941066	PopulatedPlace	0.197385110763	Place	0.192386361708	Newspaper	0.188645607823		GOLD_STANDARD:	Place	PopulatedPlace	Country
Barcelona_**_http://dbpedia.org/resource/Barcelona	Continent	0.193894737971	Airport	0.190600180788	Country	0.188318855258	EthnicGroup	0.176933363	Royalty	0.159577296192	SocietalEvent	0.151423014458	Event	0.151423014458	MilitaryConflict	0.151423014458	PopulatedPlace	0.147611307136	Place	0.144472886077		GOLD_STANDARD:	Place	PopulatedPlace	Settlement	City
Monopolies and Mergers Commission_**_http://dbpedia.org/resource/Competition_Commission_(United_Kingdom)	GovernmentAgency	0.43425464878	Continent	0.280066729952	Organisation	0.273666305906	Airline	0.262027990631	Company	0.220664739378	Country	0.216190639754	Agent	0.205189988174	Newspaper	0.204773770437	EducationalInstitution	0.180838935327	University	0.180838935327		GOLD_STANDARD:	
CBOE_**_http://dbpedia.org/resource/Chicago_Board_Options_Exchange	RouteOfTransportation	0.154917997213	Road	0.154917997213	Philosopher	0.135988829559	Island	0.123690726556	Company	0.114555977605	ArchitecturalStructure	0.110474369914	Infrastructure	0.110474369914	GovernmentAgency	0.0909365947384	University	0.0814514081094	EducationalInstitution	0.0814514081094		GOLD_STANDARD:	Agent	Organisation	Company
Russia_**_http://dbpedia.org/resource/Russia	Continent	0.498061047964	SocietalEvent	0.351413811542	Event	0.351413811542	MilitaryConflict	0.351413811542	Country	0.305948055615	EthnicGroup	0.256082062434	PopulatedPlace	0.196539076403	GovernmentAgency	0.194681655167	Place	0.188695563833	Newspaper	0.170584763389		GOLD_STANDARD:	Place	PopulatedPlace	Country
British Airways Plc_**_http://dbpedia.org/resource/British_Airways	Airline	0.346957217294	Airport	0.29234023748	Continent	0.282290678063	GovernmentAgency	0.271692320583	EducationalInstitution	0.252381460535	University	0.252381460535	SocietalEvent	0.252238275455	Event	0.252238275455	MilitaryConflict	0.252238275455	Company	0.251983377906		GOLD_STANDARD:	Agent	Organisation	Company	Airline
EU Commission_**_http://dbpedia.org/resource/European_Commission	GovernmentAgency	0.393698659778	Continent	0.355164448162	Country	0.263854152655	Organisation	0.236697946718	Agent	0.194655620863	SocietalEvent	0.193967942009	Event	0.193967942009	MilitaryConflict	0.193967942009	Newspaper	0.183378002484	OfficeHolder	0.181443047704		GOLD_STANDARD:	Agent	Organisation
FDP_**_http://dbpedia.org/resource/Free_Democratic_Party_of_Switzerland	TelevisionStation	0.369798258208	Continent	0.185318357567	Royalty	0.157582249298	Broadcaster	0.134818084104	EthnicGroup	0.13084149632	Country	0.123368372149	PoliticalParty	0.112184792918	OfficeHolder	0.11214542318	Holiday	0.0955174136686	Person	0.0811921975775		GOLD_STANDARD:	Agent	Organisation	PoliticalParty
Said_**_http://dbpedia.org/resource/Edward_Said	Philosopher	0.772421735395	Royalty	0.230097266254	Politician	0.225492679052	Person	0.125361789727	OfficeHolder	0.0721601683524	AcademicJournal	0.0438094754201	Region	0.0398542975509	AdministrativeRegion	0.0398542975509	PoliticalParty	0.038715216491	EducationalInstitution	0.0383061446117		GOLD_STANDARD:	Agent	Person	Philosopher
SOFIA_**_http://dbpedia.org/resource/Sofia	AcademicJournal	0.0928395621694	Settlement	0.0798342128939	PoliticalParty	0.0719170401019	City	0.0650844332056	TelevisionStation	0.0617518687504	EthnicGroup	0.0550029691677	AdministrativeRegion	0.045289432068	Region	0.045289432068	SocietalEvent	0.0326942761165	Event	0.0326942761165		GOLD_STANDARD:	Place	PopulatedPlace	Settlement	City
Bernama_**_http://dbpedia.org/resource/Bernama	BroadcastNetwork	0.430600262971	Politician	0.375225669302	Broadcaster	0.271044699293	Island	0.163753984303	GovernmentAgency	0.116371708641	Newspaper	0.111907732968	PeriodicalLiterature	0.111664390987	Work	0.111664390987	WrittenWork	0.111664390987	TelevisionStation	0.111489135614		GOLD_STANDARD:	Agent	Organisation	Broadcaster	BroadcastNetwork
Jordanian_**_http://dbpedia.org/resource/Jordan	Royalty	0.47846413706	Country	0.256394892949	EthnicGroup	0.245811906254	SocietalEvent	0.217513318978	Event	0.217513318978	MilitaryConflict	0.217513318978	PoliticalParty	0.19047401098	Philosopher	0.179256599662	PopulatedPlace	0.177233488086	GovernmentAgency	0.174625329155		GOLD_STANDARD:	Place	PopulatedPlace	Country
Iraqi_**_http://dbpedia.org/resource/Iraq	Royalty	0.481665423267	SocietalEvent	0.2722142661	Event	0.2722142661	MilitaryConflict	0.2722142661	Country	0.251839253917	PoliticalParty	0.239053236076	Continent	0.213090630266	GovernmentAgency	0.196591024067	EthnicGroup	0.189485868797	PopulatedPlace	0.164421830149		GOLD_STANDARD:	Place	PopulatedPlace	Country
Bulgaria_**_http://dbpedia.org/resource/Bulgaria	Continent	0.30843539752	EthnicGroup	0.26861062726	Country	0.248580638717	SocietalEvent	0.212866344443	Event	0.212866344443	MilitaryConflict	0.212866344443	PopulatedPlace	0.164815750657	Place	0.158634004538	GovernmentAgency	0.116079598102	Newspaper	0.113933590954		GOLD_STANDARD:	Place	PopulatedPlace	Country
MFS_**_http://dbpedia.org/resource/Metropolitan_Fiber_Systems	RouteOfTransportation	0.241023034948	Road	0.241023034948	ArchitecturalStructure	0.184245111964	Infrastructure	0.184245111964	Company	0.144184101459	Airline	0.125817610617	GovernmentAgency	0.113888469648	Organisation	0.104473456184	Holiday	0.103101328225	Airport	0.0990782274879		GOLD_STANDARD:	
Polish_**_http://dbpedia.org/resource/Poland	EthnicGroup	0.244080577749	Country	0.240177549573	Continent	0.238348357063	SocietalEvent	0.216947346534	Event	0.216947346534	MilitaryConflict	0.216947346534	PopulatedPlace	0.168943412403	Place	0.161080199645	GovernmentAgency	0.142466805846	Island	0.139815743017		GOLD_STANDARD:	Place	PopulatedPlace	Country
Colombia_**_http://dbpedia.org/resource/Colombia	Continent	0.301058273368	Country	0.253148812624	Airline	0.232761689285	Newspaper	0.191128967327	GovernmentAgency	0.186263790327	PopulatedPlace	0.162578316691	Company	0.161319488619	Place	0.156684147017	Royalty	0.135690265548	Organisation	0.134619748742		GOLD_STANDARD:	Place	PopulatedPlace	Country
Mongolia_**_http://dbpedia.org/resource/Mongolia	Island	0.463729519579	BroadcastNetwork	0.262993423072	Continent	0.191186848846	Newspaper	0.176678974451	Region	0.161288951252	AdministrativeRegion	0.161288951252	SocietalEvent	0.161003807949	Event	0.161003807949	MilitaryConflict	0.161003807949	Broadcaster	0.15854815817		GOLD_STANDARD:	Place	PopulatedPlace	Country
Nasdaq_**_http://dbpedia.org/resource/NASDAQ	RouteOfTransportation	0.236969710259	Road	0.236969710259	GovernmentAgency	0.176335534389	ArchitecturalStructure	0.155996395525	Infrastructure	0.155996395525	Company	0.149111842846	Newspaper	0.132071001552	Continent	0.121827038664	Holiday	0.120735111426	Organisation	0.116772843956		GOLD_STANDARD:	
World Trade Organisation_**_http://dbpedia.org/resource/World_Trade_Organization	SocietalEvent	0.581842963593	Event	0.581842963593	MilitaryConflict	0.581842963593	GovernmentAgency	0.425526856465	Continent	0.335349604607	AcademicJournal	0.235440255381	Country	0.225365054711	PeriodicalLiterature	0.21220797955	Work	0.21220797955	WrittenWork	0.21220797955		GOLD_STANDARD:	Agent	Organisation
Texas_**_http://dbpedia.org/resource/Texas	University	0.246816363358	EducationalInstitution	0.246816363358	GovernmentAgency	0.237713674693	RouteOfTransportation	0.212948165031	Road	0.212948165031	AdministrativeRegion	0.190096742121	Region	0.190096742121	Country	0.139959955876	Continent	0.136805241164	Airline	0.136162179252		GOLD_STANDARD:	
Rangarajan_**_http://dbpedia.org/resource/C._Rangarajan	OfficeHolder	0.19638757899	TelevisionStation	0.174629041213	Politician	0.168601143517	Broadcaster	0.164757772286	BroadcastNetwork	0.159822137822	Person	0.147728716561	Philosopher	0.0822460020321	Agent	0.0754731626034	Royalty	0.0677512285011	Newspaper	0.0497404806514		GOLD_STANDARD:	Agent	Person	OfficeHolder
El Al_**_http://dbpedia.org/resource/El_Al	Philosopher	0.219504692111	Airline	0.212900142373	Royalty	0.21252693409	Island	0.181167510859	Newspaper	0.174372270566	PeriodicalLiterature	0.14003184884	Work	0.14003184884	WrittenWork	0.14003184884	Company	0.13835013497	AdministrativeRegion	0.137268749761		GOLD_STANDARD:	Agent	Organisation	Company	Airline
TOKYO_**_http://dbpedia.org/resource/Tokyo	Holiday	0.129778978729	Settlement	0.127651169359	Royalty	0.107428521741	City	0.10727102044	Island	0.0919854216057	PopulatedPlace	0.0862063915772	RouteOfTransportation	0.0851719296804	Road	0.0851719296804	Place	0.0833788107495	SocietalEvent	0.0679445511113		GOLD_STANDARD:	Place	PopulatedPlace	Settlement	City
BSE_**_http://dbpedia.org/resource/Bovine_spongiform_encephalopathy	GovernmentAgency	0.150707444263	University	0.142203041095	EducationalInstitution	0.142203041095	EthnicGroup	0.12621931426	Country	0.112585581759	Continent	0.110750684842	Organisation	0.0937730826464	Agent	0.0765974260035	Holiday	0.0700872334582	Company	0.0635404310577		GOLD_STANDARD:	
Avianca_**_http://dbpedia.org/resource/Avianca	Airport	0.371085829227	Airline	0.314030938006	Company	0.15633011375	Island	0.141442119851	ArchitecturalStructure	0.127009696636	Infrastructure	0.127009696636	SocietalEvent	0.0862483490248	Event	0.0862483490248	MilitaryConflict	0.0862483490248	Organisation	0.0832941760494		GOLD_STANDARD:	Agent	Organisation	Company	Airline
UNITED NATIONS_**_http://dbpedia.org/resource/United_Nations	Settlement	0.172504948485	City	0.17234434091	AcademicJournal	0.148712160816	Island	0.119969540059	Region	0.110983315519	AdministrativeRegion	0.110983315519	PopulatedPlace	0.0949228331329	Place	0.0906778829524	Royalty	0.0818868597521	SocietalEvent	0.0691614890828		GOLD_STANDARD:	Place	PopulatedPlace	Country
Seville_**_http://dbpedia.org/resource/Seville	Airport	0.228270426974	Continent	0.150679108621	SocietalEvent	0.146140047177	Event	0.146140047177	MilitaryConflict	0.146140047177	ArchitecturalStructure	0.131508275107	Infrastructure	0.131508275107	City	0.112992272314	Settlement	0.0994079768323	Region	0.0743379547322		GOLD_STANDARD:	Place	PopulatedPlace	Settlement
Interstate 95_**_http://dbpedia.org/resource/Interstate_95	RouteOfTransportation	0.380056607205	Road	0.380056607205	ArchitecturalStructure	0.249031565515	Infrastructure	0.249031565515	AdministrativeRegion	0.156848433877	Region	0.156848433877	Island	0.148347740467	GovernmentAgency	0.131459892829	Airport	0.118006523826	EducationalInstitution	0.102215214476		GOLD_STANDARD:	Place	ArchitecturalStructure	Infrastructure	RouteOfTransportation	Road
Bogota_**_http://dbpedia.org/resource/Bogotá	Airline	0.180409518268	Island	0.162479359167	Newspaper	0.16181735881	Company	0.149091764519	Country	0.136355793988	Holiday	0.128360775024	EthnicGroup	0.117213440221	Airport	0.107862902614	PopulatedPlace	0.102341681467	Place	0.101516969573		GOLD_STANDARD:	
MIAMI_**_http://dbpedia.org/resource/Miami	Airport	0.188736481151	City	0.175233304694	Settlement	0.170641503198	ArchitecturalStructure	0.16019838615	Infrastructure	0.16019838615	Region	0.145667596985	AdministrativeRegion	0.145667596985	RouteOfTransportation	0.141172989482	Road	0.141172989482	AcademicJournal	0.126504036206		GOLD_STANDARD:	Place	PopulatedPlace	Settlement	City
Guangdong_**_http://dbpedia.org/resource/Guangdong	Island	0.692481722261	BroadcastNetwork	0.356650526329	Newspaper	0.266115243012	Broadcaster	0.224598344982	PeriodicalLiterature	0.197679556154	Work	0.197679556154	WrittenWork	0.197679556154	Politician	0.179684795523	GovernmentAgency	0.13248471088	AdministrativeRegion	0.127069284423		GOLD_STANDARD:	Place	PopulatedPlace
NEW DELHI_**_http://dbpedia.org/resource/New_Delhi	AcademicJournal	0.138370555668	City	0.130977038342	Settlement	0.129247085716	Royalty	0.105727814659	RouteOfTransportation	0.0952202013276	Road	0.0952202013276	Region	0.0776044399692	AdministrativeRegion	0.0776044399692	PopulatedPlace	0.0631169460315	Place	0.0628486254248		GOLD_STANDARD:	Place	PopulatedPlace	Settlement	City
SAO PAULO_**_http://dbpedia.org/resource/São_Paulo	AdministrativeRegion	0.15963776561	Region	0.15963776561	Settlement	0.157727409218	City	0.150920309655	TelevisionStation	0.105446131289	AcademicJournal	0.0925988682706	PopulatedPlace	0.0820963451867	Place	0.0777457631076	OfficeHolder	0.0689461387149	Island	0.0529136553621		GOLD_STANDARD:	
Information Technology Association of America_**_http://dbpedia.org/resource/Information_Technology_Association_of_America	GovernmentAgency	0.42723847425	Continent	0.364100365076	University	0.276417640786	EducationalInstitution	0.276417640786	SocietalEvent	0.256574070752	Event	0.256574070752	MilitaryConflict	0.256574070752	Organisation	0.242985431313	Newspaper	0.229129968321	PeriodicalLiterature	0.223838807378		GOLD_STANDARD:	
Madrid_**_http://dbpedia.org/resource/Madrid	Continent	0.265047757229	Country	0.201844828643	SocietalEvent	0.177523295455	Event	0.177523295455	MilitaryConflict	0.177523295455	Royalty	0.174732951579	PopulatedPlace	0.162540700169	Place	0.159790509207	EthnicGroup	0.159387948931	Airport	0.154072619904		GOLD_STANDARD:	Place	PopulatedPlace	Settlement
India_**_http://dbpedia.org/resource/India	Continent	0.296605515481	Country	0.237365047074	GovernmentAgency	0.223971200355	Newspaper	0.209120512217	SocietalEvent	0.201932209692	Event	0.201932209692	MilitaryConflict	0.201932209692	Island	0.198488403854	BroadcastNetwork	0.165361802821	PeriodicalLiterature	0.157297238794		GOLD_STANDARD:	Place	PopulatedPlace	Country
Bilbao_**_http://dbpedia.org/resource/Bilbao	Airport	0.184023190861	ArchitecturalStructure	0.128361439522	Infrastructure	0.128361439522	Airline	0.121440571414	City	0.105299593403	Country	0.0957349311216	Company	0.0953202753438	Place	0.093499967905	Settlement	0.0927661700687	PopulatedPlace	0.091702984832		GOLD_STANDARD:	Place	PopulatedPlace	Settlement
KUALA LUMPUR_**_http://dbpedia.org/resource/Kuala_Lumpur	Politician	0.161887477783	Island	0.1257163362	Settlement	0.111348225259	City	0.102884174194	BroadcastNetwork	0.0563226850968	Philosopher	0.05208770353	PopulatedPlace	0.0484583126692	Place	0.0469656781616	OfficeHolder	0.0325539749522	Broadcaster	0.0314240458114		GOLD_STANDARD:	Place	PopulatedPlace	Settlement
Dan Glickman_**_http://dbpedia.org/resource/Dan_Glickman	GovernmentAgency	0.286929314346	OfficeHolder	0.240034402644	Person	0.221104188043	Royalty	0.219646756976	Philosopher	0.158498205635	Agent	0.155241280234	Politician	0.152005322395	University	0.145271121144	EducationalInstitution	0.145271121144	AcademicJournal	0.136932300983		GOLD_STANDARD:	Agent	Person	OfficeHolder
Reuters_**_http://dbpedia.org/resource/Reuters	TelevisionStation	0.211165992651	GovernmentAgency	0.121707033911	OfficeHolder	0.11866172882	Broadcaster	0.107563625632	Person	0.101915192061	Continent	0.09276208125	Politician	0.0913730430256	Newspaper	0.0911789148171	Philosopher	0.0877895721329	Agent	0.0876956294411		GOLD_STANDARD:	Agent	Organisation	Company
Valencia_**_http://dbpedia.org/resource/Valencia,_Spain	Country	0.147264450857	Airport	0.130298187215	City	0.129108076448	PopulatedPlace	0.12554099476	Place	0.122413409366	Airline	0.121125174411	Settlement	0.114812431407	EthnicGroup	0.109969963829	Holiday	0.100214100923	Royalty	0.0991707579992		GOLD_STANDARD:	
Alicante_**_http://dbpedia.org/resource/Alicante	Airport	0.365086251901	ArchitecturalStructure	0.159922226756	Infrastructure	0.159922226756	Airline	0.106961385775	Settlement	0.100082673009	City	0.0842044267124	Place	0.029474623901	RouteOfTransportation	0.023146209992	Road	0.023146209992	PopulatedPlace	0.0227505206611		GOLD_STANDARD:	Place	PopulatedPlace	Settlement	City
Jewish_**_http://dbpedia.org/resource/Jews	EthnicGroup	0.423075726076	SocietalEvent	0.383653674843	Event	0.383653674843	MilitaryConflict	0.383653674843	PoliticalParty	0.280735827919	Royalty	0.265335460765	Holiday	0.225360800971	Country	0.218266182143	GovernmentAgency	0.189637909145	Continent	0.182290030567		GOLD_STANDARD:	EthnicGroup
London_**_http://dbpedia.org/resource/London	Airport	0.336735099728	Continent	0.330711083266	ArchitecturalStructure	0.222701821368	Infrastructure	0.222701821368	Newspaper	0.220097638394	SocietalEvent	0.172806003823	Event	0.172806003823	MilitaryConflict	0.172806003823	Country	0.171325507655	University	0.159527066167		GOLD_STANDARD:	Place	PopulatedPlace	Settlement
Colombian_**_http://dbpedia.org/resource/Colombia	Airline	0.240783849512	Country	0.22973503488	GovernmentAgency	0.173662944287	Holiday	0.167808295553	Company	0.165375716308	Newspaper	0.163492429198	Continent	0.156953102962	PopulatedPlace	0.148235044624	Place	0.141113036384	Organisation	0.135190278064		GOLD_STANDARD:	Place	PopulatedPlace	Country
Guangzhou_**_http://dbpedia.org/resource/Guangzhou	Island	0.601321499587	BroadcastNetwork	0.253608932921	Newspaper	0.246345218381	Airport	0.191063976737	PeriodicalLiterature	0.165422371555	Work	0.165422371555	WrittenWork	0.165422371555	ArchitecturalStructure	0.153300545606	Infrastructure	0.153300545606	Politician	0.145183537209		GOLD_STANDARD:	Place	PopulatedPlace	Settlement	City
Yasushi Akashi_**_http://dbpedia.org/resource/Yasushi_Akashi	Politician	0.241193067031	OfficeHolder	0.225727267815	Royalty	0.206247817853	Person	0.201244774708	AcademicJournal	0.172535689511	Philosopher	0.161433270102	BroadcastNetwork	0.160127673782	Broadcaster	0.140935573017	TelevisionStation	0.102551371486	GovernmentAgency	0.0897426870872		GOLD_STANDARD:	Agent	Person	OfficeHolder
Vale do Rio Doce_**_http://dbpedia.org/resource/Vale_(mining_company)	Newspaper	0.170543601947	Company	0.147639467471	PeriodicalLiterature	0.125140179128	Work	0.125140179128	WrittenWork	0.125140179128	Country	0.117399972688	Holiday	0.110502511324	Organisation	0.109374387297	Airline	0.0922195732134	GovernmentAgency	0.0914523270332		GOLD_STANDARD:	Agent	Organisation	Company
Silvio Berlusconi_**_http://dbpedia.org/resource/Silvio_Berlusconi	TelevisionStation	0.241741828531	PoliticalParty	0.204665393121	Royalty	0.147390973839	OfficeHolder	0.107091849643	Person	0.103019010181	EthnicGroup	0.0938970688733	Country	0.0938728910502	Broadcaster	0.0913648942354	Newspaper	0.0882025934818	Philosopher	0.0789245512462		GOLD_STANDARD:	Agent	Person	OfficeHolder
Pacific Stock Exchange_**_http://dbpedia.org/resource/Pacific_Exchange	Island	0.287474911408	GovernmentAgency	0.230471829929	Company	0.210823947361	Newspaper	0.195045476841	Airline	0.18023807775	Organisation	0.175104616581	RouteOfTransportation	0.171172274486	Road	0.171172274486	Continent	0.141184667991	ArchitecturalStructure	0.13705458577		GOLD_STANDARD:	Agent
Japan_**_http://dbpedia.org/resource/Japan	Continent	0.48663441894	Country	0.279839601009	GovernmentAgency	0.266660995747	SocietalEvent	0.264530373309	Event	0.264530373309	MilitaryConflict	0.264530373309	Newspaper	0.262224171556	PeriodicalLiterature	0.202922666992	Work	0.202922666992	WrittenWork	0.202922666992		GOLD_STANDARD:	Place	PopulatedPlace	Country
Europe_**_http://dbpedia.org/resource/Europe	Country	0.282692768179	SocietalEvent	0.270995202141	Event	0.270995202141	MilitaryConflict	0.270995202141	EthnicGroup	0.179672057947	GovernmentAgency	0.178423708145	PopulatedPlace	0.178345497488	Place	0.17329238596	Holiday	0.163983190003	Newspaper	0.148334606505		GOLD_STANDARD:	Place	PopulatedPlace	Continent
Akashi_**_http://dbpedia.org/resource/Yasushi_Akashi	Royalty	0.276825314355	OfficeHolder	0.215526782258	Person	0.185279085759	Politician	0.179440037262	BroadcastNetwork	0.163925312491	Broadcaster	0.1480676379	Continent	0.14101581225	AcademicJournal	0.132292103487	Philosopher	0.130887941661	TelevisionStation	0.116352288718		GOLD_STANDARD:	Agent	Person	OfficeHolder
Xinhua_**_http://dbpedia.org/resource/Xinhua_News_Agency	BroadcastNetwork	0.430600262971	Island	0.395155009878	Newspaper	0.299739862841	PeriodicalLiterature	0.246618586026	Work	0.246618586026	WrittenWork	0.246618586026	Broadcaster	0.24574580893	GovernmentAgency	0.191317621625	Politician	0.171576644923	Country	0.107747307191		GOLD_STANDARD:	Agent	Organisation	Broadcaster	BroadcastNetwork
Annemarie Jorritsma_**_http://dbpedia.org/resource/Annemarie_Jorritsma	OfficeHolder	0.206316178721	TelevisionStation	0.196449685444	Airport	0.191189322336	Politician	0.185295045467	Person	0.182947978812	PoliticalParty	0.117581734262	Agent	0.116745185774	Settlement	0.107498662921	Broadcaster	0.103541799031	Airline	0.102132940003		GOLD_STANDARD:	Agent	Person	OfficeHolder
LONDON_**_http://dbpedia.org/resource/London	Airport	0.21518005543	AcademicJournal	0.205395216398	Continent	0.158850158743	EducationalInstitution	0.156181119061	University	0.156181119061	Settlement	0.151699997507	City	0.134334060005	TelevisionStation	0.124251780165	ArchitecturalStructure	0.120588176403	Infrastructure	0.120588176403		GOLD_STANDARD:	Place	PopulatedPlace	Settlement
Holocaust_**_http://dbpedia.org/resource/The_Holocaust	EthnicGroup	0.44788423679	SocietalEvent	0.365197753296	Event	0.365197753296	MilitaryConflict	0.365197753296	PoliticalParty	0.293672878581	GovernmentAgency	0.173790295904	Royalty	0.172057723287	Country	0.156942968797	Continent	0.1421945261	Holiday	0.141293364404		GOLD_STANDARD:	
Iraq_**_http://dbpedia.org/resource/Iraq	Royalty	0.426839394995	Continent	0.308655283853	Country	0.270514169054	SocietalEvent	0.261857748623	Event	0.261857748623	MilitaryConflict	0.261857748623	PoliticalParty	0.215672396687	GovernmentAgency	0.20728829899	EthnicGroup	0.201747499744	PopulatedPlace	0.174354499014		GOLD_STANDARD:	Place	PopulatedPlace	Country
Office of Fair Trade_**_http://dbpedia.org/resource/Office_of_Fair_Trading	GovernmentAgency	0.542818229992	SocietalEvent	0.328737069997	Event	0.328737069997	MilitaryConflict	0.328737069997	Continent	0.27627481688	Holiday	0.26058954767	Organisation	0.260538133066	Newspaper	0.250831553525	PeriodicalLiterature	0.209409674652	Work	0.209409674652		GOLD_STANDARD:	Agent	Organisation	GovernmentAgency
ACES_**_http://dbpedia.org/resource/ACES_Colombia	Airport	0.169564954912	Airline	0.161185333976	Island	0.124629791935	AdministrativeRegion	0.107368581441	Region	0.107368581441	Politician	0.10308627506	Company	0.0940273767985	Philosopher	0.0618160288617	ArchitecturalStructure	0.0471076117531	Infrastructure	0.0471076117531		GOLD_STANDARD:	Agent	Organisation	Company	Airline
Internet_**_http://dbpedia.org/resource/World_Wide_Web	AcademicJournal	0.197611615849	Continent	0.176301247408	GovernmentAgency	0.169809029777	PeriodicalLiterature	0.161114031215	Work	0.161114031215	WrittenWork	0.161114031215	TelevisionStation	0.157194711455	Newspaper	0.14894816967	SocietalEvent	0.145956942284	Event	0.145956942284		GOLD_STANDARD:	
Brasilia_**_http://dbpedia.org/resource/Brasília	Country	0.185233544807	Newspaper	0.184423623918	Holiday	0.176257162756	GovernmentAgency	0.164772675959	Company	0.147708851262	EthnicGroup	0.146156314067	PopulatedPlace	0.143300613881	Place	0.140394263179	Organisation	0.135418670376	Airline	0.132009765534		GOLD_STANDARD:	
U.S. Agriculture Department_**_http://dbpedia.org/resource/United_States_Department_of_Agriculture	GovernmentAgency	0.617487503705	Holiday	0.342624123243	Continent	0.260430523023	Organisation	0.25946949046	SocietalEvent	0.251391977545	Event	0.251391977545	MilitaryConflict	0.251391977545	Country	0.247771707124	Newspaper	0.222577410394	Agent	0.203227340285		GOLD_STANDARD:	Agent	Organisation	GovernmentAgency
U.S_**_http://dbpedia.org/resource/United_States	Continent	0.27807843903	Country	0.216741973714	Holiday	0.212183851135	GovernmentAgency	0.206985176678	Airline	0.184340076227	SocietalEvent	0.165173726449	Event	0.165173726449	MilitaryConflict	0.165173726449	PopulatedPlace	0.144291749818	Place	0.138932604326		GOLD_STANDARD:	Place	PopulatedPlace	Country
Switzerland_**_http://dbpedia.org/resource/Switzerland	SocietalEvent	0.379078054941	Event	0.379078054941	MilitaryConflict	0.379078054941	EthnicGroup	0.357843802272	Continent	0.3125733459	Country	0.231606959317	PoliticalParty	0.212000029802	GovernmentAgency	0.177374815559	PopulatedPlace	0.148040381957	Place	0.142358230453		GOLD_STANDARD:	Place	PopulatedPlace	Country
Jorritsma_**_http://dbpedia.org/resource/Annemarie_Jorritsma	TelevisionStation	0.221005146903	OfficeHolder	0.212841205439	Person	0.177749685317	Airport	0.171086852974	Politician	0.157207878039	PoliticalParty	0.123166721379	Agent	0.117090180235	Broadcaster	0.112752192557	GovernmentAgency	0.0973941356277	Airline	0.0963377396893		GOLD_STANDARD:	Agent	Person	OfficeHolder
Stansted_**_http://dbpedia.org/resource/London_Stansted_Airport	Airport	0.753056625725	Airline	0.242292120943	ArchitecturalStructure	0.226363024612	Infrastructure	0.226363024612	Settlement	0.124539667433	City	0.114985730752	Company	0.103930603005	EducationalInstitution	0.0896796070715	University	0.0896796070715	Continent	0.0736812624912		GOLD_STANDARD:	Place	ArchitecturalStructure	Infrastructure	Airport
AMR_**_http://dbpedia.org/resource/AMR_Corporation	Airline	0.345166949991	Company	0.294152404796	Organisation	0.195351435144	GovernmentAgency	0.184655149894	Airport	0.165605035823	ArchitecturalStructure	0.161801629532	Infrastructure	0.161801629532	RouteOfTransportation	0.159266025338	Road	0.159266025338	Agent	0.136797656353		GOLD_STANDARD:	Agent	Organisation	Company
Oxford_**_http://dbpedia.org/resource/University_of_Oxford	EducationalInstitution	0.401813434432	University	0.401813434432	AcademicJournal	0.273229801638	RouteOfTransportation	0.155130863364	Road	0.155130863364	ArchitecturalStructure	0.151313089388	Infrastructure	0.151313089388	PeriodicalLiterature	0.151310829493	WrittenWork	0.151310829493	Work	0.151310829493		GOLD_STANDARD:	
Palestinian_**_http://dbpedia.org/resource/State_of_Palestine	Royalty	0.48670052364	EthnicGroup	0.371878560015	Country	0.274200706506	PoliticalParty	0.221541828454	SocietalEvent	0.207451023238	Event	0.207451023238	MilitaryConflict	0.207451023238	Continent	0.201539056746	GovernmentAgency	0.19788814689	PopulatedPlace	0.190347612864		GOLD_STANDARD:	Place	PopulatedPlace	Country
Labor Day_**_http://dbpedia.org/resource/Labor_Day	GovernmentAgency	0.265016735553	Continent	0.163983190003	Newspaper	0.158402890564	PeriodicalLiterature	0.131554341107	WrittenWork	0.131554341107	Work	0.131554341107	RouteOfTransportation	0.130973428731	Road	0.130973428731	PoliticalParty	0.130315183395	EthnicGroup	0.128827164906		GOLD_STANDARD:	Holiday
Hainan_**_http://dbpedia.org/resource/Hainan	BroadcastNetwork	0.279454497091	Politician	0.247165574315	Newspaper	0.242121724264	PeriodicalLiterature	0.181356467633	WrittenWork	0.181356467633	Work	0.181356467633	Airline	0.164694761762	Broadcaster	0.138967458137	Region	0.128313296324	AdministrativeRegion	0.128313296324		GOLD_STANDARD:	Place	PopulatedPlace	Island
United States_**_http://dbpedia.org/resource/United_States	Continent	0.536934890668	SocietalEvent	0.357785356462	Event	0.357785356462	MilitaryConflict	0.357785356462	GovernmentAgency	0.341926971195	Country	0.305510940612	Newspaper	0.265881946692	Royalty	0.232585641171	Holiday	0.221259121877	PeriodicalLiterature	0.215155868893		GOLD_STANDARD:	Place	PopulatedPlace	Country
California_**_http://dbpedia.org/resource/California	GovernmentAgency	0.28077569961	University	0.276690285157	EducationalInstitution	0.276690285157	Region	0.212344638289	AdministrativeRegion	0.212344638289	Holiday	0.204297852619	RouteOfTransportation	0.202984695823	Road	0.202984695823	Newspaper	0.192185229398	SocietalEvent	0.161067269396		GOLD_STANDARD:	
Jews_**_http://dbpedia.org/resource/Jews	EthnicGroup	0.507924175337	SocietalEvent	0.30990511153	Event	0.30990511153	MilitaryConflict	0.30990511153	PoliticalParty	0.248659281447	Continent	0.192177180815	Country	0.173557643724	Royalty	0.164070061957	PopulatedPlace	0.11137783741	Place	0.106406903222		GOLD_STANDARD:	EthnicGroup
BRUSSELS_**_http://dbpedia.org/resource/Brussels	AcademicJournal	0.133781621457	Settlement	0.13232731377	City	0.106366907861	OfficeHolder	0.0901982091037	Continent	0.0884828959621	Person	0.0732639387861	TelevisionStation	0.0620831786917	University	0.0620064011133	EducationalInstitution	0.0620064011133	PopulatedPlace	0.0601912599374		GOLD_STANDARD:	Place	PopulatedPlace	Settlement
Commission_**_http://dbpedia.org/resource/European_Commission	GovernmentAgency	0.416216609673	Organisation	0.243857631778	Newspaper	0.19901005375	Agent	0.195784070514	Continent	0.181305384906	Country	0.178880301854	Airline	0.174256272494	Company	0.170738354185	PeriodicalLiterature	0.169260081404	Work	0.169260081404		GOLD_STANDARD:	Agent	Organisation
China Daily_**_http://dbpedia.org/resource/China_Daily	Island	0.471568418566	BroadcastNetwork	0.365519403367	Continent	0.300252282782	Newspaper	0.289548641076	GovernmentAgency	0.2773482538	Broadcaster	0.240536435623	PeriodicalLiterature	0.227572067261	Work	0.227572067261	WrittenWork	0.227572067261	Country	0.212094787777		GOLD_STANDARD:	Work	WrittenWork	PeriodicalLiterature	Newspaper
CHICAGO_**_http://dbpedia.org/resource/Chicago	Settlement	0.13977653353	City	0.13786576418	RouteOfTransportation	0.114591421581	Road	0.114591421581	Infrastructure	0.107128746574	ArchitecturalStructure	0.107128746574	AcademicJournal	0.103506040483	Airport	0.0959347340636	AdministrativeRegion	0.081192344518	Region	0.081192344518		GOLD_STANDARD:	Place	PopulatedPlace	Settlement	City
DETROIT_**_http://dbpedia.org/resource/Detroit	City	0.140973897751	Settlement	0.128999822465	RouteOfTransportation	0.115599250534	Road	0.115599250534	Region	0.103476253221	AdministrativeRegion	0.103476253221	ArchitecturalStructure	0.102787051715	Infrastructure	0.102787051715	Airport	0.0835687534872	AcademicJournal	0.0761422798894		GOLD_STANDARD:	Place	PopulatedPlace	Settlement	City
New York_**_http://dbpedia.org/resource/New_York_City	Newspaper	0.360703018329	PeriodicalLiterature	0.263278956425	Work	0.263278956425	WrittenWork	0.263278956425	GovernmentAgency	0.26299809447	Holiday	0.253524786051	RouteOfTransportation	0.234237870808	Road	0.234237870808	Continent	0.224277150262	EducationalInstitution	0.210157459453		GOLD_STANDARD:	Place	PopulatedPlace	Settlement	City
British_**_http://dbpedia.org/resource/United_Kingdom	Continent	0.307626611587	Airline	0.303606467933	University	0.298789164863	EducationalInstitution	0.298789164863	SocietalEvent	0.264087511808	Event	0.264087511808	MilitaryConflict	0.264087511808	GovernmentAgency	0.255402608071	Country	0.248682479213	Newspaper	0.23916622934		GOLD_STANDARD:	Place	PopulatedPlace	Country
Mario Covas_**_http://dbpedia.org/resource/Mário_Covas	Person	0.157452455182	OfficeHolder	0.154740589951	Newspaper	0.135506026487	Agent	0.109917417232	City	0.0970669625519	Company	0.0968048355905	PeriodicalLiterature	0.095372729869	Work	0.095372729869	WrittenWork	0.095372729869	Airline	0.0922695214309		GOLD_STANDARD:	
France_**_http://dbpedia.org/resource/France	Continent	0.499673493031	Country	0.295909567787	SocietalEvent	0.27160004318	Event	0.27160004318	MilitaryConflict	0.27160004318	TelevisionStation	0.225214039604	Newspaper	0.190063981295	PopulatedPlace	0.189164472577	PoliticalParty	0.18710531292	Place	0.185360045307		GOLD_STANDARD:	Place	PopulatedPlace	Country
Central Bank_**_http://dbpedia.org/resource/Central_Bank_of_Brazil	GovernmentAgency	0.319137238483	SocietalEvent	0.260615460122	Event	0.260615460122	MilitaryConflict	0.260615460122	Continent	0.203100522536	Country	0.196538139158	Newspaper	0.19089652297	Organisation	0.18017232103	EthnicGroup	0.172996860058	Airline	0.153963345639		GOLD_STANDARD:	
U.S.-based_**_http://dbpedia.org/resource/United_States	Airline	0.213524727199	Company	0.168398923697	Continent	0.156119430137	AcademicJournal	0.153446629484	PeriodicalLiterature	0.151023904563	Work	0.151023904563	WrittenWork	0.151023904563	Island	0.150763314228	Newspaper	0.150216329589	SocietalEvent	0.14667825257		GOLD_STANDARD:	Place	PopulatedPlace	Country
ROME_**_http://dbpedia.org/resource/Rome	Airport	0.266388240906	TelevisionStation	0.184120932568	Settlement	0.156686906859	AcademicJournal	0.149869273599	City	0.129352636006	OfficeHolder	0.128039451052	Airline	0.108666289389	Person	0.104642102135	Broadcaster	0.080119507927	Agent	0.0582527153676		GOLD_STANDARD:	Place	PopulatedPlace	Settlement
ISO 9002_**_http://dbpedia.org/resource/ISO_9000	AcademicJournal	0.159309539983	Politician	0.127302960923	GovernmentAgency	0.126724711267	Airport	0.0991469967003	BroadcastNetwork	0.0976258108689	Airline	0.0888158286821	Company	0.083229336605	Organisation	0.0755602131351	Island	0.0737210335989	Agent	0.0653074596813		GOLD_STANDARD:	Agent
AMR Corp_**_http://dbpedia.org/resource/AMR_Corporation	Airline	0.336292118408	Company	0.318502922052	GovernmentAgency	0.283678961439	RouteOfTransportation	0.239961056883	Road	0.239961056883	Organisation	0.236547892477	Island	0.195543332559	ArchitecturalStructure	0.175928537153	Infrastructure	0.175928537153	University	0.173400418731		GOLD_STANDARD:	Agent	Organisation	Company
New Delhi_**_http://dbpedia.org/resource/New_Delhi	Newspaper	0.34656039372	PeriodicalLiterature	0.254513541403	Work	0.254513541403	WrittenWork	0.254513541403	Holiday	0.238115769013	GovernmentAgency	0.232371906747	Country	0.190772909716	SocietalEvent	0.190439969025	Event	0.190439969025	MilitaryConflict	0.190439969025		GOLD_STANDARD:	Place	PopulatedPlace	Settlement	City
Mexico_**_http://dbpedia.org/resource/Mexico	Continent	0.289558949416	Country	0.250676092829	Newspaper	0.245041750817	Holiday	0.21065357769	GovernmentAgency	0.209016489947	Airline	0.184736232074	SocietalEvent	0.176304439678	Event	0.176304439678	MilitaryConflict	0.176304439678	PopulatedPlace	0.167025976384		GOLD_STANDARD:	Place	PopulatedPlace	Country
Mediaset_**_http://dbpedia.org/resource/Mediaset	TelevisionStation	0.298280928906	Broadcaster	0.112799581004	Newspaper	0.0896989839207	Company	0.0872253662528	Airline	0.084861363708	Country	0.0825080704487	Royalty	0.0782714174503	PoliticalParty	0.0759273771789	Continent	0.0731393270314	Organisation	0.0635852318287		GOLD_STANDARD:	Agent	Organisation	Company
MCI Communications Corporation_**_http://dbpedia.org/resource/MCI_Communications	GovernmentAgency	0.326197567838	Company	0.241386490664	Airline	0.233382260222	Organisation	0.225718845996	RouteOfTransportation	0.187137533385	Road	0.187137533385	Newspaper	0.185577342543	Agent	0.161131058742	EducationalInstitution	0.157597631846	University	0.157597631846		GOLD_STANDARD:	
BEIJING_**_http://dbpedia.org/resource/Beijing	Island	0.34070640857	City	0.152232473808	Settlement	0.146211773114	Politician	0.120848961408	Region	0.105288938242	AdministrativeRegion	0.105288938242	BroadcastNetwork	0.0918933468544	AcademicJournal	0.0757233393007	PopulatedPlace	0.0651188114314	Place	0.0631526856363		GOLD_STANDARD:	Place	PopulatedPlace	Settlement
Dutch_**_http://dbpedia.org/resource/Netherlands	Continent	0.279931842132	Country	0.225013403568	SocietalEvent	0.185222226964	Event	0.185222226964	MilitaryConflict	0.185222226964	TelevisionStation	0.157156749215	PopulatedPlace	0.151316404237	GovernmentAgency	0.148329922554	Place	0.146433907023	Airline	0.139660546977		GOLD_STANDARD:	Place	PopulatedPlace	Country
Franz Fischler_**_http://dbpedia.org/resource/Franz_Fischler	TelevisionStation	0.256002991668	OfficeHolder	0.25077218863	Continent	0.22181155209	Person	0.184847152409	PoliticalParty	0.184612483266	Royalty	0.18248347759	GovernmentAgency	0.178697176473	EthnicGroup	0.178205566291	Country	0.163083930384	SocietalEvent	0.150813934344		GOLD_STANDARD:	Agent	Person
Alfred Berkeley_**_http://dbpedia.org/resource/Alfred_Berkeley	Philosopher	0.316482621161	University	0.305400072484	EducationalInstitution	0.305400072484	AcademicJournal	0.286967606568	Politician	0.23481813935	AdministrativeRegion	0.161659834388	Region	0.161659834388	Person	0.110288053996	PeriodicalLiterature	0.0849481119968	Work	0.0849481119968		GOLD_STANDARD:	Agent	Person
God_**_http://dbpedia.org/resource/God	AcademicJournal	0.291359984795	Royalty	0.275288306165	EthnicGroup	0.206716006481	PoliticalParty	0.154020777074	Philosopher	0.119148794984	SocietalEvent	0.0892833196162	Event	0.0892833196162	MilitaryConflict	0.0892833196162	Person	0.0854135934744	Holiday	0.0766046480564		GOLD_STANDARD:	
Mexican_**_http://dbpedia.org/resource/Mexico	Holiday	0.281861263636	Newspaper	0.250581694746	Country	0.246153406943	GovernmentAgency	0.216818770268	Airline	0.171149425037	PeriodicalLiterature	0.170481614595	Work	0.170481614595	WrittenWork	0.170481614595	PopulatedPlace	0.162359186106	Place	0.155539753031		GOLD_STANDARD:	Place	PopulatedPlace	Country
Russian_**_http://dbpedia.org/resource/Russia	SocietalEvent	0.305807843482	Event	0.305807843482	MilitaryConflict	0.305807843482	Continent	0.300609332871	Country	0.286926042843	EthnicGroup	0.214094229942	Newspaper	0.195373447611	GovernmentAgency	0.192331772569	PopulatedPlace	0.190386731527	Place	0.181864852843		GOLD_STANDARD:	Place	PopulatedPlace	Country
GENEVA_**_http://dbpedia.org/resource/Geneva	AcademicJournal	0.307928426614	Settlement	0.151862755831	SocietalEvent	0.134063688226	Event	0.134063688226	MilitaryConflict	0.134063688226	City	0.133282006937	Airport	0.131094178397	Politician	0.103226837224	Airline	0.0771305529568	PeriodicalLiterature	0.0730987976876		GOLD_STANDARD:	Place	PopulatedPlace	Settlement
WASHINGTON_**_http://dbpedia.org/resource/Washington,_D.C.	University	0.254074525818	EducationalInstitution	0.254074525818	GovernmentAgency	0.225819546671	AdministrativeRegion	0.200886538631	Region	0.200886538631	SocietalEvent	0.190531447814	Event	0.190531447814	MilitaryConflict	0.190531447814	Holiday	0.180495939364	City	0.165231884864		GOLD_STANDARD:	Place	PopulatedPlace	Settlement
British Airways_**_http://dbpedia.org/resource/British_Airways	Airline	0.389475661406	Airport	0.328199966938	Continent	0.277146852416	GovernmentAgency	0.270068830433	SocietalEvent	0.263247360152	Event	0.263247360152	MilitaryConflict	0.263247360152	Company	0.261415812792	University	0.241375456017	EducationalInstitution	0.241375456017		GOLD_STANDARD:	Agent	Organisation	Company	Airline
Midwest_**_http://dbpedia.org/resource/Midwestern_United_States	Continent	0.313925526693	AdministrativeRegion	0.190088066497	Region	0.190088066497	Holiday	0.187110989539	GovernmentAgency	0.185669013526	RouteOfTransportation	0.182135866748	Road	0.182135866748	Country	0.144074263451	Island	0.132466244658	SocietalEvent	0.110782907174		GOLD_STANDARD:	Place	PopulatedPlace
Bureau Veritas_**_http://dbpedia.org/resource/Bureau_Veritas	AcademicJournal	0.225135871238	GovernmentAgency	0.222187744298	BroadcastNetwork	0.217101617546	Politician	0.200938491287	Island	0.18113970925	Broadcaster	0.138304574829	University	0.120175740383	EducationalInstitution	0.120175740383	Organisation	0.101773084303	RouteOfTransportation	0.0966923343805		GOLD_STANDARD:	Agent	Organisation	Company
Poland_**_http://dbpedia.org/resource/Poland	Continent	0.437981959461	SocietalEvent	0.295134469545	Event	0.295134469545	MilitaryConflict	0.295134469545	EthnicGroup	0.292775842278	Country	0.269343842602	PopulatedPlace	0.173681219091	Place	0.167170481101	Newspaper	0.140556138406	GovernmentAgency	0.125552563411		GOLD_STANDARD:	Place	PopulatedPlace	Country
