ENGLISH_**_http://dbpedia.org/resource/England	Currency	0.317780151859	City	0.152098369568	Settlement	0.128430867236	Region	0.0605691105611	AdministrativeRegion	0.0605691105611	PopulatedPlace	0.059090260779	Place	0.059090260779	OfficeHolder	-0.0196041326627	Person	-0.0196041326627	Town	-0.0230555288223		GOLD_STANDARD:	Place	PopulatedPlace
Warsaw_**_http://dbpedia.org/resource/Warsaw	Country	0.219048617995	PopulatedPlace	0.109896018855	Place	0.109896018855	Bank	0.0986293739611	Company	0.0970627346501	Agent	0.0941012943293	Organisation	0.0922256479053	City	0.0515381150857	Region	0.0465265010822	AdministrativeRegion	0.0465265010822		GOLD_STANDARD:	Place	PopulatedPlace	Settlement
BOMBAY_**_http://dbpedia.org/resource/Mumbai	Currency	0.233865212867	City	0.191753426823	Settlement	0.16046306491	OfficeHolder	0.14669450696	Person	0.14669450696	PopulatedPlace	0.0988802091567	Place	0.0988802091567	Country	0.0514720577652	Agent	0.0495842452825	Company	0.0378987087289		GOLD_STANDARD:	Place	PopulatedPlace	Settlement	City
Kredietbank_**_http://dbpedia.org/resource/KBC_Bank	Bank	0.261091718307	Currency	0.186346416977	Company	0.184834389983	Organisation	0.166089282823	Agent	0.148448367038	Town	0.0911219372758	Country	0.0686689054211	OfficeHolder	0.0369874977921	Person	0.0369874977921	Place	0.0265382206785		GOLD_STANDARD:	Agent	Organisation	Company	Bank
UTI Bank_**_http://dbpedia.org/resource/Axis_Bank	Bank	0.317756793289	OfficeHolder	0.315697547212	Person	0.315697547212	Company	0.24623373256	Agent	0.233550266422	Organisation	0.212174818129	Country	0.122444180901	PopulatedPlace	0.0562515751374	Place	0.0562515751374	Currency	0.043291906212		GOLD_STANDARD:	Agent	Organisation	Company	Bank
LONDON_**_http://dbpedia.org/resource/London	City	0.238275537278	Settlement	0.203523983087	PopulatedPlace	0.146553692037	Place	0.146553692037	Country	0.126821344742	Currency	0.0942203253354	Company	0.0651872221918	Bank	0.0582832674156	Organisation	0.0530036505143	Agent	0.0269995085635		GOLD_STANDARD:	Place	PopulatedPlace	Settlement
RAO Gazprom_**_http://dbpedia.org/resource/Gazprom	Company	0.193073738761	Country	0.17166929276	Organisation	0.158455724871	Agent	0.144683617953	Bank	0.143208601188	PopulatedPlace	0.0782068936057	Place	0.0782068936057	OfficeHolder	0.037117922545	Person	0.037117922545	Region	0.0349192720114		GOLD_STANDARD:	Agent	Organisation	Company
WARSAW_**_http://dbpedia.org/resource/Warsaw	Currency	0.201745211166	Settlement	0.125747233278	City	0.112413065712	PopulatedPlace	0.0935820151327	Place	0.0935820151327	Country	0.0722708438797	Company	0.0566367713497	Town	0.0460044851053	Organisation	0.0449457356073	Agent	0.0448751246128		GOLD_STANDARD:	Place	PopulatedPlace	Settlement
DBRS_**_http://dbpedia.org/resource/Dominion_Bond_Rating_Service	Town	0.251433946502	OfficeHolder	0.247363126944	Person	0.247363126944	Bank	0.187366994803	Agent	0.132159226626	Company	0.12805626133	Organisation	0.116658886155	Region	0.0308791307982	AdministrativeRegion	0.0308791307982	PopulatedPlace	-0.0265617575611		GOLD_STANDARD:	
Texas_**_http://dbpedia.org/resource/Texas	AdministrativeRegion	0.200720805528	Region	0.200720805528	Town	0.149873023943	Place	0.0834371556968	PopulatedPlace	0.0834371556968	Country	0.0822439783843	City	0.0820015670135	Settlement	0.0665609324703	Organisation	0.019639836401	Company	0.0136736975137		GOLD_STANDARD:	
Dominion Bond Rating Service_**_http://dbpedia.org/resource/Dominion_Bond_Rating_Service	Town	0.286991158866	Bank	0.170322250552	Company	0.145131786788	Organisation	0.134016507967	Agent	0.120568911042	Region	0.100138573571	AdministrativeRegion	0.100138573571	City	0.0898154134412	OfficeHolder	0.0882395294921	Person	0.0882395294921		GOLD_STANDARD:	
Colo._**_http://dbpedia.org/resource/Colorado	Town	0.574844141319	Region	0.271548743717	AdministrativeRegion	0.271548743717	City	0.169499119168	Settlement	0.1603845754	Currency	0.112596421051	Place	0.0725754586135	PopulatedPlace	0.0725754586135	Organisation	0.0491400668201	Agent	0.0304060729072		GOLD_STANDARD:	
MOSCOW_**_http://dbpedia.org/resource/Moscow	Settlement	0.173635134023	City	0.165807351676	Place	0.141836474797	PopulatedPlace	0.141836474797	Country	0.126247475867	Currency	0.106457885286	Company	0.0939384255803	Organisation	0.0833285252748	Agent	0.0695461193249	Region	0.0531918381677		GOLD_STANDARD:	
HK$_**_http://dbpedia.org/resource/Hong_Kong_dollar	Town	0.0885902460333	Settlement	0.0795038616974	City	0.0757644116231	Company	0.0671885372218	Organisation	0.0608975662725	Bank	0.0556548773934	Agent	0.0486208927284	AdministrativeRegion	0.0344536144798	Region	0.0344536144798	PopulatedPlace	0.0324225965429		GOLD_STANDARD:	Currency
Rangarajan_**_http://dbpedia.org/resource/C._Rangarajan	OfficeHolder	0.795479755009	Person	0.795479755009	Bank	0.180395253324	Agent	0.173174201661	Company	0.122963510509	Organisation	0.107381492811	Country	0.0408678207826	City	0.0212845381142	PopulatedPlace	0.0111523777679	Place	0.0111523777679		GOLD_STANDARD:	Agent	Person	OfficeHolder
KinderCare Learning Centers Inc_**_http://dbpedia.org/resource/KinderCare_Learning_Centers	Town	0.42923769033	AdministrativeRegion	0.183266161055	Region	0.183266161055	Settlement	0.119866407862	City	0.116512760742	Bank	0.0818632880215	PopulatedPlace	0.0633913634316	Place	0.0633913634316	Organisation	0.061422113749	Agent	0.0577147325718		GOLD_STANDARD:	Agent	Organisation	Company
Belgium_**_http://dbpedia.org/resource/Belgium	Country	0.211102017738	Bank	0.178423520644	Company	0.104635898514	Organisation	0.088554079166	PopulatedPlace	0.0693296904792	Place	0.0693296904792	Agent	0.0689838754064	Settlement	-0.00794525262331	AdministrativeRegion	-0.0120851813789	Region	-0.0120851813789		GOLD_STANDARD:	Place	PopulatedPlace	Country
YMCA_**_http://dbpedia.org/resource/YMCA	Town	0.291933807689	Region	0.152032183639	AdministrativeRegion	0.152032183639	City	0.0650435569812	Settlement	0.0565741038635	PopulatedPlace	0.0131941980026	Place	0.0131941980026	Currency	-0.00830311417046	OfficeHolder	-0.0170328369524	Person	-0.0170328369524		GOLD_STANDARD:	Agent	Organisation
Mostostal_**_http://dbpedia.org/resource/Mostostal	Company	0.165310424152	Currency	0.15745341593	Bank	0.148057918793	Organisation	0.147046891634	Agent	0.112250448069	Country	0.109431416866	Settlement	0.0931205142359	Place	0.0876314480716	PopulatedPlace	0.0876314480716	Town	0.0751399143956		GOLD_STANDARD:	Agent
Ohio_**_http://dbpedia.org/resource/Ohio	Town	0.220642189514	AdministrativeRegion	0.183539909351	Region	0.183539909351	City	0.084849423226	PopulatedPlace	0.0815182398598	Place	0.0815182398598	Country	0.077575738501	Settlement	0.0726740032273	Bank	0.0570407149218	Organisation	0.0524045172304		GOLD_STANDARD:	
Bombay_**_http://dbpedia.org/resource/Mumbai	OfficeHolder	0.218815976595	Person	0.218815976595	City	0.115185540783	Country	0.103042134218	Bank	0.098283549901	Agent	0.0981291133477	Settlement	0.0931888370662	Currency	0.0881605703314	PopulatedPlace	0.0862069508801	Place	0.0862069508801		GOLD_STANDARD:	Place	PopulatedPlace	Settlement	City
Fairview_**_http://dbpedia.org/resource/Fairview,_Texas	AdministrativeRegion	0.218525787436	Region	0.218525787436	Organisation	0.0923036167829	Currency	0.0885902460333	Company	0.0741554176096	Agent	0.0712133987498	Bank	0.0592994697171	City	0.0342811848866	Settlement	0.0130125696989	OfficeHolder	-0.0039457636554		GOLD_STANDARD:	Place	PopulatedPlace	Settlement	Town
C. Rangarajan_**_http://dbpedia.org/resource/C._Rangarajan	OfficeHolder	0.795479755009	Person	0.795479755009	Agent	0.14612482743	Bank	0.114123548922	Company	0.0888857875022	Organisation	0.0839748908738	Town	0.0780701274678	City	0.0503265011568	Settlement	0.0454809361827	AdministrativeRegion	0.0431041662461		GOLD_STANDARD:	Agent	Person	OfficeHolder
SWEDEN_**_http://dbpedia.org/resource/Sweden	Currency	0.20107680357	Settlement	0.158172922652	City	0.131262178724	PopulatedPlace	0.109962701817	Place	0.109962701817	Region	0.0716983088734	AdministrativeRegion	0.0716983088734	Country	0.039631467719	Company	0.0377770127915	Organisation	0.0343075986967		GOLD_STANDARD:	Place	PopulatedPlace	Country
Poland_**_http://dbpedia.org/resource/Poland	Country	0.289877823913	Bank	0.141966164682	PopulatedPlace	0.120093059609	Place	0.120093059609	Company	0.113073810075	Organisation	0.0938875928536	Agent	0.0916478825995	Region	0.0319314890189	AdministrativeRegion	0.0319314890189	Settlement	0.0247374533516		GOLD_STANDARD:	Place	PopulatedPlace	Country
TORONTO_**_http://dbpedia.org/resource/Toronto	AdministrativeRegion	0.206648598867	Region	0.206648598867	City	0.191783250585	Settlement	0.186639292213	Currency	0.172617954995	Place	0.110640462872	PopulatedPlace	0.110640462872	Town	0.10206011388	OfficeHolder	0.0201474525991	Person	0.0201474525991		GOLD_STANDARD:	Place	PopulatedPlace	Settlement	City
HONG KONG_**_http://dbpedia.org/resource/Hong_Kong	Currency	0.270232011461	City	0.245703823187	Settlement	0.212838069479	Place	0.137136669004	PopulatedPlace	0.137136669004	Bank	0.0874748850648	Company	0.0708646344842	Country	0.0707239563122	Organisation	0.0613079723693	Agent	0.0450778073844		GOLD_STANDARD:	Place	PopulatedPlace	Country
Nasdaq_**_http://dbpedia.org/resource/NASDAQ	Bank	0.173510796873	Company	0.133320669524	Organisation	0.118423812668	Currency	0.115995393959	City	0.106366758752	Agent	0.094506604578	Settlement	0.0767112673999	PopulatedPlace	0.051729562809	Place	0.051729562809	Country	0.0339624683435		GOLD_STANDARD:	
BAYERISCHE VEREINSBANK_**_http://dbpedia.org/resource/HypoVereinsbank	Currency	0.380984113812	Settlement	0.22087656869	City	0.211431169879	PopulatedPlace	0.155648054107	Place	0.155648054107	Region	0.124803173027	AdministrativeRegion	0.124803173027	Bank	0.0892387734899	Town	0.0868082456483	Company	0.0706402224676		GOLD_STANDARD:	Agent	Organisation	Company
United States_**_http://dbpedia.org/resource/United_States	Country	0.228395740736	PopulatedPlace	0.0978452401161	Place	0.0978452401161	Bank	0.076170480874	Company	0.0645867111291	Organisation	0.0534727055795	City	0.0441025441824	Settlement	0.0326064274721	Agent	0.0282230831147	AdministrativeRegion	0.0200320362263		GOLD_STANDARD:	Place	PopulatedPlace	Country
European_**_http://dbpedia.org/resource/European_Union	Country	0.311695587515	Bank	0.143239711026	Place	0.103923347352	PopulatedPlace	0.103923347352	Company	0.0841466232923	Organisation	0.0661734882474	Agent	0.0535781542436	Settlement	0.00539859022483	City	-0.019074274987	OfficeHolder	-0.0279814600077		GOLD_STANDARD:	Place	PopulatedPlace	Country
WASHINGTON_**_http://dbpedia.org/resource/Washington,_D.C.	City	0.23913828128	Settlement	0.180403017858	AdministrativeRegion	0.17904732641	Region	0.17904732641	PopulatedPlace	0.136442618541	Place	0.136442618541	Country	0.0855449666816	Town	0.0816503287145	Organisation	0.00737740384901	Company	0.00144925707051		GOLD_STANDARD:	Place	PopulatedPlace	Settlement
TOKYO_**_http://dbpedia.org/resource/Tokyo	City	0.217568693858	Settlement	0.197592725863	Currency	0.135821620249	PopulatedPlace	0.133531553024	Place	0.133531553024	Country	0.100110357231	Company	0.0484576494625	Organisation	0.0415184834118	Bank	0.0389134268054	AdministrativeRegion	0.0259929547859		GOLD_STANDARD:	Place	PopulatedPlace	Settlement	City
Tokyo-Mitsubishi Bank_**_http://dbpedia.org/resource/The_Bank_of_Tokyo-Mitsubishi_UFJ	Bank	0.365857694726	Company	0.269102904025	Organisation	0.23085173958	Agent	0.226875217391	OfficeHolder	0.213681256765	Person	0.213681256765	Country	0.110624356322	Currency	0.102613824834	Town	0.081831078664	PopulatedPlace	0.0421197950588		GOLD_STANDARD:	Agent	Organisation	Company	Bank
BRUSSELS_**_http://dbpedia.org/resource/Brussels	City	0.129065205635	Settlement	0.125474431792	Place	0.0994523932697	PopulatedPlace	0.0994523932697	Country	0.0962898009644	OfficeHolder	0.0645257425417	Person	0.0645257425417	Currency	0.0393933879868	Company	0.0226892533144	AdministrativeRegion	0.0181926958586		GOLD_STANDARD:	Place	PopulatedPlace	Settlement
GERMAN_**_http://dbpedia.org/resource/Germany	Currency	0.223191476738	Settlement	0.148780914094	City	0.139960614178	PopulatedPlace	0.107957162576	Place	0.107957162576	AdministrativeRegion	0.0958267338842	Region	0.0958267338842	Country	0.0379591326917	Organisation	0.00178263154358	Company	0.00139279775109		GOLD_STANDARD:	Place	PopulatedPlace	Country
Reuters_**_http://dbpedia.org/resource/Reuters	OfficeHolder	0.209346944299	Person	0.209346944299	Bank	0.0760252255101	Agent	0.0556250887195	Company	0.0351716888099	Organisation	0.0312502674687	Country	0.0282018788502	AdministrativeRegion	0.00892392322735	Region	0.00892392322735	Place	-0.0096223882073		GOLD_STANDARD:	Agent	Organisation	Company
Gazprom_**_http://dbpedia.org/resource/Gazprom	Country	0.188660488581	Company	0.185233328806	Bank	0.167558299498	Organisation	0.153887385844	Agent	0.135658191649	PopulatedPlace	0.0685287966499	Place	0.0685287966499	AdministrativeRegion	0.0114815700784	Region	0.0114815700784	Person	0.00765539759575		GOLD_STANDARD:	Agent	Organisation	Company
Ala_**_http://dbpedia.org/resource/Alabama	Town	0.172183365869	Currency	0.136017580287	AdministrativeRegion	0.111249876634	Region	0.111249876634	City	0.0767241503358	Settlement	0.0737060779172	OfficeHolder	0.0444804090144	Person	0.0444804090144	PopulatedPlace	0.0321481757912	Place	0.0321481757912		GOLD_STANDARD:	
Munich Re_**_http://dbpedia.org/resource/Munich_Re	Bank	0.207980322311	Company	0.159714939559	Organisation	0.140278346062	Agent	0.127765739779	Country	0.110400428336	Town	0.0616417013553	OfficeHolder	0.0554034526783	Person	0.0554034526783	Place	0.0532096177292	PopulatedPlace	0.0532096177292		GOLD_STANDARD:	Agent	Organisation	Company	Bank
S&P_**_http://dbpedia.org/resource/Standard_&_Poor's	Bank	0.156842553027	OfficeHolder	0.114527251168	Person	0.114527251168	Company	0.0947146556959	Agent	0.0850961929202	Organisation	0.0770806374891	Currency	0.0513906310629	City	0.0397195335497	Town	0.0238865769377	Settlement	0.0110763975761		GOLD_STANDARD:	Agent	Organisation	Company	Bank
DAX_**_http://dbpedia.org/resource/DAX	Bank	0.193426019263	Company	0.114418922391	Organisation	0.09406279499	Country	0.0926674981443	City	0.0875428709331	Currency	0.083616577261	Agent	0.0775999426505	Settlement	0.0694640805019	PopulatedPlace	0.0579285142581	Place	0.0579285142581		GOLD_STANDARD:	
NEW DELHI_**_http://dbpedia.org/resource/New_Delhi	City	0.282509155209	Settlement	0.2448995719	PopulatedPlace	0.169455489975	Place	0.169455489975	Currency	0.148949476908	Region	0.104960351015	AdministrativeRegion	0.104960351015	Country	0.0921059586658	OfficeHolder	0.0542790377164	Person	0.0542790377164		GOLD_STANDARD:	Place	PopulatedPlace	Settlement	City
Seattle_**_http://dbpedia.org/resource/Seattle	Region	0.266361101424	AdministrativeRegion	0.266361101424	Town	0.151035375619	City	0.117810454922	PopulatedPlace	0.103679110279	Place	0.103679110279	Settlement	0.0975299922176	Country	0.0670574031853	Agent	0.020090173399	Organisation	0.0187422034697		GOLD_STANDARD:	Place	PopulatedPlace	Settlement	City
SWEDISH_**_http://dbpedia.org/resource/Sweden	Currency	0.234060989751	Settlement	0.2040826587	City	0.192452513222	PopulatedPlace	0.144399519183	Place	0.144399519183	AdministrativeRegion	0.125819691779	Region	0.125819691779	OfficeHolder	0.0627216284135	Person	0.0627216284135	Country	0.0597777294599		GOLD_STANDARD:	Place	PopulatedPlace	Country
RBI_**_http://dbpedia.org/resource/Reserve_Bank_of_India	OfficeHolder	0.493127255594	Person	0.493127255594	Bank	0.204386016631	Agent	0.147825528333	Company	0.12057618359	Organisation	0.102327433609	Country	0.0587967298598	City	0.0288882251154	PopulatedPlace	0.0196620192427	Place	0.0196620192427		GOLD_STANDARD:	Agent
India_**_http://dbpedia.org/resource/India	OfficeHolder	0.286664888768	Person	0.286664888768	Country	0.22613131455	Bank	0.148783611442	Agent	0.124836551228	PopulatedPlace	0.117971866818	Place	0.117971866818	City	0.102637284659	Company	0.101115381269	Organisation	0.0893763700387		GOLD_STANDARD:	Place	PopulatedPlace	Country
NEW YORK_**_http://dbpedia.org/resource/New_York_City	City	0.312170396058	Settlement	0.259225103534	PopulatedPlace	0.170726611373	Place	0.170726611373	AdministrativeRegion	0.143257321255	Region	0.143257321255	Currency	0.102402929381	Country	0.0684866192602	Town	0.0407259564737	Company	0.03039272847		GOLD_STANDARD:	Place	PopulatedPlace	Settlement	City
MONTGOMERY_**_http://dbpedia.org/resource/Montgomery,_Alabama	City	0.222058274891	Currency	0.218358161476	Region	0.201108341862	AdministrativeRegion	0.201108341862	Settlement	0.183026361959	PopulatedPlace	0.147773929395	Place	0.147773929395	Town	0.0999566870582	Country	0.0679004059005	Organisation	0.00555478380582		GOLD_STANDARD:	Place	PopulatedPlace	Settlement
MUNICH_**_http://dbpedia.org/resource/Munich	Settlement	0.176081661946	Town	0.139640944605	City	0.131742616622	PopulatedPlace	0.121966516002	Place	0.121966516002	Company	0.098565455227	Organisation	0.0879695854151	Country	0.0818531586473	AdministrativeRegion	0.0609378692908	Region	0.0609378692908		GOLD_STANDARD:	Place	PopulatedPlace	Settlement	City
Russian Trading System_**_http://dbpedia.org/resource/Russian_Trading_System	Country	0.191985809989	Company	0.166478749494	Organisation	0.134564718641	Bank	0.116896292626	Agent	0.10939323911	PopulatedPlace	0.103954887158	Place	0.103954887158	City	0.0687590763488	Settlement	0.0629848862387	AdministrativeRegion	0.0445384979215		GOLD_STANDARD:	
LIBOR_**_http://dbpedia.org/resource/London_Interbank_Offered_Rate	Bank	0.124749275575	OfficeHolder	0.102495114476	Person	0.102495114476	Company	0.0990532165906	Currency	0.0938911710899	Agent	0.0885663760054	Organisation	0.0840125938194	AdministrativeRegion	0.0274228743441	Region	0.0274228743441	PopulatedPlace	0.0158364558435		GOLD_STANDARD:	
IPO_**_http://dbpedia.org/resource/Intellectual_Property_Owners_Association	Currency	0.187914410398	Bank	0.124510912546	Company	0.123287749809	Organisation	0.105140400722	Agent	0.0931202264404	Town	0.0375656329651	City	0.022542255884	Settlement	0.0145968877997	AdministrativeRegion	0.00778893393673	Region	0.00778893393673		GOLD_STANDARD:	
New Delhi_**_http://dbpedia.org/resource/New_Delhi	Country	0.150654748863	City	0.120514919295	Bank	0.118174474726	Place	0.107509887942	PopulatedPlace	0.107509887942	OfficeHolder	0.0999980939237	Person	0.0999980939237	Settlement	0.0925669293927	Organisation	0.0821877180285	Agent	0.0818805729859		GOLD_STANDARD:	Place	PopulatedPlace	Settlement	City
Russian_**_http://dbpedia.org/resource/Russia	Country	0.249887952852	Company	0.112794044082	PopulatedPlace	0.107351611037	Place	0.107351611037	Organisation	0.0893331285726	Agent	0.0713561402069	Bank	0.0493994645726	AdministrativeRegion	0.0487017074312	Region	0.0487017074312	Settlement	0.0297444796721		GOLD_STANDARD:	Place	PopulatedPlace	Country
Indian_**_http://dbpedia.org/resource/India	OfficeHolder	0.282743773624	Person	0.282743773624	Country	0.174018770297	City	0.154899734074	PopulatedPlace	0.12589130542	Place	0.12589130542	Settlement	0.116562791132	Agent	0.0894667770199	Region	0.0716623740957	AdministrativeRegion	0.0716623740957		GOLD_STANDARD:	Place	PopulatedPlace	Country
Ka Wah Bank_**_http://dbpedia.org/resource/Ka_Wah_Bank	Bank	0.30368379061	Currency	0.266891102105	Town	0.217606378004	Company	0.200405108825	Organisation	0.180676534571	Agent	0.175012173946	OfficeHolder	0.143466797899	Person	0.143466797899	Country	0.0568873091032	Settlement	0.0437549351693		GOLD_STANDARD:	Agent	Organisation	Company
Gujarat_**_http://dbpedia.org/resource/Gujarat	OfficeHolder	0.264960798756	Person	0.264960798756	City	0.123011844502	Currency	0.111882164398	AdministrativeRegion	0.109452068229	Region	0.109452068229	Agent	0.0931170228406	Country	0.08722228357	PopulatedPlace	0.0782615200067	Place	0.0782615200067		GOLD_STANDARD:	Place	PopulatedPlace	Settlement
Polish_**_http://dbpedia.org/resource/Poland	Country	0.234916966175	Company	0.127028968892	PopulatedPlace	0.122318380177	Place	0.122318380177	Bank	0.116902493011	Agent	0.114152350769	Organisation	0.105516924868	Settlement	0.0773101799516	City	0.038670491825	Region	0.0220370254532		GOLD_STANDARD:	Place	PopulatedPlace	Country
Wash_**_http://dbpedia.org/resource/Washington_(U.S._state)	Town	0.28948756169	Currency	0.220669114766	AdministrativeRegion	0.187307901495	Region	0.187307901495	Settlement	0.165036370948	City	0.158268635811	PopulatedPlace	0.0725148284068	Place	0.0725148284068	Organisation	0.0547699503317	Company	0.0419621376042		GOLD_STANDARD:	
Germany_**_http://dbpedia.org/resource/Germany	Country	0.307874391336	Bank	0.155191973864	PopulatedPlace	0.10602672223	Place	0.10602672223	Company	0.0966619007692	Organisation	0.0751916831249	Agent	0.052155323417	Settlement	-0.00238433264061	City	-0.00761628017763	Region	-0.0170020111799		GOLD_STANDARD:	Place	PopulatedPlace	Country
Russia_**_http://dbpedia.org/resource/Russia	Country	0.299889142593	Company	0.129054950919	PopulatedPlace	0.110820517014	Place	0.110820517014	Organisation	0.103394709583	Bank	0.0964465253273	Agent	0.0818787033529	Region	0.0336269789734	AdministrativeRegion	0.0336269789734	Settlement	0.000554260861617		GOLD_STANDARD:	Place	PopulatedPlace	Country
Akron_**_http://dbpedia.org/resource/Akron,_Ohio	Town	0.418504374265	Region	0.230764687626	AdministrativeRegion	0.230764687626	Settlement	0.118509711599	City	0.114076217869	PopulatedPlace	0.0757828279723	Place	0.0757828279723	Organisation	0.0298432356547	Agent	0.00882398242816	Company	0.00354185894403		GOLD_STANDARD:	Place	PopulatedPlace	Settlement	City
European Union_**_http://dbpedia.org/resource/European_Union	Country	0.297549405845	Bank	0.156458044105	PopulatedPlace	0.101641763291	Place	0.101641763291	Company	0.101398217817	Organisation	0.0820780477847	Agent	0.062748261308	Settlement	0.00703778172125	City	-0.0196387918264	OfficeHolder	-0.0325005970715		GOLD_STANDARD:	Place	PopulatedPlace	Country
GMT_**_http://dbpedia.org/resource/Greenwich_Mean_Time	Bank	0.0759814494844	Currency	0.0560574004207	Company	0.0517693758868	Country	0.0444151339574	Organisation	0.0367607861341	Agent	0.0302887827257	City	0.0265426428289	PopulatedPlace	0.0138934341878	Place	0.0138934341878	Settlement	0.0122017080789		GOLD_STANDARD:	
