American_**_http://dbpedia.org/resource/United_States	Legislature	0.179355803181	ArchitecturalStructure	0.164545392363	Building	0.164545392363	Governor	0.149602089151	SocietalEvent	0.125386577351	Event	0.125386577351	MilitaryConflict	0.125386577351	Region	0.123160558302	AdministrativeRegion	0.123160558302	Country	0.109772480986		GOLD_STANDARD:	Place	PopulatedPlace	Country
Kentucky_**_http://dbpedia.org/resource/Kentucky	Governor	0.2351223932	Region	0.21527162357	AdministrativeRegion	0.21527162357	ArchitecturalStructure	0.139490402545	Building	0.139490402545	SocietalEvent	0.0906228291408	Event	0.0906228291408	MilitaryConflict	0.0906228291408	Place	0.0863775898119	OfficeHolder	0.0861980153036		GOLD_STANDARD:	
Jack Kemp_**_http://dbpedia.org/resource/Jack_Kemp	Governor	0.453321216673	Town	0.29789285516	OfficeHolder	0.264844147652	Person	0.241163359211	ArchitecturalStructure	0.201666013772	Building	0.201666013772	Company	0.191682311738	Agent	0.186062418847	Politician	0.168143829955	President	0.117325175854		GOLD_STANDARD:	Agent	Person	OfficeHolder
BOSTON_**_http://dbpedia.org/resource/Boston	Settlement	0.109561475701	TelevisionStation	0.106107663062	Region	0.100734047341	AdministrativeRegion	0.100734047341	Broadcaster	0.0947734397521	BroadcastNetwork	0.0891063280971	City	0.0840130884828	PopulatedPlace	0.0718353033462	Place	0.0711481214813	Legislature	0.0580679857983		GOLD_STANDARD:	Place	PopulatedPlace	Settlement
Supreme Court_**_http://dbpedia.org/resource/Supreme_Court_of_the_United_States	Legislature	0.156282692176	ArchitecturalStructure	0.154438077008	Building	0.154438077008	PoliticalParty	0.124716883338	Organisation	0.119515999402	GovernmentAgency	0.10357801082	MilitaryUnit	0.103108922871	SocietalEvent	0.0893286662544	Event	0.0893286662544	MilitaryConflict	0.0893286662544		GOLD_STANDARD:	
Agent Orange_**_http://dbpedia.org/resource/Agent_Orange	GovernmentAgency	0.287009299189	Governor	0.24200952722	ArchitecturalStructure	0.179174330141	Building	0.179174330141	Company	0.124386303982	OfficeHolder	0.114362996216	Region	0.109249901098	AdministrativeRegion	0.109249901098	BroadcastNetwork	0.108947967657	Person	0.104172010057		GOLD_STANDARD:	
Soviet Union_**_http://dbpedia.org/resource/Soviet_Union	SocietalEvent	0.200631756834	Event	0.200631756834	MilitaryConflict	0.200631756834	Legislature	0.199139062963	PoliticalParty	0.18137064804	Island	0.170260181965	Country	0.16749237407	Organisation	0.149649153973	PopulatedPlace	0.106227420905	Place	0.10565292586		GOLD_STANDARD:	Place	PopulatedPlace	Country
Democratic National Convention_**_http://dbpedia.org/resource/Democratic_National_Convention	PoliticalParty	0.411427465015	Organisation	0.303564644043	Legislature	0.274485160942	SocietalEvent	0.173473101888	Event	0.173473101888	MilitaryConflict	0.173473101888	Agent	0.169233097863	ArchitecturalStructure	0.139490439007	Building	0.139490439007	MilitaryUnit	0.133709967984		GOLD_STANDARD:	
Carroll Campbell_**_http://dbpedia.org/resource/Carroll_A._Campbell,_Jr.	Town	0.267943416054	ArchitecturalStructure	0.26682517959	Building	0.26682517959	OfficeHolder	0.249630518169	Person	0.228336321147	Company	0.223306659649	Agent	0.179262543757	Region	0.163283079266	AdministrativeRegion	0.163283079266	Politician	0.114905068009		GOLD_STANDARD:	Agent	Person	Politician	Governor
SDA_**_http://dbpedia.org/resource/Party_of_Democratic_Action	PoliticalParty	0.129568298407	Organisation	0.100543103348	ArchitecturalStructure	0.0786479833011	Building	0.0786479833011	City	0.0738486433043	Company	0.061343563461	TelevisionStation	0.0598035760217	Settlement	0.0578076493642	Island	0.0555912893748	SocietalEvent	0.0542319102981		GOLD_STANDARD:	Agent	Organisation	PoliticalParty
League of Women Voters_**_http://dbpedia.org/resource/League_of_Women_Voters	PoliticalParty	0.204880588544	Legislature	0.185756439926	Organisation	0.169662703454	SocietalEvent	0.103358030888	Event	0.103358030888	MilitaryConflict	0.103358030888	ArchitecturalStructure	0.103225056904	Building	0.103225056904	Company	0.0979410807626	MilitaryUnit	0.0976387211088		GOLD_STANDARD:	Agent	Organisation
Kornblum_**_http://dbpedia.org/resource/John_C._Kornblum	Governor	0.235072492628	GovernmentAgency	0.17675781411	ArchitecturalStructure	0.165380673505	Building	0.165380673505	OfficeHolder	0.156075011248	Person	0.155038320808	Agent	0.12501967982	Town	0.10920990712	Politician	0.10515202512	Legislature	0.0999535943502		GOLD_STANDARD:	Agent	Person
National Human Rights Commission_**_http://dbpedia.org/resource/National_Human_Rights_Commission_(Mexico)	Legislature	0.230598291181	PoliticalParty	0.21794101718	Organisation	0.201121980375	SocietalEvent	0.172659512522	Event	0.172659512522	MilitaryConflict	0.172659512522	ArchitecturalStructure	0.147869685627	Building	0.147869685627	MilitaryUnit	0.141175929971	BroadcastNetwork	0.132079481776		GOLD_STANDARD:	
Patriotic Salvation Movement_**_http://dbpedia.org/resource/Patriotic_Salvation_Movement	PoliticalParty	0.296399433377	SocietalEvent	0.262979326642	Event	0.262979326642	MilitaryConflict	0.262979326642	Organisation	0.212525937408	Legislature	0.184047113881	MilitaryUnit	0.137285305626	Country	0.11745833203	Agent	0.110539121539	ArchitecturalStructure	0.107454818069		GOLD_STANDARD:	Agent	Organisation	PoliticalParty
Mexico City_**_http://dbpedia.org/resource/Mexico_City	Legislature	0.180925546894	City	0.140940467299	ArchitecturalStructure	0.132262456827	Building	0.132262456827	Region	0.129175874523	AdministrativeRegion	0.129175874523	Settlement	0.120290723789	Place	0.116098627774	PopulatedPlace	0.115885945812	Country	0.113141500302		GOLD_STANDARD:	Place	PopulatedPlace	Settlement
Bill Clinton_**_http://dbpedia.org/resource/Bill_Clinton	Governor	0.283259238553	OfficeHolder	0.259698171125	Person	0.234201926946	President	0.230867091676	ArchitecturalStructure	0.227564378296	Building	0.227564378296	Politician	0.227001161954	Agent	0.187070768217	Company	0.145198378821	Town	0.135344234793		GOLD_STANDARD:	Agent	Person	Politician	President
Serbs_**_http://dbpedia.org/resource/Serbia	Island	0.365389623131	Country	0.177601324425	City	0.123117889558	PopulatedPlace	0.11040494388	Place	0.108745350241	Settlement	0.0864321504541	SocietalEvent	0.0827907073624	Event	0.0827907073624	MilitaryConflict	0.0827907073624	PoliticalParty	0.0569892471723		GOLD_STANDARD:	Place	PopulatedPlace	Country
Senegal_**_http://dbpedia.org/resource/Senegal	SocietalEvent	0.111087437787	Event	0.111087437787	MilitaryConflict	0.111087437787	Country	0.0998842920574	Island	0.0969568434462	PopulatedPlace	0.0747694294157	Place	0.0739254546464	Settlement	0.0704858297723	PrimeMinister	0.0676617916738	President	0.0650788216552		GOLD_STANDARD:	Place	PopulatedPlace	Country
NATO_**_http://dbpedia.org/resource/NATO	Island	0.252793503723	MilitaryUnit	0.243170947214	SocietalEvent	0.148658481298	Event	0.148658481298	MilitaryConflict	0.148658481298	PrimeMinister	0.0952251326203	Country	0.0951699093007	TelevisionStation	0.0900030871842	GovernmentAgency	0.0848812720381	Company	0.0745002942509		GOLD_STANDARD:	Agent	Organisation
Srinagar_**_http://dbpedia.org/resource/Srinagar	City	0.0785809179967	Settlement	0.0624299370935	PopulatedPlace	0.0577751369396	Place	0.0569215951188	MilitaryUnit	0.0559913048494	Country	0.0470989521115	Legislature	0.0452700026525	Region	0.0423309537408	AdministrativeRegion	0.0423309537408	Town	0.0416004806194		GOLD_STANDARD:	Place	PopulatedPlace	Settlement	City
Banja Luka_**_http://dbpedia.org/resource/Banja_Luka	Island	0.209768451365	Country	0.151673500636	City	0.151467270534	Settlement	0.117001960273	PopulatedPlace	0.10927038419	Place	0.107930356164	PrimeMinister	0.0755531255953	SocietalEvent	0.0552024126836	Event	0.0552024126836	MilitaryConflict	0.0552024126836		GOLD_STANDARD:	Place	PopulatedPlace	Settlement	City
Colorado_**_http://dbpedia.org/resource/Colorado	Region	0.189320548812	AdministrativeRegion	0.189320548812	Governor	0.139597855598	City	0.105362896528	Settlement	0.093503958246	PopulatedPlace	0.0902867614781	Place	0.0901965044893	OfficeHolder	0.0881759794686	ArchitecturalStructure	0.0833369733391	Building	0.0833369733391		GOLD_STANDARD:	
Mobutu Sese Seko_**_http://dbpedia.org/resource/Mobutu_Sese_Seko	President	0.201528898835	Politician	0.148852752166	SocietalEvent	0.0787224604587	Event	0.0787224604587	MilitaryConflict	0.0787224604587	PrimeMinister	0.072442556321	Person	0.0652206576854	Settlement	0.0607878524278	City	0.0560662154465	Country	0.0557409134951		GOLD_STANDARD:	Agent	Person	Politician	President
Balkans_**_http://dbpedia.org/resource/Balkans	Country	0.154910841119	SocietalEvent	0.145968660475	Event	0.145968660475	MilitaryConflict	0.145968660475	TelevisionStation	0.115173559384	PopulatedPlace	0.094378910916	Place	0.0932985231836	City	0.0811706368917	GovernmentAgency	0.0751609574772	PrimeMinister	0.0728758574307		GOLD_STANDARD:	Place	PopulatedPlace	Island
Transcendental Meditation_**_http://dbpedia.org/resource/Transcendental_Meditation	SocietalEvent	0.0747391164126	Event	0.0747391164126	MilitaryConflict	0.0747391164126	Governor	0.0712729378893	ArchitecturalStructure	0.0586894268775	Building	0.0586894268775	Company	0.0551254563452	PoliticalParty	0.0467863144738	City	0.045018996122	TelevisionStation	0.0421293664247		GOLD_STANDARD:	
Toomas Savi_**_http://dbpedia.org/resource/Toomas_Savi	President	0.150640123288	PrimeMinister	0.140280198564	Politician	0.130140144023	Country	0.0937992086011	City	0.0765700002805	Person	0.0727762098022	OfficeHolder	0.0700660569104	Settlement	0.0671153711369	PopulatedPlace	0.0653482055681	Place	0.0650218557932		GOLD_STANDARD:	Agent	Person
Hungarian_**_http://dbpedia.org/resource/Hungary	Country	0.160354383868	Island	0.117158152066	PopulatedPlace	0.0988920769859	Place	0.0984646578431	SocietalEvent	0.0880470312379	Event	0.0880470312379	MilitaryConflict	0.0880470312379	PoliticalParty	0.0769261395028	City	0.071946937089	ArchitecturalStructure	0.0659808029888		GOLD_STANDARD:	Place	PopulatedPlace	Country
Biljana Plavsic_**_http://dbpedia.org/resource/Biljana_Plavšić	PrimeMinister	0.192252727282	Island	0.179553202697	Governor	0.151329217376	City	0.127903691872	Country	0.125368066691	Politician	0.11494372601	Person	0.108353586135	OfficeHolder	0.0996048599761	Settlement	0.0978880205946	PopulatedPlace	0.0907096628448		GOLD_STANDARD:	
Republican Party_**_http://dbpedia.org/resource/Republican_Party_(United_States)	PoliticalParty	0.553219867259	Organisation	0.367135552436	Legislature	0.251579098889	ArchitecturalStructure	0.222390888968	Building	0.222390888968	Agent	0.219912200856	OfficeHolder	0.169679137765	Person	0.13960855454	Governor	0.135075063486	SocietalEvent	0.121510460477		GOLD_STANDARD:	Agent	Organisation	PoliticalParty
Mobutu_**_http://dbpedia.org/resource/Mobutu_Sese_Seko	President	0.18939997198	Politician	0.13978442405	SocietalEvent	0.116942508884	Event	0.116942508884	MilitaryConflict	0.116942508884	PrimeMinister	0.0860717428199	GovernmentAgency	0.0689172524125	MilitaryUnit	0.0651733979661	Country	0.0602420693906	PoliticalParty	0.0600053379222		GOLD_STANDARD:	Agent	Person	Politician	President
Daschle_**_http://dbpedia.org/resource/Tom_Daschle	OfficeHolder	0.245014310277	Person	0.190664160488	Agent	0.172457542425	PoliticalParty	0.172089752212	ArchitecturalStructure	0.161196729998	Building	0.161196729998	TelevisionStation	0.146688647627	Organisation	0.14074278838	Legislature	0.127024733706	Town	0.11764251173		GOLD_STANDARD:	Agent	Person	OfficeHolder
Congress_**_http://dbpedia.org/resource/United_States_Congress	PoliticalParty	0.185392794719	ArchitecturalStructure	0.176603171402	Building	0.176603171402	Organisation	0.150233051476	SocietalEvent	0.0983095957419	Event	0.0983095957419	MilitaryConflict	0.0983095957419	Agent	0.0873746950674	Country	0.0790102102974	MilitaryUnit	0.0740456186664		GOLD_STANDARD:	Agent	Organisation	Legislature
North_**_http://dbpedia.org/resource/North_Kivu	Region	0.139609359575	AdministrativeRegion	0.139609359575	Governor	0.137705557738	SocietalEvent	0.131053862679	Event	0.131053862679	MilitaryConflict	0.131053862679	Company	0.118488501521	ArchitecturalStructure	0.0995512035534	Building	0.0995512035534	Place	0.0876856087156		GOLD_STANDARD:	Place	PopulatedPlace	Settlement
Guerrero_**_http://dbpedia.org/resource/Guerrero	Legislature	0.213207371129	Governor	0.0971838565609	PrimeMinister	0.0728028046924	ArchitecturalStructure	0.0594430166306	Building	0.0594430166306	Island	0.051774440484	Country	0.0514905979436	Settlement	0.0501832173076	OfficeHolder	0.0488594873065	Place	0.0484355487779		GOLD_STANDARD:	Place	PopulatedPlace	Settlement
Sarah_**_http://dbpedia.org/resource/Sarah_Brady	Governor	0.35616784884	OfficeHolder	0.195715116326	Person	0.190082005548	Company	0.184773827752	Town	0.165985364189	ArchitecturalStructure	0.16423158224	Building	0.16423158224	Agent	0.14720956033	Politician	0.130181011964	President	0.0976290196059		GOLD_STANDARD:	Agent	Person
Dayton_**_http://dbpedia.org/resource/Dayton,_Ohio	Governor	0.218503299339	Region	0.19121818335	AdministrativeRegion	0.19121818335	MilitaryUnit	0.104879567596	City	0.0969679609201	PopulatedPlace	0.0935536151355	Place	0.0934939958069	BroadcastNetwork	0.092217881154	Town	0.0890563355344	ArchitecturalStructure	0.088962926835		GOLD_STANDARD:	Place	PopulatedPlace	Settlement	City
ABC_**_http://dbpedia.org/resource/American_Broadcasting_Company	BroadcastNetwork	0.861195719438	Broadcaster	0.643471310771	TelevisionStation	0.425746902105	Company	0.169930169037	GovernmentAgency	0.115421293175	ArchitecturalStructure	0.103284206527	Building	0.103284206527	Organisation	0.0849148883345	PrimeMinister	0.0833808740763	Governor	0.064631080609		GOLD_STANDARD:	Agent	Organisation	Broadcaster	BroadcastNetwork
Mass_**_http://dbpedia.org/resource/Massachusetts	Governor	0.092554196622	City	0.0833859226914	Company	0.0788772054021	Region	0.0774714738634	AdministrativeRegion	0.0774714738634	SocietalEvent	0.0758944239998	Event	0.0758944239998	MilitaryConflict	0.0758944239998	Settlement	0.0688854458285	ArchitecturalStructure	0.06857851762		GOLD_STANDARD:	
Gephardt_**_http://dbpedia.org/resource/Dick_Gephardt	OfficeHolder	0.231865743436	ArchitecturalStructure	0.203844257895	Building	0.203844257895	Person	0.188036816211	PoliticalParty	0.169213923327	Agent	0.1689541301	Organisation	0.135713322036	President	0.133357203674	Politician	0.129481268811	Governor	0.120806085274		GOLD_STANDARD:	Agent	Person	OfficeHolder
Democratic_**_http://dbpedia.org/resource/Democratic_Party_(United_States)	PoliticalParty	0.429799923179	Organisation	0.286303204603	Agent	0.165021086713	Legislature	0.164746358675	SocietalEvent	0.148968952175	Event	0.148968952175	MilitaryConflict	0.148968952175	OfficeHolder	0.107078539774	ArchitecturalStructure	0.104525729273	Building	0.104525729273		GOLD_STANDARD:	Agent	Organisation	PoliticalParty
Estonian_**_http://dbpedia.org/resource/Estonia	Country	0.141064933054	PrimeMinister	0.0856165674234	PopulatedPlace	0.0839995597759	SocietalEvent	0.0834353304303	Event	0.0834353304303	MilitaryConflict	0.0834353304303	Place	0.0832495438969	President	0.0793835429997	PoliticalParty	0.0759229892799	Politician	0.0657533402561		GOLD_STANDARD:	Place	PopulatedPlace	Country
European Union_**_http://dbpedia.org/resource/European_Union	Island	0.224883405091	Legislature	0.195273548246	PoliticalParty	0.180862275071	Country	0.170150252816	Organisation	0.156326699186	SocietalEvent	0.120998290352	Event	0.120998290352	MilitaryConflict	0.120998290352	PopulatedPlace	0.120584488603	Place	0.120109323881		GOLD_STANDARD:	Place	PopulatedPlace	Country
Croat_**_http://dbpedia.org/resource/Croatia	Island	0.234910204528	Country	0.187728882385	City	0.141569436912	PopulatedPlace	0.120480077316	Place	0.119105240935	Settlement	0.103555090166	SocietalEvent	0.0889622391625	Event	0.0889622391625	MilitaryConflict	0.0889622391625	PoliticalParty	0.0774278810157		GOLD_STANDARD:	Place	PopulatedPlace	Country
Hungary_**_http://dbpedia.org/resource/Hungary	Island	0.264218779848	Country	0.140677347523	SocietalEvent	0.115545778763	Event	0.115545778763	MilitaryConflict	0.115545778763	PrimeMinister	0.0998280632828	PopulatedPlace	0.0925161158605	Place	0.0917247724389	City	0.0788889553903	BroadcastNetwork	0.0762266716665		GOLD_STANDARD:	Place	PopulatedPlace	Country
Wisconsin_**_http://dbpedia.org/resource/Wisconsin	Region	0.207329392044	AdministrativeRegion	0.207329392044	Governor	0.136813496583	City	0.104414260636	Town	0.102431822914	Settlement	0.0880832254792	PopulatedPlace	0.0845129294362	Place	0.0841418394842	PoliticalParty	0.0794223812078	OfficeHolder	0.0677368533381		GOLD_STANDARD:	
Doboj_**_http://dbpedia.org/resource/Doboj	Island	0.198118765176	City	0.171605343749	Country	0.126452229591	Settlement	0.10963632376	PopulatedPlace	0.0953338167883	Place	0.093974563451	PrimeMinister	0.0576471724626	MilitaryUnit	0.0376763618135	SocietalEvent	0.0288537515287	Event	0.0288537515287		GOLD_STANDARD:	Place	PopulatedPlace	Settlement
Newt Gingrich_**_http://dbpedia.org/resource/Newt_Gingrich	ArchitecturalStructure	0.207285996588	Building	0.207285996588	OfficeHolder	0.205268548461	Person	0.16186863727	TelevisionStation	0.152707196781	Agent	0.144009199463	PoliticalParty	0.138320044959	Organisation	0.112899211024	Town	0.0985304159947	Politician	0.0921113254027		GOLD_STANDARD:	Agent	Person	OfficeHolder
Moslem_**_http://dbpedia.org/resource/Islam	Island	0.197018010361	Country	0.118113847473	SocietalEvent	0.10094675189	Event	0.10094675189	MilitaryConflict	0.10094675189	PoliticalParty	0.0786960766947	PopulatedPlace	0.0747011200959	Place	0.0740838036441	City	0.0690133657581	Organisation	0.0661777115708		GOLD_STANDARD:	
Serb_**_http://dbpedia.org/resource/Serbia	Island	0.303173406537	Country	0.214197746017	City	0.147294336082	PopulatedPlace	0.135788344986	Place	0.1342636762	SocietalEvent	0.119516460105	Event	0.119516460105	MilitaryConflict	0.119516460105	Settlement	0.110142765575	PoliticalParty	0.0947165324985		GOLD_STANDARD:	Place	PopulatedPlace	Country
Islamic_**_http://dbpedia.org/resource/Islam	Island	0.167504111852	SocietalEvent	0.11664668862	Event	0.11664668862	MilitaryConflict	0.11664668862	TelevisionStation	0.111987669872	Country	0.0940362812531	Organisation	0.0887761891302	Broadcaster	0.0863325321161	PoliticalParty	0.0848896137546	MilitaryUnit	0.0839202725975		GOLD_STANDARD:	
Scotland_**_http://dbpedia.org/resource/Scotland	Governor	0.149167970249	Company	0.0822371832235	PoliticalParty	0.0771646456918	PopulatedPlace	0.0749748418718	Place	0.0746027114007	Region	0.0745442213025	AdministrativeRegion	0.0745442213025	Country	0.073717053919	Organisation	0.0679124333287	City	0.0628115619804		GOLD_STANDARD:	Place	PopulatedPlace
Kurt Schork_**_http://dbpedia.org/resource/Kurt_Schork	Governor	0.241135955402	OfficeHolder	0.157704828864	Person	0.151817025665	PrimeMinister	0.143243484035	Company	0.127658219805	Politician	0.126161817687	Town	0.116849563649	Agent	0.111709669476	GovernmentAgency	0.103142972084	BroadcastNetwork	0.100937737653		GOLD_STANDARD:	Agent	Person
Republicans_**_http://dbpedia.org/resource/Republican_Party_(United_States)	PoliticalParty	0.348651164251	Organisation	0.243805722877	ArchitecturalStructure	0.206138242042	Building	0.206138242042	OfficeHolder	0.174930486829	Legislature	0.17378544379	Agent	0.171280507591	Person	0.131721299253	GovernmentAgency	0.119194554419	Town	0.0910725360038		GOLD_STANDARD:	Agent	Organisation	PoliticalParty
Ohio_**_http://dbpedia.org/resource/Ohio	Region	0.242352516429	AdministrativeRegion	0.242352516429	Governor	0.222004485993	City	0.125565590553	PopulatedPlace	0.105054409918	Settlement	0.105033760981	Place	0.104965651535	ArchitecturalStructure	0.0982200143989	Building	0.0982200143989	OfficeHolder	0.0835256683515		GOLD_STANDARD:	
Weld_**_http://dbpedia.org/resource/William_Weld	Governor	0.260435729895	OfficeHolder	0.207841254679	ArchitecturalStructure	0.193039340399	Building	0.193039340399	Person	0.170073515548	Town	0.148165765672	Agent	0.135032783369	Company	0.133316013829	Politician	0.0916397113522	PoliticalParty	0.090159316105		GOLD_STANDARD:	Agent	Person	OfficeHolder
Popular Revolutionary Army_**_http://dbpedia.org/resource/Popular_Revolutionary_Army	SocietalEvent	0.388273435453	Event	0.388273435453	MilitaryConflict	0.388273435453	PoliticalParty	0.262332129409	MilitaryUnit	0.247638957444	Legislature	0.22917905298	Organisation	0.200812521226	Country	0.122432369688	Agent	0.108184559549	ArchitecturalStructure	0.0946528162597		GOLD_STANDARD:	
Slobodan Milosevic_**_http://dbpedia.org/resource/Slobodan_Milošević	Island	0.233870171784	Country	0.155120404614	PrimeMinister	0.142657404167	City	0.138509361472	PopulatedPlace	0.105204057218	Place	0.103640547287	Settlement	0.100077571889	Politician	0.0796801685992	SocietalEvent	0.0778810043112	Event	0.0778810043112		GOLD_STANDARD:	
Britain_**_http://dbpedia.org/resource/United_Kingdom	SocietalEvent	0.189942431743	Event	0.189942431743	MilitaryConflict	0.189942431743	Island	0.130173965393	PoliticalParty	0.120628834455	ArchitecturalStructure	0.106824371387	Building	0.106824371387	Organisation	0.0976791527263	Country	0.0966093720837	Governor	0.0904999753057		GOLD_STANDARD:	Place	PopulatedPlace	Country
White House_**_http://dbpedia.org/resource/White_House	Governor	0.26682517959	Company	0.185328157917	OfficeHolder	0.179337284666	Legislature	0.176603171402	Organisation	0.160638739827	Agent	0.156752596967	Person	0.154562225536	PoliticalParty	0.15331180117	Town	0.114445187166	BroadcastNetwork	0.114291731059		GOLD_STANDARD:	
Zaire_**_http://dbpedia.org/resource/Democratic_Republic_of_the_Congo	President	0.147955110595	SocietalEvent	0.143967003983	Event	0.143967003983	MilitaryConflict	0.143967003983	Politician	0.111357772045	Settlement	0.0894573904901	City	0.078527919761	Island	0.0740416760373	MilitaryUnit	0.0645277589262	PopulatedPlace	0.0620757594137		GOLD_STANDARD:	Place	PopulatedPlace	Country
John Kerry_**_http://dbpedia.org/resource/John_Kerry	Governor	0.40852473879	OfficeHolder	0.242327460925	Person	0.23309427986	ArchitecturalStructure	0.214907835394	Building	0.214907835394	Company	0.210520280752	Politician	0.179852069819	Town	0.179259728862	Agent	0.179249453465	President	0.13784247614		GOLD_STANDARD:	Agent	Person	OfficeHolder
Zagreb_**_http://dbpedia.org/resource/Zagreb	City	0.171239203013	Island	0.154501574047	Country	0.142843187351	Settlement	0.119916611276	PopulatedPlace	0.111331897698	Place	0.109911839006	PrimeMinister	0.0546149333036	Governor	0.0477998767401	Legislature	0.0459549959143	Region	0.0457143879897		GOLD_STANDARD:	Place	PopulatedPlace	Settlement	City
Meri_**_http://dbpedia.org/resource/Lennart_Meri	President	0.175847115085	Politician	0.127987846542	Person	0.0645797591436	OfficeHolder	0.0564929268412	BroadcastNetwork	0.0561350764108	Agent	0.0535087185093	PrimeMinister	0.0526383916876	City	0.0490677600433	Broadcaster	0.040978011642	PoliticalParty	0.0403442938103		GOLD_STANDARD:	Agent	Person	Politician	President
GREEK_**_http://dbpedia.org/resource/Greece	PrimeMinister	0.126661477669	Settlement	0.110226519273	TelevisionStation	0.0768145104092	Broadcaster	0.0761823534886	BroadcastNetwork	0.0758662750283	City	0.0641480234749	PopulatedPlace	0.0592062643364	Place	0.0586628117395	Island	0.0531685062334	Politician	0.0463424623884		GOLD_STANDARD:	Place	PopulatedPlace	Country
Gupta_**_http://dbpedia.org/resource/Indrajit_Gupta	TelevisionStation	0.125234838446	Legislature	0.120454594189	PrimeMinister	0.10585202445	President	0.0941256762497	Broadcaster	0.0894139697291	Politician	0.0891719728725	Company	0.0842724947662	ArchitecturalStructure	0.0835880003143	Building	0.0835880003143	City	0.0722989008692		GOLD_STANDARD:	Agent	Person	OfficeHolder
West Virginia_**_http://dbpedia.org/resource/West_Virginia	Governor	0.244830239384	Region	0.238061887878	AdministrativeRegion	0.238061887878	ArchitecturalStructure	0.157067176991	Building	0.157067176991	Company	0.122412653422	Place	0.109502364135	PopulatedPlace	0.108876511335	Town	0.101757421188	Settlement	0.0987794318298		GOLD_STANDARD:	
South Dakota_**_http://dbpedia.org/resource/South_Dakota	Region	0.194736430731	AdministrativeRegion	0.194736430731	ArchitecturalStructure	0.177769166457	Building	0.177769166457	Governor	0.161976254363	SocietalEvent	0.144048059581	Event	0.144048059581	MilitaryConflict	0.144048059581	Settlement	0.119299837992	Company	0.114412503513		GOLD_STANDARD:	
Belgrade_**_http://dbpedia.org/resource/Belgrade	Island	0.262659820917	City	0.183689204959	Country	0.169028279577	Settlement	0.132456176747	PopulatedPlace	0.129578794765	Place	0.128577583993	Governor	0.0677103762469	Legislature	0.0534091324099	ArchitecturalStructure	0.0524855653258	Building	0.0524855653258		GOLD_STANDARD:	Place	PopulatedPlace	Settlement	City
Costis Stephanopoulos_**_http://dbpedia.org/resource/Konstantinos_Stephanopoulos	PrimeMinister	0.52396100766	Politician	0.175767510385	BroadcastNetwork	0.17073526401	Broadcaster	0.169051865167	TelevisionStation	0.165685067482	OfficeHolder	0.142156285918	Person	0.141492431143	President	0.139140625557	Island	0.125054327928	Agent	0.122146995864		GOLD_STANDARD:	Agent	Person	Politician	President
House of Representatives_**_http://dbpedia.org/resource/House_of_Representatives	ArchitecturalStructure	0.700055173817	Building	0.700055173817	Legislature	0.24327354216	PoliticalParty	0.219631366303	Organisation	0.177134401224	Governor	0.154213925328	OfficeHolder	0.13734897543	Agent	0.132546362099	Region	0.117002456483	AdministrativeRegion	0.117002456483		GOLD_STANDARD:	Agent	Organisation
Costas Simitis_**_http://dbpedia.org/resource/Costas_Simitis	President	0.14464872138	Politician	0.137043263563	Person	0.099982478191	OfficeHolder	0.0996205229413	Governor	0.0951947515499	Agent	0.0889483137013	BroadcastNetwork	0.0849384961963	Broadcaster	0.0834896425964	TelevisionStation	0.0805919353965	PoliticalParty	0.0780540138284		GOLD_STANDARD:	Agent	Person	Politician	PrimeMinister
Reeve_**_http://dbpedia.org/resource/Christopher_Reeve	Governor	0.306196390717	Town	0.184948208227	OfficeHolder	0.149037498239	Person	0.147950973497	Company	0.145298003524	Agent	0.111360857849	ArchitecturalStructure	0.103742104016	Building	0.103742104016	Politician	0.0852635744921	President	0.0578804301343		GOLD_STANDARD:	Agent	Person
William Weld_**_http://dbpedia.org/resource/William_Weld	Governor	0.379715178131	Company	0.313141359982	OfficeHolder	0.267634309261	ArchitecturalStructure	0.241485289516	Building	0.241485289516	Person	0.229573575997	Town	0.196490871308	Agent	0.181420507872	Politician	0.130705603744	Region	0.108719706018		GOLD_STANDARD:	Agent	Person	OfficeHolder
Reagan_**_http://dbpedia.org/resource/Ronald_Reagan	OfficeHolder	0.203885614507	Person	0.174893386835	President	0.17049755774	ArchitecturalStructure	0.155697410344	Building	0.155697410344	Agent	0.15022540973	Politician	0.143973495418	PoliticalParty	0.138912590041	GovernmentAgency	0.124549906695	Organisation	0.107255385098		GOLD_STANDARD:	Agent	Person	OfficeHolder
Michigan_**_http://dbpedia.org/resource/Michigan	Region	0.233609152942	AdministrativeRegion	0.233609152942	City	0.152575486436	ArchitecturalStructure	0.14056910244	Building	0.14056910244	Governor	0.124954179275	Town	0.120612478828	Settlement	0.12042490143	Place	0.111222569187	PopulatedPlace	0.110836430592		GOLD_STANDARD:	
New Delhi_**_http://dbpedia.org/resource/New_Delhi	City	0.166804438147	Settlement	0.128959787789	BroadcastNetwork	0.116055480638	Legislature	0.107563538743	Company	0.103981811249	Broadcaster	0.103672663093	PopulatedPlace	0.103468391858	Place	0.103281776533	SocietalEvent	0.102252112974	Event	0.102252112974		GOLD_STANDARD:	Place	PopulatedPlace	Settlement	City
Serbia_**_http://dbpedia.org/resource/Serbia	Island	0.379596368699	Country	0.201848301298	City	0.16042972434	PopulatedPlace	0.135714086711	Place	0.134097806011	Settlement	0.116744167665	SocietalEvent	0.0939130206536	Event	0.0939130206536	MilitaryConflict	0.0939130206536	PrimeMinister	0.0874182350704		GOLD_STANDARD:	Place	PopulatedPlace	Country
Party of Democratic Action_**_http://dbpedia.org/resource/Party_of_Democratic_Action	PoliticalParty	0.507083612955	Organisation	0.352502951922	Legislature	0.273712509694	Agent	0.184679572455	SocietalEvent	0.176043919568	Event	0.176043919568	MilitaryConflict	0.176043919568	ArchitecturalStructure	0.171461815827	Building	0.171461815827	MilitaryUnit	0.120455565918		GOLD_STANDARD:	Agent	Organisation	PoliticalParty
Chicago_**_http://dbpedia.org/resource/Chicago	ArchitecturalStructure	0.188665445837	Building	0.188665445837	Governor	0.179214005633	Region	0.161506929817	AdministrativeRegion	0.161506929817	City	0.138118398484	Settlement	0.113540649966	OfficeHolder	0.0991120519103	Place	0.0978154656165	PopulatedPlace	0.0966200711399		GOLD_STANDARD:	Place	PopulatedPlace	Settlement	City
Scottish_**_http://dbpedia.org/resource/Scotland	Governor	0.182609821111	PoliticalParty	0.136601625893	Organisation	0.0938751053514	Country	0.090477271662	Company	0.0802218787993	PopulatedPlace	0.0724163047809	Place	0.0723539865719	ArchitecturalStructure	0.0676178026906	Building	0.0676178026906	Agent	0.0635671568606		GOLD_STANDARD:	Place	PopulatedPlace
Moslems_**_http://dbpedia.org/resource/Islam	Island	0.164542778731	Country	0.0794691017325	TelevisionStation	0.0780431485219	PoliticalParty	0.0669199831423	Organisation	0.0570341564157	Legislature	0.0476180888241	GovernmentAgency	0.0474143320617	PopulatedPlace	0.0441371214852	Place	0.0434303206092	SocietalEvent	0.0423000057177		GOLD_STANDARD:	
Tom Daschle_**_http://dbpedia.org/resource/Tom_Daschle	OfficeHolder	0.284744833349	Person	0.230017106489	Governor	0.201859399678	Agent	0.19555382453	Town	0.19194641579	ArchitecturalStructure	0.180942517881	Building	0.180942517881	PoliticalParty	0.159975454129	Politician	0.140362459564	TelevisionStation	0.139672793786		GOLD_STANDARD:	Agent	Person	OfficeHolder
GMT_**_http://dbpedia.org/resource/Greenwich_Mean_Time	BroadcastNetwork	0.102487713027	Broadcaster	0.097490791689	TelevisionStation	0.0874969490135	Legislature	0.0576489541883	MilitaryUnit	0.0559580853385	Island	0.0542811175865	Company	0.0514090812756	Region	0.039778388058	AdministrativeRegion	0.039778388058	City	0.0331520017407		GOLD_STANDARD:	
Massachusetts_**_http://dbpedia.org/resource/Massachusetts	Region	0.175261198746	AdministrativeRegion	0.175261198746	Governor	0.15405074114	ArchitecturalStructure	0.133482124634	Building	0.133482124634	City	0.101647300911	SocietalEvent	0.0992816412119	Event	0.0992816412119	MilitaryConflict	0.0992816412119	Company	0.0938295748099		GOLD_STANDARD:	
Scottish Labour Party_**_http://dbpedia.org/resource/Scottish_Labour_Party	PoliticalParty	0.513342044778	Organisation	0.33920103702	Legislature	0.213736881923	Agent	0.17297275092	Governor	0.138026628275	SocietalEvent	0.127449466979	Event	0.127449466979	MilitaryConflict	0.127449466979	ArchitecturalStructure	0.126626074262	Building	0.126626074262		GOLD_STANDARD:	Agent	Organisation	PoliticalParty
Serbian_**_http://dbpedia.org/resource/Serbia	Island	0.265149250364	Country	0.204336702728	City	0.13970909442	PopulatedPlace	0.130482495888	Place	0.129283935599	Settlement	0.0999413189143	SocietalEvent	0.0631990061013	Event	0.0631990061013	MilitaryConflict	0.0631990061013	PrimeMinister	0.0615113031015		GOLD_STANDARD:	Place	PopulatedPlace	Country
Greek_**_http://dbpedia.org/resource/Greece	PrimeMinister	0.37146651925	Island	0.141030836007	Country	0.107945910671	Politician	0.079320220543	PoliticalParty	0.0603732798413	PopulatedPlace	0.0600929844629	Place	0.0595231022541	SocietalEvent	0.0550102158395	Event	0.0550102158395	MilitaryConflict	0.0550102158395		GOLD_STANDARD:	Place	PopulatedPlace	Country
Perot_**_http://dbpedia.org/resource/Ross_Perot	OfficeHolder	0.177044406472	PoliticalParty	0.174543607863	Person	0.157979818528	Agent	0.145889630835	Organisation	0.124829303886	Governor	0.114354174193	President	0.112441439578	Politician	0.108828468317	ArchitecturalStructure	0.0990030347173	Building	0.0990030347173		GOLD_STANDARD:	Agent	Person
ATHENS_**_http://dbpedia.org/resource/Athens	PrimeMinister	0.134478067583	Settlement	0.118682883904	BroadcastNetwork	0.103978375177	Broadcaster	0.102586371875	TelevisionStation	0.0998023652713	City	0.0859500453784	PopulatedPlace	0.0759795055775	Island	0.0751794711909	Place	0.0751349928808	Country	0.0585172370999		GOLD_STANDARD:	
John Kornblum_**_http://dbpedia.org/resource/John_C._Kornblum	Governor	0.388108728324	OfficeHolder	0.253430198382	Person	0.24342644115	ArchitecturalStructure	0.229502371112	Building	0.229502371112	Company	0.191439462507	Agent	0.188531308715	Town	0.166827763146	Politician	0.162483335007	GovernmentAgency	0.157906263737		GOLD_STANDARD:	Agent	Person
Gingrich_**_http://dbpedia.org/resource/Newt_Gingrich	OfficeHolder	0.205681500898	ArchitecturalStructure	0.195378321137	Building	0.195378321137	TelevisionStation	0.169151865193	Person	0.161876287966	PoliticalParty	0.151139152019	Agent	0.147659501678	Organisation	0.122894777177	Town	0.0989369022148	Politician	0.0923961636719		GOLD_STANDARD:	Agent	Person	OfficeHolder
ABC News_**_http://dbpedia.org/resource/American_Broadcasting_Company	BroadcastNetwork	0.861195719438	Broadcaster	0.709519612386	TelevisionStation	0.557843505334	Company	0.234410635584	GovernmentAgency	0.130756644522	Organisation	0.127701520999	ArchitecturalStructure	0.125299255592	Building	0.125299255592	Governor	0.0932476307504	Agent	0.0878446856635		GOLD_STANDARD:	Agent	Organisation	Broadcaster	BroadcastNetwork
Dole_**_http://dbpedia.org/resource/Bob_Dole	OfficeHolder	0.212569198639	Person	0.175074781975	President	0.154629072718	ArchitecturalStructure	0.148817673105	Building	0.148817673105	Agent	0.142451647464	Politician	0.134544491626	PoliticalParty	0.105031737171	Company	0.0868533328928	Organisation	0.0856242518622		GOLD_STANDARD:	Agent	Person	OfficeHolder
Conservative_**_http://dbpedia.org/resource/Conservative_Party_(UK)	PoliticalParty	0.39610717379	Organisation	0.250536484281	Agent	0.141213408793	Governor	0.105103434246	OfficeHolder	0.0953940930944	Person	0.0815826403443	ArchitecturalStructure	0.0789676879059	Building	0.0789676879059	PrimeMinister	0.0783248472165	Company	0.0769591435619		GOLD_STANDARD:	Agent	Organisation	PoliticalParty
British Labour Party_**_http://dbpedia.org/resource/Labour_Party_(UK)	PoliticalParty	0.523044797208	Organisation	0.34963787494	Legislature	0.233666488511	Agent	0.17960016951	SocietalEvent	0.168008124181	Event	0.168008124181	MilitaryConflict	0.168008124181	ArchitecturalStructure	0.1524410564	Building	0.1524410564	PrimeMinister	0.133287885486		GOLD_STANDARD:	Agent	Organisation	PoliticalParty
Bosnia_**_http://dbpedia.org/resource/Bosnia	Island	0.362348402282	Country	0.199094546762	City	0.16969551159	PopulatedPlace	0.13938229303	Place	0.137806175889	Settlement	0.130709612384	SocietalEvent	0.0935255998354	Event	0.0935255998354	MilitaryConflict	0.0935255998354	PrimeMinister	0.0794345279079		GOLD_STANDARD:	
Lebanese_**_http://dbpedia.org/resource/Lebanon	Island	0.159571488667	SocietalEvent	0.148268059391	Event	0.148268059391	MilitaryConflict	0.148268059391	Country	0.147600350165	TelevisionStation	0.0990568127428	Company	0.0964921271768	PopulatedPlace	0.0961544578359	Place	0.095484850857	PrimeMinister	0.085747257016		GOLD_STANDARD:	Place	PopulatedPlace	Country
Ross Perot_**_http://dbpedia.org/resource/Ross_Perot	Governor	0.277731750295	OfficeHolder	0.225469176821	Person	0.206516018324	Agent	0.178237846703	PoliticalParty	0.171355910261	ArchitecturalStructure	0.157715688969	Building	0.157715688969	Politician	0.144422544539	Town	0.137536695643	Organisation	0.128979096137		GOLD_STANDARD:	Agent	Person
Culpepper_**_http://dbpedia.org/resource/Culpeper,_Virginia	Governor	0.267943416054	OfficeHolder	0.15510173095	Person	0.138266638992	ArchitecturalStructure	0.114445187166	Building	0.114445187166	Agent	0.100228749247	Company	0.0906193625832	Politician	0.0824250741614	Region	0.0642126799237	AdministrativeRegion	0.0642126799237		GOLD_STANDARD:	Place	PopulatedPlace	Settlement	Town
Tony Blair_**_http://dbpedia.org/resource/Tony_Blair	Governor	0.396730293138	OfficeHolder	0.224310247701	Person	0.210865973536	Town	0.204317797096	ArchitecturalStructure	0.188733424072	Building	0.188733424072	PrimeMinister	0.187468582233	Politician	0.183920631705	Agent	0.168279502691	Company	0.166674693639		GOLD_STANDARD:	Agent	Person	OfficeHolder
Richard Gephardt_**_http://dbpedia.org/resource/Dick_Gephardt	OfficeHolder	0.29446274659	ArchitecturalStructure	0.260648176687	Building	0.260648176687	Person	0.245671038863	Governor	0.229462083166	Agent	0.207920874363	PoliticalParty	0.171524935826	Politician	0.163116849642	President	0.151996939082	Organisation	0.142162523298		GOLD_STANDARD:	Agent	Person	OfficeHolder
Reuters_**_http://dbpedia.org/resource/Reuters	TelevisionStation	0.517523252327	Broadcaster	0.389314547502	BroadcastNetwork	0.325210195089	GovernmentAgency	0.128473868018	Organisation	0.0956336378782	MilitaryUnit	0.0881363454419	SocietalEvent	0.0760512508149	Event	0.0760512508149	MilitaryConflict	0.0760512508149	Island	0.0725964455015		GOLD_STANDARD:	Agent	Organisation	Company
John Major_**_http://dbpedia.org/resource/John_Major	Governor	0.336553325326	ArchitecturalStructure	0.197358496049	Building	0.197358496049	Company	0.191131944258	OfficeHolder	0.187723978549	Person	0.183937808201	Agent	0.149233487101	MilitaryUnit	0.146126085915	Politician	0.133392185074	Town	0.128454965998		GOLD_STANDARD:	Agent	Person	OfficeHolder
Republican_**_http://dbpedia.org/resource/Republican_Party_(United_States)	PoliticalParty	0.377348311476	Organisation	0.256369668454	ArchitecturalStructure	0.213211368654	Building	0.213211368654	OfficeHolder	0.208342360641	Agent	0.195789891074	Person	0.162746376139	Governor	0.159246829339	Legislature	0.147870138974	Region	0.110705649738		GOLD_STANDARD:	Agent	Organisation	PoliticalParty
English_**_http://dbpedia.org/resource/England	Governor	0.0962326277137	ArchitecturalStructure	0.0950118274383	Building	0.0950118274383	Country	0.090095442831	Place	0.0682749016853	PopulatedPlace	0.0679231000306	City	0.0613597618094	Company	0.0594422180482	PoliticalParty	0.0577742810461	Island	0.0517503578829		GOLD_STANDARD:	Place	PopulatedPlace
Thomas Daschle_**_http://dbpedia.org/resource/Tom_Daschle	OfficeHolder	0.309330499211	Person	0.253486666246	Governor	0.235341594001	ArchitecturalStructure	0.23218109742	Building	0.23218109742	Agent	0.216880257845	Town	0.19985796828	PoliticalParty	0.177360523582	Company	0.16427290027	Organisation	0.153114256115		GOLD_STANDARD:	Agent	Person	OfficeHolder
Soviet_**_http://dbpedia.org/resource/Soviet_Union	SocietalEvent	0.209114410166	Event	0.209114410166	MilitaryConflict	0.209114410166	Island	0.162805547919	Legislature	0.140562507408	Country	0.140379942278	PoliticalParty	0.123435952952	GovernmentAgency	0.11979073871	Organisation	0.0992747444872	PopulatedPlace	0.0801697859206		GOLD_STANDARD:	Place	PopulatedPlace	Country
Conservative Party_**_http://dbpedia.org/resource/Conservative_Party_(UK)	PoliticalParty	0.552084523906	Organisation	0.355406704087	Legislature	0.198841771278	Agent	0.18227324947	ArchitecturalStructure	0.136556414051	Building	0.136556414051	PrimeMinister	0.107277789393	Governor	0.0998367325467	OfficeHolder	0.0981329504512	SocietalEvent	0.0971574935945		GOLD_STANDARD:	Agent	Organisation	PoliticalParty
Kashmir_**_http://dbpedia.org/resource/Kashmir	Island	0.110304080868	SocietalEvent	0.10573018417	Event	0.10573018417	MilitaryConflict	0.10573018417	City	0.0973449383318	Country	0.0774404210181	Settlement	0.0769772368118	PopulatedPlace	0.0685467176906	Place	0.0675892819409	MilitaryUnit	0.06538858037		GOLD_STANDARD:	Place	PopulatedPlace
San Diego_**_http://dbpedia.org/resource/San_Diego	Region	0.134701773625	AdministrativeRegion	0.134701773625	Governor	0.126327167891	City	0.0964667973188	Settlement	0.0897668454247	Company	0.0841374785467	TelevisionStation	0.0783419705581	PopulatedPlace	0.077766689874	Place	0.0773139026397	GovernmentAgency	0.0744931565361		GOLD_STANDARD:	Place	PopulatedPlace	Settlement	City
Washington_**_http://dbpedia.org/resource/Washington,_D.C.	Governor	0.192773259504	Region	0.1795324967	AdministrativeRegion	0.1795324967	ArchitecturalStructure	0.133510385927	Building	0.133510385927	City	0.124754663268	Legislature	0.121327450115	Company	0.119725792976	GovernmentAgency	0.110632049326	TelevisionStation	0.107529339117		GOLD_STANDARD:	Place	PopulatedPlace	Settlement
Texas_**_http://dbpedia.org/resource/Texas	Region	0.198310820059	AdministrativeRegion	0.198310820059	Governor	0.171392742201	Company	0.0913661015174	PopulatedPlace	0.0909794865097	Place	0.0909436536904	ArchitecturalStructure	0.0882203594191	Building	0.0882203594191	City	0.0880680391238	Settlement	0.0841894831327		GOLD_STANDARD:	
Milosevic_**_http://dbpedia.org/resource/Slobodan_Milošević	Island	0.230494754382	Country	0.130244958554	PrimeMinister	0.119967013996	City	0.119562917626	GovernmentAgency	0.103580881856	PopulatedPlace	0.0901257054265	Place	0.088852867051	Settlement	0.0868124754487	SocietalEvent	0.0781053915003	Event	0.0781053915003		GOLD_STANDARD:	
Brady_**_http://dbpedia.org/resource/James_Brady	Governor	0.394222919902	Town	0.371643778281	OfficeHolder	0.221782252922	Person	0.202617313441	ArchitecturalStructure	0.16775546145	Building	0.16775546145	Agent	0.149828883045	Politician	0.134897665618	Company	0.121180426369	GovernmentAgency	0.103040894102		GOLD_STANDARD:	Agent	Person	OfficeHolder
India_**_http://dbpedia.org/resource/India	SocietalEvent	0.120059971212	Event	0.120059971212	MilitaryConflict	0.120059971212	Legislature	0.101767235032	City	0.0997842601857	TelevisionStation	0.0879411091307	Broadcaster	0.0836718289937	BroadcastNetwork	0.0815371889252	Region	0.0803335836272	AdministrativeRegion	0.0803335836272		GOLD_STANDARD:	Place	PopulatedPlace	Country
Commission on Presidential Debates_**_http://dbpedia.org/resource/Commission_on_Presidential_Debates	ArchitecturalStructure	0.251259496645	Building	0.251259496645	Legislature	0.239354500474	PoliticalParty	0.215140164442	Organisation	0.198911609555	TelevisionStation	0.192757097999	MilitaryUnit	0.181601508544	SocietalEvent	0.161571349834	Event	0.161571349834	MilitaryConflict	0.161571349834		GOLD_STANDARD:	Agent	Organisation
Lebanon_**_http://dbpedia.org/resource/Lebanon	Island	0.213312585605	SocietalEvent	0.198580069429	Event	0.198580069429	MilitaryConflict	0.198580069429	Country	0.12063868754	PopulatedPlace	0.095975658346	Place	0.0954979660838	MilitaryUnit	0.0900071936557	TelevisionStation	0.0897336481113	Region	0.0875301866083		GOLD_STANDARD:	Place	PopulatedPlace	Country
John Hagelin_**_http://dbpedia.org/resource/John_Hagelin	Governor	0.291082744427	OfficeHolder	0.230175189746	Person	0.211790216112	Agent	0.169465779046	Town	0.168924089927	Politician	0.151619005898	Company	0.14998852521	PrimeMinister	0.14229496057	President	0.119183252377	ArchitecturalStructure	0.117892224204		GOLD_STANDARD:	Agent	Person
Virginia_**_http://dbpedia.org/resource/Virginia	Region	0.236496601147	AdministrativeRegion	0.236496601147	Governor	0.229374033536	Town	0.127168071175	ArchitecturalStructure	0.122913985638	Building	0.122913985638	Company	0.100852271995	OfficeHolder	0.0952784596622	Place	0.0912872040231	PopulatedPlace	0.0908710621598		GOLD_STANDARD:	
William Hill_**_http://dbpedia.org/resource/William_Hill_(bookmaker)	Governor	0.412978136769	ArchitecturalStructure	0.32626098479	Building	0.32626098479	OfficeHolder	0.217017506185	Person	0.197534071055	Town	0.182963031663	Agent	0.158633896733	Politician	0.124889686596	SocietalEvent	0.122316132028	Event	0.122316132028		GOLD_STANDARD:	Agent	Organisation	Company
Natural Law Party_**_http://dbpedia.org/resource/Natural_Law_Party_(United_States)	PoliticalParty	0.385167259478	Organisation	0.278203571242	Legislature	0.230382060109	ArchitecturalStructure	0.207532696718	Building	0.207532696718	Agent	0.157728544938	SocietalEvent	0.139895316645	Event	0.139895316645	MilitaryConflict	0.139895316645	Governor	0.134436945906		GOLD_STANDARD:	Agent	Organisation	PoliticalParty
FBI_**_http://dbpedia.org/resource/Federal_Bureau_of_Investigation	TelevisionStation	0.182191693944	Broadcaster	0.142789877214	BroadcastNetwork	0.123088968848	ArchitecturalStructure	0.104965160878	Building	0.104965160878	Company	0.0968079345453	SocietalEvent	0.0909775362431	Event	0.0909775362431	MilitaryConflict	0.0909775362431	Organisation	0.0865049325498		GOLD_STANDARD:	Agent	Organisation	GovernmentAgency
Mexican_**_http://dbpedia.org/resource/Mexico	Legislature	0.290977034608	Country	0.0939669777182	PoliticalParty	0.0751670437623	PopulatedPlace	0.0678194290274	Place	0.0674129530412	PrimeMinister	0.0638970058724	Organisation	0.0607733108969	BroadcastNetwork	0.0553643792546	Settlement	0.054383191387	Island	0.0468205408728		GOLD_STANDARD:	Place	PopulatedPlace	Country
James Brady_**_http://dbpedia.org/resource/James_Brady	Governor	0.517541103225	Town	0.369285645092	OfficeHolder	0.273855203676	Person	0.25458051793	ArchitecturalStructure	0.225153590255	Building	0.225153590255	Company	0.210406061151	Agent	0.191643470566	Politician	0.173750564747	President	0.109321958722		GOLD_STANDARD:	Agent	Person	OfficeHolder
Richard Lamm_**_http://dbpedia.org/resource/Richard_Lamm	Governor	0.288841232084	OfficeHolder	0.249211877027	Person	0.22194941297	ArchitecturalStructure	0.194378433617	Building	0.194378433617	Agent	0.171304888473	Politician	0.155271578479	Town	0.145963042882	Company	0.143750815958	President	0.127581358798		GOLD_STANDARD:	Agent	Person	OfficeHolder
Mike McCurry_**_http://dbpedia.org/resource/Mike_McCurry_(press_secretary)	Governor	0.259586163149	OfficeHolder	0.194875849739	Town	0.191129418924	Person	0.176281439696	ArchitecturalStructure	0.13153410704	Building	0.13153410704	Agent	0.13101916462	PrimeMinister	0.125653570855	Politician	0.124396765779	TelevisionStation	0.110035603203		GOLD_STANDARD:	Agent	Person	Politician
America_**_http://dbpedia.org/resource/United_States	Island	0.206294989264	SocietalEvent	0.162982562985	Event	0.162982562985	MilitaryConflict	0.162982562985	Region	0.125837725519	AdministrativeRegion	0.125837725519	BroadcastNetwork	0.121248270289	Broadcaster	0.121140433626	TelevisionStation	0.120924760299	Legislature	0.120206750234		GOLD_STANDARD:	Place	PopulatedPlace	Country
Franklin Roosevelt_**_http://dbpedia.org/resource/Franklin_D._Roosevelt	Governor	0.280618851565	OfficeHolder	0.199395141232	Person	0.181094756266	ArchitecturalStructure	0.173309432717	Building	0.173309432717	Agent	0.148702806846	Politician	0.141044408658	President	0.139417213464	Town	0.129955948346	Region	0.119008650731		GOLD_STANDARD:	Agent	Person	OfficeHolder
Gore_**_http://dbpedia.org/resource/Al_Gore	Governor	0.260065522098	OfficeHolder	0.210817740114	Person	0.186618725291	ArchitecturalStructure	0.149166466596	Building	0.149166466596	Agent	0.146193011158	Politician	0.143767188296	President	0.141026707987	Company	0.135704915099	Town	0.124132303648		GOLD_STANDARD:	Agent	Person	OfficeHolder
Lennart Meri_**_http://dbpedia.org/resource/Lennart_Meri	President	0.193343462136	Politician	0.156095061481	Person	0.105766247842	PrimeMinister	0.101412487989	OfficeHolder	0.0959084915967	Agent	0.0818159844481	ArchitecturalStructure	0.0624529680372	Building	0.0624529680372	BroadcastNetwork	0.0607398693022	Country	0.0594522090228		GOLD_STANDARD:	Agent	Person	Politician	President
Blair_**_http://dbpedia.org/resource/Tony_Blair	Governor	0.407709446515	ArchitecturalStructure	0.208498023811	Building	0.208498023811	OfficeHolder	0.205868872287	Person	0.193542666505	Town	0.172717619499	Politician	0.166971804265	Agent	0.156470657646	Company	0.156054916741	PrimeMinister	0.146709202422		GOLD_STANDARD:	Agent	Person	OfficeHolder
LONDON_**_http://dbpedia.org/resource/London	Settlement	0.0992405676432	City	0.0708779107912	Governor	0.0706542972928	Company	0.0647352252984	PopulatedPlace	0.0565307042571	Place	0.056514987599	Region	0.0561408763012	AdministrativeRegion	0.0561408763012	ArchitecturalStructure	0.0553205215896	Building	0.0553205215896		GOLD_STANDARD:	Place	PopulatedPlace	Settlement
Theodore Roosevelt_**_http://dbpedia.org/resource/Theodore_Roosevelt	Governor	0.260220461796	OfficeHolder	0.232632340914	Person	0.202298120508	ArchitecturalStructure	0.17507380925	Building	0.17507380925	Agent	0.158686652347	Town	0.153270223668	Politician	0.137529264844	President	0.132066273642	Company	0.112743030009		GOLD_STANDARD:	Agent	Person	OfficeHolder
Sarajevo_**_http://dbpedia.org/resource/Sarajevo	Island	0.241537708224	City	0.191591446222	Country	0.154588073404	Settlement	0.144264093058	PopulatedPlace	0.12501266508	Place	0.123194371225	PrimeMinister	0.0898737855564	SocietalEvent	0.0751088600653	Event	0.0751088600653	MilitaryConflict	0.0751088600653		GOLD_STANDARD:	Place	PopulatedPlace	Settlement	City
Clinton_**_http://dbpedia.org/resource/Bill_Clinton	President	0.233123642894	OfficeHolder	0.221269764105	Governor	0.207992226616	Politician	0.202926993869	Person	0.199072303933	ArchitecturalStructure	0.180682197459	Building	0.180682197459	Agent	0.159213503008	TelevisionStation	0.108629192673	Company	0.108397100951		GOLD_STANDARD:	Agent	Person	Politician	President
Democrat_**_http://dbpedia.org/resource/Democratic_Party_(United_States)	PoliticalParty	0.348323525947	ArchitecturalStructure	0.237032438968	Building	0.237032438968	Organisation	0.233752747141	Governor	0.209521297393	OfficeHolder	0.194202533772	Agent	0.185725292787	Person	0.159528499503	Town	0.138755472499	Region	0.121009899774		GOLD_STANDARD:	Agent	Organisation	PoliticalParty
Maniema_**_http://dbpedia.org/resource/Maniema	President	0.128632790167	Politician	0.09775184877	Settlement	0.0676466462027	City	0.0676340319925	Country	0.0646665054825	SocietalEvent	0.0644586308344	Event	0.0644586308344	MilitaryConflict	0.0644586308344	MilitaryUnit	0.0596877830058	PrimeMinister	0.0557093696308		GOLD_STANDARD:	Place	PopulatedPlace	Settlement
Mr Clean_**_http://dbpedia.org/resource/Mr._Clean	MilitaryUnit	0.193923901862	ArchitecturalStructure	0.166515870983	Building	0.166515870983	Governor	0.157352327918	Company	0.156091434212	OfficeHolder	0.138826803103	Person	0.126122759591	Agent	0.114123326949	Politician	0.104829730894	Organisation	0.0928340109711		GOLD_STANDARD:	
Republican-led_**_http://dbpedia.org/resource/Republican_Party_(United_States)	Legislature	0.249204559449	PoliticalParty	0.2186818031	ArchitecturalStructure	0.203783658602	Building	0.203783658602	Organisation	0.17551763336	OfficeHolder	0.14020364702	GovernmentAgency	0.138660276449	Agent	0.133905689628	Person	0.111208265774	President	0.0857486616576		GOLD_STANDARD:	Agent	Organisation	PoliticalParty
Bandundu_**_http://dbpedia.org/resource/Bandundu	President	0.109147180805	Settlement	0.0907764351458	SocietalEvent	0.0893237514012	Event	0.0893237514012	MilitaryConflict	0.0893237514012	PoliticalParty	0.0873625517823	MilitaryUnit	0.0829798087409	Politician	0.0774320140679	City	0.076838635671	Country	0.0622587669218		GOLD_STANDARD:	
United Nations_**_http://dbpedia.org/resource/United_Nations	Legislature	0.173915558162	SocietalEvent	0.149096503255	Event	0.149096503255	MilitaryConflict	0.149096503255	Country	0.124289420166	Organisation	0.122622887248	MilitaryUnit	0.119550242868	BroadcastNetwork	0.117946471401	ArchitecturalStructure	0.115123897376	Building	0.115123897376		GOLD_STANDARD:	Place	PopulatedPlace	Country
Air Force_**_http://dbpedia.org/resource/United_States_Air_Force	SocietalEvent	0.264615411096	Event	0.264615411096	MilitaryConflict	0.264615411096	ArchitecturalStructure	0.0828243122398	Building	0.0828243122398	Organisation	0.0764850726662	Legislature	0.0740456186664	Company	0.0728783074599	BroadcastNetwork	0.0663417801642	PoliticalParty	0.0650275212385		GOLD_STANDARD:	Agent	Organisation	MilitaryUnit
South Kivu_**_http://dbpedia.org/resource/South_Kivu	SocietalEvent	0.15631428918	Event	0.15631428918	MilitaryConflict	0.15631428918	Settlement	0.108236997461	President	0.104614989311	PopulatedPlace	0.0966825286146	Place	0.0965060423419	Region	0.0944252887104	AdministrativeRegion	0.0944252887104	Company	0.0943116521751		GOLD_STANDARD:	Place	PopulatedPlace	Settlement
Bosnian Serb_**_http://dbpedia.org/resource/Republika_Srpska	Island	0.312255823864	Country	0.22767238896	City	0.176026791421	PopulatedPlace	0.152009978431	Place	0.150578513713	SocietalEvent	0.139248468752	Event	0.139248468752	MilitaryConflict	0.139248468752	Settlement	0.13137114758	PoliticalParty	0.0798740520941		GOLD_STANDARD:	Place	PopulatedPlace	Country
Cambridge_**_http://dbpedia.org/resource/Cambridge,_Massachusetts	Governor	0.116309351319	Region	0.0953398674573	AdministrativeRegion	0.0953398674573	ArchitecturalStructure	0.0850036825002	Building	0.0850036825002	Company	0.082605950707	City	0.0685122073363	SocietalEvent	0.0676689627385	Event	0.0676689627385	MilitaryConflict	0.0676689627385		GOLD_STANDARD:	Place	PopulatedPlace	Settlement	City
Croatian_**_http://dbpedia.org/resource/Croatia	Country	0.215930635337	Island	0.192056937242	City	0.155599543009	PopulatedPlace	0.138064411241	Place	0.136846773088	Settlement	0.108209885801	SocietalEvent	0.0888004577817	Event	0.0888004577817	MilitaryConflict	0.0888004577817	PoliticalParty	0.0848950283902		GOLD_STANDARD:	Place	PopulatedPlace	Country
United States_**_http://dbpedia.org/resource/United_States	ArchitecturalStructure	0.177102178464	Building	0.177102178464	Legislature	0.175355179548	Region	0.133230863257	AdministrativeRegion	0.133230863257	SocietalEvent	0.131696190037	Event	0.131696190037	MilitaryConflict	0.131696190037	GovernmentAgency	0.131653683152	MilitaryUnit	0.129475044921		GOLD_STANDARD:	Place	PopulatedPlace	Country
Kinshasa_**_http://dbpedia.org/resource/Kinshasa	President	0.145681164715	Politician	0.105432557804	Settlement	0.0834076363587	SocietalEvent	0.0800764980568	Event	0.0800764980568	MilitaryConflict	0.0800764980568	Country	0.0670966735391	City	0.0643746871561	MilitaryUnit	0.0625216491307	PopulatedPlace	0.0592784699679		GOLD_STANDARD:	Place	PopulatedPlace	Settlement	City
Miltiadis Evert_**_http://dbpedia.org/resource/Miltiadis_Evert	PrimeMinister	0.438915991965	Politician	0.156640542065	Governor	0.136781009432	President	0.127251286212	Person	0.110062404672	OfficeHolder	0.0938934667845	Agent	0.0914006096103	PoliticalParty	0.08595649609	Town	0.0724574951581	Country	0.0671002090132		GOLD_STANDARD:	Agent	Person	OfficeHolder
Pakistan_**_http://dbpedia.org/resource/Pakistan	SocietalEvent	0.105110669651	Event	0.105110669651	MilitaryConflict	0.105110669651	MilitaryUnit	0.0935324891232	Country	0.0869581626228	City	0.0744786465542	PopulatedPlace	0.073658541984	Place	0.073156324937	Organisation	0.0717007639874	PoliticalParty	0.0695220874886		GOLD_STANDARD:	Place	PopulatedPlace	Country
Bob Dole_**_http://dbpedia.org/resource/Bob_Dole	OfficeHolder	0.26984671725	Person	0.231021759777	Governor	0.201696080205	Town	0.195000774353	Agent	0.180770665412	Politician	0.179716730527	ArchitecturalStructure	0.171989743786	Building	0.171989743786	President	0.166526138947	PrimeMinister	0.141046465598		GOLD_STANDARD:	Agent	Person	OfficeHolder
CHICAGO_**_http://dbpedia.org/resource/Chicago	Settlement	0.112467519402	Region	0.0854365750543	AdministrativeRegion	0.0854365750543	TelevisionStation	0.0779510976384	Broadcaster	0.0743877216363	BroadcastNetwork	0.0726060336353	PopulatedPlace	0.066848406113	Place	0.0668383128517	ArchitecturalStructure	0.0660712249986	Building	0.0660712249986		GOLD_STANDARD:	Place	PopulatedPlace	Settlement	City
Bosnian_**_http://dbpedia.org/resource/Bosnia	Island	0.273787788442	Country	0.226658917141	City	0.178543588119	PopulatedPlace	0.154490086137	Place	0.153270677881	SocietalEvent	0.138167352679	Event	0.138167352679	MilitaryConflict	0.138167352679	Settlement	0.133029062075	TelevisionStation	0.0787494518935		GOLD_STANDARD:	
New York_**_http://dbpedia.org/resource/New_York_City	Governor	0.153705066335	City	0.153538421544	TelevisionStation	0.143380062469	Company	0.135534224221	Broadcaster	0.134778577373	Settlement	0.130557058466	BroadcastNetwork	0.130477834826	Region	0.117347572706	AdministrativeRegion	0.117347572706	ArchitecturalStructure	0.11168122504		GOLD_STANDARD:	Place	PopulatedPlace	Settlement	City
Sarah Brady_**_http://dbpedia.org/resource/Sarah_Brady	Governor	0.46887460183	Town	0.347583706241	OfficeHolder	0.279005998385	Person	0.249393524858	ArchitecturalStructure	0.20656951996	Building	0.20656951996	Agent	0.187648384939	Company	0.186005843383	Politician	0.165061972984	GovernmentAgency	0.119753129933		GOLD_STANDARD:	Agent	Person
Indiana_**_http://dbpedia.org/resource/Indiana	Region	0.236779864717	AdministrativeRegion	0.236779864717	Governor	0.230345358727	ArchitecturalStructure	0.118788754908	Building	0.118788754908	City	0.106639231708	Place	0.0966734188175	PopulatedPlace	0.0963824275531	OfficeHolder	0.0881938809679	Settlement	0.0846197062854		GOLD_STANDARD:	
interior ministry_**_http://dbpedia.org/resource/Interior_ministry	ArchitecturalStructure	0.103788691402	Building	0.103788691402	PrimeMinister	0.0970149311238	PoliticalParty	0.0951030558257	Legislature	0.0911153452563	Organisation	0.0889193063336	GovernmentAgency	0.0833853815681	SocietalEvent	0.0730688407392	Event	0.0730688407392	MilitaryConflict	0.0730688407392		GOLD_STANDARD:	Agent	Organisation
CNN_**_http://dbpedia.org/resource/CNN	BroadcastNetwork	0.491795203719	Broadcaster	0.491795203719	Company	0.273641136554	GovernmentAgency	0.182191693944	Island	0.115173559384	Organisation	0.0995950139829	SocietalEvent	0.0813114930879	Event	0.0813114930879	MilitaryConflict	0.0813114930879	PrimeMinister	0.0805919353965		GOLD_STANDARD:	
Republika Srpska_**_http://dbpedia.org/resource/Republika_Srpska	Island	0.180139375147	Country	0.152643290326	City	0.143742319433	Settlement	0.110714460801	PopulatedPlace	0.108576601607	Place	0.106807994521	SocietalEvent	0.078328525866	Event	0.078328525866	MilitaryConflict	0.078328525866	PrimeMinister	0.0741696028595		GOLD_STANDARD:	Place	PopulatedPlace	Country
Ronald Reagan_**_http://dbpedia.org/resource/Ronald_Reagan	OfficeHolder	0.24127395889	Person	0.212091487263	ArchitecturalStructure	0.19736773568	Building	0.19736773568	President	0.178162259451	Agent	0.176085407666	Governor	0.174558604974	Politician	0.165732717329	PoliticalParty	0.139289112174	Town	0.124933690597		GOLD_STANDARD:	Agent	Person	OfficeHolder
South Carolina_**_http://dbpedia.org/resource/Governor_of_South_Carolina	Region	0.233024578783	AdministrativeRegion	0.233024578783	Governor	0.179821244913	ArchitecturalStructure	0.177556426328	Building	0.177556426328	SocietalEvent	0.158780198472	Event	0.158780198472	MilitaryConflict	0.158780198472	Company	0.131702142485	Place	0.129398136028		GOLD_STANDARD:	Agent	Person
Scottish National Party_**_http://dbpedia.org/resource/Scottish_National_Party	PoliticalParty	0.409850329443	Organisation	0.289106356287	Legislature	0.262114144798	Governor	0.166284868533	ArchitecturalStructure	0.160092959627	Building	0.160092959627	Agent	0.153425128887	SocietalEvent	0.140654408481	Event	0.140654408481	MilitaryConflict	0.140654408481		GOLD_STANDARD:	Agent	Organisation	PoliticalParty
Al Gore_**_http://dbpedia.org/resource/Al_Gore	Governor	0.218054174777	OfficeHolder	0.194131024708	Island	0.182494112905	Person	0.172563064933	TelevisionStation	0.169306231308	Company	0.158608543509	Agent	0.141689924195	Town	0.139865946667	Politician	0.139788898846	President	0.133702581215		GOLD_STANDARD:	Agent	Person	OfficeHolder
Estonia_**_http://dbpedia.org/resource/Estonia	Country	0.124490862684	Island	0.0952866527472	SocietalEvent	0.088801791605	Event	0.088801791605	MilitaryConflict	0.088801791605	PopulatedPlace	0.0766343595794	Place	0.0757312567482	President	0.061978426363	PrimeMinister	0.0617237038416	Politician	0.0497684107385		GOLD_STANDARD:	Place	PopulatedPlace	Country
Superman_**_http://dbpedia.org/resource/Superman_(film)	GovernmentAgency	0.0782866219131	BroadcastNetwork	0.0728636107383	Broadcaster	0.053777809126	Person	0.0439073746528	Town	0.0434087837833	ArchitecturalStructure	0.0407451535272	Building	0.0407451535272	OfficeHolder	0.0393466999941	Island	0.0346499821672	Agent	0.0346337042235		GOLD_STANDARD:	
Labour_**_http://dbpedia.org/resource/Labour_Party_(UK)	PoliticalParty	0.422260380242	Organisation	0.279850127007	Legislature	0.14514276997	Agent	0.138703126604	PrimeMinister	0.125147725412	SocietalEvent	0.104816379608	Event	0.104816379608	MilitaryConflict	0.104816379608	Island	0.0858953335494	Country	0.0732807733098		GOLD_STANDARD:	Agent	Organisation	PoliticalParty
Christopher Reeve_**_http://dbpedia.org/resource/Christopher_Reeve	Governor	0.374752132145	Town	0.225693671405	OfficeHolder	0.210175290917	Person	0.203504671788	Company	0.191971617487	ArchitecturalStructure	0.155894245264	Building	0.155894245264	Agent	0.15346109147	Politician	0.128658409067	President	0.0879360647904		GOLD_STANDARD:	Agent	Person
Janet Reno_**_http://dbpedia.org/resource/Janet_Reno	Governor	0.329900005056	OfficeHolder	0.158725025314	Person	0.154140001803	ArchitecturalStructure	0.149327454512	Building	0.149327454512	Region	0.144942166087	AdministrativeRegion	0.144942166087	Politician	0.130789052656	Agent	0.119449227272	Town	0.111905541124		GOLD_STANDARD:	Agent	Person	OfficeHolder
French_**_http://dbpedia.org/resource/France	SocietalEvent	0.161969614722	Event	0.161969614722	MilitaryConflict	0.161969614722	Country	0.125945913027	PopulatedPlace	0.0837287528023	Place	0.083681943903	ArchitecturalStructure	0.0801244675547	Building	0.0801244675547	Governor	0.0784018111929	PoliticalParty	0.0744717390987		GOLD_STANDARD:	Place	PopulatedPlace	Country
Lamm_**_http://dbpedia.org/resource/Richard_Lamm	OfficeHolder	0.1563232979	Governor	0.153538995925	Person	0.140128670753	Agent	0.111548923744	Politician	0.110013788378	ArchitecturalStructure	0.0995922839562	Building	0.0995922839562	President	0.0994112486056	PrimeMinister	0.0894475162419	PoliticalParty	0.0840446779133		GOLD_STANDARD:	Agent	Person	OfficeHolder
Idriss Deby_**_http://dbpedia.org/resource/Idriss_Déby	PrimeMinister	0.190795200501	President	0.189658462948	Politician	0.160551863931	Person	0.086423758413	Company	0.0852850804651	OfficeHolder	0.0830678292729	ArchitecturalStructure	0.0766061185813	Building	0.0766061185813	Agent	0.0764448373147	Country	0.0660140968849		GOLD_STANDARD:	
Senegalese_**_http://dbpedia.org/resource/Senegal	Country	0.117327353335	PrimeMinister	0.0926058423532	President	0.0917364193344	Politician	0.0804827862156	SocietalEvent	0.0804576606448	Event	0.0804576606448	MilitaryConflict	0.0804576606448	PopulatedPlace	0.0742298492181	Place	0.0734287009541	PoliticalParty	0.0534181935358		GOLD_STANDARD:	Place	PopulatedPlace	Country
Democrats_**_http://dbpedia.org/resource/Democratic_Party_(United_States)	PoliticalParty	0.430739390208	Organisation	0.282676341424	Agent	0.163177716057	ArchitecturalStructure	0.139703332187	Building	0.139703332187	Legislature	0.120785038792	OfficeHolder	0.119286718958	GovernmentAgency	0.107236373476	Person	0.0979966476747	Town	0.0600685734774		GOLD_STANDARD:	Agent	Organisation	PoliticalParty
Roosevelts_**_http://dbpedia.org/resource/Roosevelt_family	ArchitecturalStructure	0.163718827133	Building	0.163718827133	OfficeHolder	0.125569248817	Governor	0.120925883679	Person	0.109444024355	Agent	0.095389659785	President	0.0911267956713	Company	0.0881541836024	GovernmentAgency	0.0868332862408	Politician	0.0837056932326		GOLD_STANDARD:	Agent	Person
Reform Party_**_http://dbpedia.org/resource/Reform_Party_of_the_United_States_of_America	PoliticalParty	0.498961237331	Organisation	0.343127082609	Legislature	0.257647907271	Agent	0.175462608869	ArchitecturalStructure	0.168443323869	Building	0.168443323869	SocietalEvent	0.142280160845	Event	0.142280160845	MilitaryConflict	0.142280160845	PrimeMinister	0.123397231403		GOLD_STANDARD:	Agent	Organisation	PoliticalParty
Vietnam War_**_http://dbpedia.org/resource/Vietnam_War	MilitaryUnit	0.264615411096	Island	0.145968660475	Country	0.115108464683	PoliticalParty	0.112421192759	Organisation	0.110470865857	Company	0.0991836914215	Legislature	0.0983095957419	GovernmentAgency	0.0909775362431	PopulatedPlace	0.0863704938437	Place	0.0860916742099		GOLD_STANDARD:	Event	SocietalEvent	MilitaryConflict
Susan Roosevelt Weld_**_http://dbpedia.org/resource/Susan_Roosevelt_Weld	Governor	0.35796963107	OfficeHolder	0.302521220632	Person	0.258474301127	ArchitecturalStructure	0.235253108371	Building	0.235253108371	Agent	0.206102043499	Town	0.204336379314	Politician	0.158547128861	Company	0.153157230709	President	0.144926456604		GOLD_STANDARD:	Agent	Person	OfficeHolder
WASHINGTON_**_http://dbpedia.org/resource/Washington,_D.C.	Settlement	0.118572769141	SocietalEvent	0.0964802877498	Event	0.0964802877498	MilitaryConflict	0.0964802877498	City	0.0886121853497	Region	0.0823039595743	AdministrativeRegion	0.0823039595743	PopulatedPlace	0.0745824796825	Place	0.0744677238935	ArchitecturalStructure	0.0657462839315		GOLD_STANDARD:	Place	PopulatedPlace	Settlement
Michigan City_**_http://dbpedia.org/resource/Michigan_City,_Indiana	Region	0.255831668903	AdministrativeRegion	0.255831668903	ArchitecturalStructure	0.200863152253	Building	0.200863152253	Governor	0.162628381618	City	0.140853052537	Settlement	0.136416075638	Place	0.131382558763	PopulatedPlace	0.130468340428	Company	0.122133545177		GOLD_STANDARD:	Place	PopulatedPlace	Settlement	City
Democratic Convention_**_http://dbpedia.org/resource/Democratic_National_Convention	PoliticalParty	0.419072672166	Organisation	0.296606142935	Legislature	0.225530421579	Agent	0.166135972159	SocietalEvent	0.153488785202	Event	0.153488785202	MilitaryConflict	0.153488785202	ArchitecturalStructure	0.123663682369	Building	0.123663682369	Governor	0.105009703129		GOLD_STANDARD:	
Calif_**_http://dbpedia.org/resource/California	MilitaryUnit	0.159873162888	City	0.0885669992661	Governor	0.0854059719525	Company	0.0831394098638	Settlement	0.0827877943042	Region	0.073485518277	AdministrativeRegion	0.073485518277	GovernmentAgency	0.0653482905317	BroadcastNetwork	0.0605433985951	Town	0.0594072312959		GOLD_STANDARD:	
Midwest_**_http://dbpedia.org/resource/Midwestern_United_States	Region	0.167181808407	AdministrativeRegion	0.167181808407	City	0.107673126099	Governor	0.105602921422	BroadcastNetwork	0.0956563604388	Settlement	0.0940004845351	Broadcaster	0.0939281603062	PopulatedPlace	0.0938120736048	Place	0.0936692260265	TelevisionStation	0.0904717600409		GOLD_STANDARD:	Place	PopulatedPlace
Medicare_**_http://dbpedia.org/resource/Medicare_(United_States)	GovernmentAgency	0.121341537996	PoliticalParty	0.108190155719	Organisation	0.100962364099	TelevisionStation	0.0960596745356	Broadcaster	0.0893221570636	BroadcastNetwork	0.0859533983276	Agent	0.0778697129228	ArchitecturalStructure	0.0772172249259	Building	0.0772172249259	SocietalEvent	0.0758459514664		GOLD_STANDARD:	Agent	Person
John Hinckley Jr_**_http://dbpedia.org/resource/John_Hinckley,_Jr.	Governor	0.37664847015	OfficeHolder	0.273974648763	Person	0.243919305898	ArchitecturalStructure	0.214899274402	Building	0.214899274402	Town	0.214268227248	Company	0.210614166035	Agent	0.188987037847	Politician	0.159079922794	President	0.124320799207		GOLD_STANDARD:	Agent	Person
Mexico_**_http://dbpedia.org/resource/Mexico	Legislature	0.184824054358	Region	0.131705933128	AdministrativeRegion	0.131705933128	Settlement	0.112738535889	PopulatedPlace	0.102674325548	Place	0.102114292977	Island	0.0994954217279	Country	0.0877251335107	City	0.0823873398538	SocietalEvent	0.06702371525		GOLD_STANDARD:	Place	PopulatedPlace	Country
