American_**_http://dbpedia.org/resource/United_States	Continent	0.199446296363	Country	0.144836015938	PoliticalParty	0.126041704461	Island	0.121745769485	Region	0.101066935031	AdministrativeRegion	0.101066935031	Place	0.100710179652	PopulatedPlace	0.100710179652	Organisation	0.0951475582409	Athlete	0.0875897130745		GOLD_STANDARD:	Place	PopulatedPlace	Country
New Zealand_**_http://dbpedia.org/resource/New_Zealand	Island	0.236180526477	Organisation	0.208641296679	Region	0.16042387547	AdministrativeRegion	0.16042387547	Country	0.136814216409	PoliticalParty	0.128473443863	OfficeHolder	0.121598554773	Company	0.109681931974	Place	0.106766501984	PopulatedPlace	0.106766501984		GOLD_STANDARD:	Place	PopulatedPlace	Country
PARIS_**_http://dbpedia.org/resource/Paris	City	0.141327842636	Settlement	0.135725220924	Continent	0.0757002910394	Place	0.0720353371793	PopulatedPlace	0.0720353371793	Company	0.0622396345022	Politician	0.0618616825412	PrimeMinister	0.0618616825412	Cleric	0.0572227491616	Saint	0.0572227491616		GOLD_STANDARD:	Place	PopulatedPlace	Settlement
Managua_**_http://dbpedia.org/resource/Managua	BeautyQueen	0.187649065921	MilitaryUnit	0.0974639021773	Country	0.0880704221172	Person	0.084342214649	Agent	0.0779427192406	Cleric	0.0770285319325	Saint	0.0770285319325	Settlement	0.0761370081463	Place	0.073805013918	PopulatedPlace	0.073805013918		GOLD_STANDARD:	Place	PopulatedPlace	Settlement
Miami Herald_**_http://dbpedia.org/resource/The_Miami_Herald	City	0.151724491965	Company	0.150610388636	Organisation	0.125125257484	Settlement	0.117405082628	BeautyQueen	0.11051178152	PoliticalParty	0.101963277559	Island	0.0964595496307	Place	0.0946733214417	PopulatedPlace	0.0946733214417	OfficeHolder	0.0880195236243		GOLD_STANDARD:	
China_**_http://dbpedia.org/resource/People's_Republic_of_China	Continent	0.153662138814	PoliticalParty	0.143274869736	Island	0.12329030127	Country	0.115134003429	Region	0.0968719454585	AdministrativeRegion	0.0968719454585	Organisation	0.0908451880358	Place	0.0863571599513	PopulatedPlace	0.0863571599513	Currency	0.0784909594065		GOLD_STANDARD:	
Italian_**_http://dbpedia.org/resource/Italy	Politician	0.436983982921	PrimeMinister	0.436983982921	Continent	0.212435723796	Country	0.181526101126	Region	0.157765902093	AdministrativeRegion	0.157765902093	Person	0.136484046325	Place	0.122046710922	PopulatedPlace	0.122046710922	Agent	0.104766844483		GOLD_STANDARD:	Place	PopulatedPlace	Country
Nigeria_**_http://dbpedia.org/resource/Nigeria	Country	0.129495498469	PoliticalParty	0.105915297574	OfficeHolder	0.0924735261653	Island	0.0847392508086	Place	0.0841378028483	PopulatedPlace	0.0841378028483	Organisation	0.0813645411085	Continent	0.0804571143748	Company	0.0785348534852	Region	0.0718099744968		GOLD_STANDARD:	Place	PopulatedPlace	Country
Macedonian_**_http://dbpedia.org/resource/Republic_of_Macedonia	PoliticalParty	0.128314751966	Continent	0.128030135183	Country	0.120167657208	Cleric	0.0972222873618	Saint	0.0972222873618	Place	0.081971587603	PopulatedPlace	0.081971587603	Organisation	0.0702333945333	Politician	0.0667470343485	PrimeMinister	0.0667470343485		GOLD_STANDARD:	Place	PopulatedPlace	Country
Northern League_**_http://dbpedia.org/resource/Lega_Nord	Island	0.253956244459	PoliticalParty	0.177034219423	Continent	0.150137596009	Country	0.113107692403	Organisation	0.106961917019	Region	0.0988896460337	AdministrativeRegion	0.0988896460337	Place	0.0899643711825	PopulatedPlace	0.0899643711825	Settlement	0.060264706097		GOLD_STANDARD:	Agent	Organisation	PoliticalParty
Canada_**_http://dbpedia.org/resource/Canada	Island	0.142709785949	Continent	0.140617469723	Country	0.135502377458	OfficeHolder	0.11230024382	Organisation	0.108849096686	Place	0.100501658337	PopulatedPlace	0.100501658337	Region	0.0995531103426	AdministrativeRegion	0.0995531103426	PoliticalParty	0.0896312533794		GOLD_STANDARD:	Place	PopulatedPlace	Country
Bossi_**_http://dbpedia.org/resource/Umberto_Bossi	Politician	0.877918927148	PrimeMinister	0.877918927148	Person	0.206004922071	BeautyQueen	0.160237020253	Athlete	0.138287675509	FormulaOneRacer	0.138287675509	MotorsportRacer	0.138287675509	RacingDriver	0.138287675509	Agent	0.133850079247	Region	0.0618022392955		GOLD_STANDARD:	Agent	Person	Politician	PrimeMinister
Nicaragua_**_http://dbpedia.org/resource/Nicaragua	Country	0.117342564639	BeautyQueen	0.103968602643	Region	0.09071291324	AdministrativeRegion	0.09071291324	MilitaryUnit	0.0885726239463	Place	0.0822469620866	PopulatedPlace	0.0822469620866	Island	0.0813145843161	Organisation	0.0706480067576	Cleric	0.0675375517224		GOLD_STANDARD:	Place	PopulatedPlace	Country
Australia_**_http://dbpedia.org/resource/Australia	Island	0.211609584369	Region	0.147488473989	AdministrativeRegion	0.147488473989	Country	0.12859456649	PoliticalParty	0.127514506446	Continent	0.123431382688	Organisation	0.11468369158	Place	0.0883572102492	PopulatedPlace	0.0883572102492	OfficeHolder	0.0696065125113		GOLD_STANDARD:	Place	PopulatedPlace	Country
Paris_**_http://dbpedia.org/resource/Paris	Continent	0.13605907671	Cleric	0.110863978506	Saint	0.110863978506	Country	0.0878333086944	Politician	0.0876361146216	PrimeMinister	0.0876361146216	Settlement	0.0873615841982	Place	0.0847943260435	PopulatedPlace	0.0847943260435	Athlete	0.0768467576605		GOLD_STANDARD:	Place	PopulatedPlace	Settlement
Limerick_**_http://dbpedia.org/resource/Limerick	Cleric	0.106280984967	Saint	0.106280984967	Island	0.106168838659	PoliticalParty	0.077320390927	Settlement	0.0647507798538	City	0.0633891272633	Place	0.0632716715238	PopulatedPlace	0.0632716715238	Region	0.0615758399615	AdministrativeRegion	0.0615758399615		GOLD_STANDARD:	Place	PopulatedPlace	Settlement	City
Philadelphia_**_http://dbpedia.org/resource/Philadelphia	Island	0.139589681983	City	0.133280414412	Cleric	0.116647800109	Saint	0.116647800109	Region	0.108236096032	AdministrativeRegion	0.108236096032	Settlement	0.102354860294	Continent	0.100477693806	PoliticalParty	0.0984137042362	Place	0.0915304316627		GOLD_STANDARD:	Place	PopulatedPlace	Settlement	City
Transcendental Meditation_**_http://dbpedia.org/resource/Transcendental_Meditation	Athlete	0.0756757498867	FormulaOneRacer	0.0756757498867	MotorsportRacer	0.0756757498867	RacingDriver	0.0756757498867	PoliticalParty	0.0695533010261	Continent	0.0685269774718	Organisation	0.0598881416296	Company	0.0569429730548	Agent	0.046343551163	Cleric	0.0422085098151		GOLD_STANDARD:	
Matagalpa_**_http://dbpedia.org/resource/Matagalpa	BeautyQueen	0.179319012801	Person	0.070020628598	Agent	0.0675925983195	Settlement	0.0637274909865	Cleric	0.0628882564675	Saint	0.0628882564675	Country	0.0586464174729	Place	0.053536376211	PopulatedPlace	0.053536376211	Region	0.0510445915044		GOLD_STANDARD:	Place	PopulatedPlace	Settlement
German_**_http://dbpedia.org/resource/Germany	Continent	0.218126608485	Country	0.163888792479	Athlete	0.140399451702	FormulaOneRacer	0.140399451702	MotorsportRacer	0.140399451702	RacingDriver	0.140399451702	PoliticalParty	0.101069655059	Place	0.0948041119927	PopulatedPlace	0.0948041119927	Politician	0.0840404611653		GOLD_STANDARD:	Place	PopulatedPlace	Country
Sardinia_**_http://dbpedia.org/resource/Sardinia	Region	0.192107834667	AdministrativeRegion	0.192107834667	Politician	0.189436182892	PrimeMinister	0.189436182892	Country	0.104815012681	Island	0.0993894747555	Cleric	0.0924458987013	Saint	0.0924458987013	Place	0.0911213730168	PopulatedPlace	0.0911213730168		GOLD_STANDARD:	
Ireland_**_http://dbpedia.org/resource/Republic_of_Ireland	PoliticalParty	0.194460193633	Continent	0.172891058636	Country	0.13421021022	Cleric	0.124597769554	Saint	0.124597769554	Organisation	0.120688270372	Island	0.114692426018	Place	0.0998195901573	PopulatedPlace	0.0998195901573	Region	0.085549772266		GOLD_STANDARD:	Place	PopulatedPlace	Country
US$_**_http://dbpedia.org/resource/United_States_dollar	OfficeHolder	0.0719492926988	Company	0.0718966829735	MilitaryUnit	0.0595219011389	Country	0.0394622271126	Organisation	0.0357950436321	Continent	0.0305807249955	Place	0.0300580433126	PopulatedPlace	0.0300580433126	Settlement	0.0274149736191	Village	0.0273390145911		GOLD_STANDARD:	Currency
Roberto Benigni_**_http://dbpedia.org/resource/Roberto_Benigni	Politician	0.411918946585	PrimeMinister	0.411918946585	BeautyQueen	0.340548445859	Person	0.220552205739	Agent	0.142796129888	Athlete	0.141863278913	FormulaOneRacer	0.141863278913	MotorsportRacer	0.141863278913	RacingDriver	0.141863278913	OfficeHolder	0.103121908807		GOLD_STANDARD:	Agent	Person
Las Vegas_**_http://dbpedia.org/resource/Las_Vegas,_Nevada	City	0.136562141236	Settlement	0.0952719154572	BeautyQueen	0.0920634241035	Island	0.0816609762613	OfficeHolder	0.0765965947607	Region	0.0736079044928	AdministrativeRegion	0.0736079044928	Place	0.067633686051	PopulatedPlace	0.067633686051	Cleric	0.0637343237493		GOLD_STANDARD:	
Highland_**_http://dbpedia.org/resource/Scottish_Highlands	Island	0.182540856115	PoliticalParty	0.116481426725	City	0.103241842511	Settlement	0.0902702686019	Village	0.0846930467938	Place	0.0782786238025	PopulatedPlace	0.0782786238025	Region	0.0739586298309	AdministrativeRegion	0.0739586298309	Organisation	0.0731754259276		GOLD_STANDARD:	Place	PopulatedPlace	Settlement
PHILADELPHIA_**_http://dbpedia.org/resource/Philadelphia	City	0.164844031273	Settlement	0.145771528638	Island	0.0711148230895	Place	0.0682403468641	PopulatedPlace	0.0682403468641	Athlete	0.0487376301002	FormulaOneRacer	0.0487376301002	MotorsportRacer	0.0487376301002	RacingDriver	0.0487376301002	Company	0.0486076404311		GOLD_STANDARD:	Place	PopulatedPlace	Settlement	City
Puerto Rico_**_http://dbpedia.org/resource/Puerto_Rico	BeautyQueen	0.158942251505	Country	0.135318871939	Region	0.118709165102	AdministrativeRegion	0.118709165102	Island	0.0985178067935	Place	0.0982041265184	PopulatedPlace	0.0982041265184	Cleric	0.0968879295852	Saint	0.0968879295852	City	0.0738886774118		GOLD_STANDARD:	Place	PopulatedPlace	Country
Italians_**_http://dbpedia.org/resource/Italy	Politician	0.221039312933	PrimeMinister	0.221039312933	Continent	0.111119958651	Country	0.106117925749	Region	0.102377016075	AdministrativeRegion	0.102377016075	MilitaryUnit	0.0904994988216	Cleric	0.0858957959651	Saint	0.0858957959651	Person	0.0818589601385		GOLD_STANDARD:	Place	PopulatedPlace	Country
Perth_**_http://dbpedia.org/resource/Perth,_Western_Australia	Village	0.133625912973	Island	0.133301350832	Region	0.101081486854	AdministrativeRegion	0.101081486854	City	0.0862193940398	Place	0.0823729266403	PopulatedPlace	0.0823729266403	Settlement	0.0813779720734	Country	0.0779778616804	PoliticalParty	0.0716554585342		GOLD_STANDARD:	
Santa Claus_**_http://dbpedia.org/resource/Santa_Claus	Cleric	0.220854449418	Saint	0.220854449418	BeautyQueen	0.192715209305	Athlete	0.154713561964	FormulaOneRacer	0.154713561964	MotorsportRacer	0.154713561964	RacingDriver	0.154713561964	Agent	0.140588931301	Person	0.129149254806	OfficeHolder	0.10766969238		GOLD_STANDARD:	Agent
Vancouver_**_http://dbpedia.org/resource/Vancouver	Island	0.198072132429	Village	0.178918557952	OfficeHolder	0.131088965466	City	0.0956078039866	Country	0.0906978810735	Place	0.0849167721544	PopulatedPlace	0.0849167721544	Settlement	0.0794104296353	Region	0.0620091278027	AdministrativeRegion	0.0620091278027		GOLD_STANDARD:	Place	PopulatedPlace	Settlement	City
North Island_**_http://dbpedia.org/resource/North_Island	PoliticalParty	0.201754052493	Region	0.150821955098	AdministrativeRegion	0.150821955098	Organisation	0.1253789796	Cleric	0.114065837215	Saint	0.114065837215	Village	0.113380836436	City	0.107203098375	Country	0.105713058176	Place	0.103448381659		GOLD_STANDARD:	
Schumacher_**_http://dbpedia.org/resource/Michael_Schumacher	Athlete	0.866289560074	FormulaOneRacer	0.866289560074	MotorsportRacer	0.866289560074	RacingDriver	0.866289560074	Person	0.186210311973	BeautyQueen	0.145299140492	Politician	0.125496046248	PrimeMinister	0.125496046248	OfficeHolder	0.124374681876	Agent	0.122364085828		GOLD_STANDARD:	Agent	Person	Athlete	MotorsportRacer	RacingDriver	FormulaOneRacer
Scotland_**_http://dbpedia.org/resource/Scotland	Island	0.160450816171	PoliticalParty	0.12666539065	Continent	0.112471005007	Country	0.110209912044	Place	0.0916749690753	PopulatedPlace	0.0916749690753	Organisation	0.0895034760659	Cleric	0.0814343809517	Saint	0.0814343809517	Company	0.0780131461957		GOLD_STANDARD:	Place	PopulatedPlace
Saint Nicholas_**_http://dbpedia.org/resource/Saint_Nicholas	Athlete	0.169017739592	FormulaOneRacer	0.169017739592	MotorsportRacer	0.169017739592	RacingDriver	0.169017739592	BeautyQueen	0.114270023845	Island	0.114065837215	Person	0.10899843464	OfficeHolder	0.108277158641	Agent	0.102516278262	Region	0.0846210047218		GOLD_STANDARD:	Agent	Person	Cleric	Saint
Italy_**_http://dbpedia.org/resource/Italy	Politician	0.27581964797	PrimeMinister	0.27581964797	Region	0.229582572291	AdministrativeRegion	0.229582572291	Continent	0.197434473597	Country	0.159823089864	Place	0.136809832755	PopulatedPlace	0.136809832755	Island	0.0968881075194	Person	0.0915234083492		GOLD_STANDARD:	Place	PopulatedPlace	Country
Las Cruces_**_http://dbpedia.org/resource/Las_Cruces,_New_Mexico	BeautyQueen	0.128664594104	City	0.0987372633508	Region	0.0936987345212	AdministrativeRegion	0.0936987345212	Settlement	0.0838428744125	Island	0.0803685923568	Agent	0.0705804477778	Cleric	0.0640903978267	Saint	0.0640903978267	Place	0.0623348597065		GOLD_STANDARD:	Place	PopulatedPlace	Settlement	City
Ohio_**_http://dbpedia.org/resource/Ohio	Island	0.149982110948	City	0.112624086069	Region	0.100009726613	AdministrativeRegion	0.100009726613	PoliticalParty	0.0909154066688	Settlement	0.0825509451886	Place	0.0747814931573	PopulatedPlace	0.0747814931573	Continent	0.0735947919033	Organisation	0.0713183684893		GOLD_STANDARD:	
Alicia Machado_**_http://dbpedia.org/resource/Alicia_Machado	BeautyQueen	0.810523273338	Person	0.293632719442	Politician	0.21532901194	PrimeMinister	0.21532901194	Agent	0.209293192967	Athlete	0.182034127702	FormulaOneRacer	0.182034127702	MotorsportRacer	0.182034127702	RacingDriver	0.182034127702	OfficeHolder	0.141209350964		GOLD_STANDARD:	Agent	Person	BeautyQueen
Spanish_**_http://dbpedia.org/resource/Spain	BeautyQueen	0.191388343853	Country	0.165779976555	Continent	0.148536980662	Politician	0.110416028158	PrimeMinister	0.110416028158	Place	0.104620914483	PopulatedPlace	0.104620914483	Island	0.0960064723375	Region	0.0926190765807	AdministrativeRegion	0.0926190765807		GOLD_STANDARD:	Place	PopulatedPlace	Country
Florence_**_http://dbpedia.org/resource/Florence	Politician	0.167852494846	PrimeMinister	0.167852494846	Cleric	0.161513439871	Saint	0.161513439871	Village	0.153846351266	OfficeHolder	0.138775727774	Region	0.136195574315	AdministrativeRegion	0.136195574315	BeautyQueen	0.125634927353	Continent	0.115820032267		GOLD_STANDARD:	Place	PopulatedPlace	Settlement
Venezuela_**_http://dbpedia.org/resource/Venezuela	BeautyQueen	0.153495456525	Country	0.122878676382	Region	0.0936838154154	AdministrativeRegion	0.0936838154154	Place	0.0851880344186	PopulatedPlace	0.0851880344186	Organisation	0.0790873317693	Continent	0.0788849535168	Agent	0.0691047356757	OfficeHolder	0.0678375700654		GOLD_STANDARD:	Place	PopulatedPlace	Country
Utah_**_http://dbpedia.org/resource/Utah	Region	0.131606715895	AdministrativeRegion	0.131606715895	Island	0.128252752506	PoliticalParty	0.0933444871551	City	0.0825605142681	Cleric	0.0769642690779	Saint	0.0769642690779	Organisation	0.0692751486936	Place	0.0653076301119	PopulatedPlace	0.0653076301119		GOLD_STANDARD:	
Inverness_**_http://dbpedia.org/resource/Inverness	Island	0.146684963047	PoliticalParty	0.0963897246257	Settlement	0.0689320119378	Village	0.0684162820733	Place	0.0664307127081	PopulatedPlace	0.0664307127081	City	0.0660190696808	OfficeHolder	0.0619211524402	Region	0.0485951495883	AdministrativeRegion	0.0485951495883		GOLD_STANDARD:	Place	PopulatedPlace	Settlement
European_**_http://dbpedia.org/resource/Europe	PoliticalParty	0.165454186849	Country	0.14012199571	Organisation	0.0901826367011	Region	0.0899722031893	AdministrativeRegion	0.0899722031893	Place	0.0883749109891	PopulatedPlace	0.0883749109891	Island	0.0786914154808	Company	0.0578360082738	Cleric	0.0529725639987		GOLD_STANDARD:	Place	PopulatedPlace	Continent
New Mexico_**_http://dbpedia.org/resource/New_Mexico	Island	0.204864410931	Organisation	0.161646103967	Country	0.155012955862	PoliticalParty	0.139425520503	Region	0.124591573069	AdministrativeRegion	0.124591573069	Place	0.121675544163	PopulatedPlace	0.121675544163	City	0.10919446097	Settlement	0.101023342744		GOLD_STANDARD:	
Los Angeles_**_http://dbpedia.org/resource/Los_Angeles	City	0.156767630692	Settlement	0.117415109518	Region	0.0950867801902	AdministrativeRegion	0.0950867801902	BeautyQueen	0.0895458361029	Place	0.0873091304577	PopulatedPlace	0.0873091304577	OfficeHolder	0.0851522107721	PoliticalParty	0.0836576471902	Company	0.0788199117285		GOLD_STANDARD:	Place	PopulatedPlace	Settlement	City
Hintsa_**_http://dbpedia.org/resource/Hintsa_kaKhawuta	OfficeHolder	0.169181014196	Politician	0.0839961910235	PrimeMinister	0.0839961910235	MilitaryUnit	0.0792445230222	Person	0.0608767203892	Cleric	0.0492544639985	Saint	0.0492544639985	Country	0.0491684458951	Village	0.0483293906836	Settlement	0.045439562225		GOLD_STANDARD:	Agent	Person
South African_**_http://dbpedia.org/resource/South_Africa	Island	0.370690392003	Continent	0.253644211737	OfficeHolder	0.244722719137	PoliticalParty	0.199131017435	Country	0.184078996485	Organisation	0.148827455029	Place	0.137247654757	PopulatedPlace	0.137247654757	Region	0.133966649601	AdministrativeRegion	0.133966649601		GOLD_STANDARD:	Place	PopulatedPlace	Country
Nepal_**_http://dbpedia.org/resource/Nepal	PoliticalParty	0.127775924866	Country	0.110428678866	Organisation	0.0879046717794	Place	0.0747289830153	PopulatedPlace	0.0747289830153	Continent	0.0743962713111	OfficeHolder	0.0711153075572	Region	0.0610370711584	AdministrativeRegion	0.0610370711584	City	0.0577755558939		GOLD_STANDARD:	Place	PopulatedPlace	Country
Germany_**_http://dbpedia.org/resource/Germany	Continent	0.199708178521	Country	0.131888934963	PoliticalParty	0.114078515673	Athlete	0.111792302915	FormulaOneRacer	0.111792302915	MotorsportRacer	0.111792302915	RacingDriver	0.111792302915	Region	0.0905439748104	AdministrativeRegion	0.0905439748104	Place	0.0889767631098		GOLD_STANDARD:	Place	PopulatedPlace	Country
British Columbia_**_http://dbpedia.org/resource/British_Columbia	Island	0.234825282159	Village	0.22021916154	PoliticalParty	0.15085125407	Country	0.14991042777	Continent	0.142073980699	Place	0.115101617775	PopulatedPlace	0.115101617775	Organisation	0.114763055073	Region	0.113295359249	AdministrativeRegion	0.113295359249		GOLD_STANDARD:	Place	PopulatedPlace
Nelson Mandela_**_http://dbpedia.org/resource/Nelson_Mandela	Athlete	0.141201780746	FormulaOneRacer	0.141201780746	MotorsportRacer	0.141201780746	RacingDriver	0.141201780746	BeautyQueen	0.12319885853	Person	0.116198883853	Cleric	0.108277158641	Saint	0.108277158641	Village	0.107061861569	Island	0.100351517343		GOLD_STANDARD:	Agent	Person	OfficeHolder
Etruria_**_http://dbpedia.org/resource/Etruria	Politician	0.157895986569	PrimeMinister	0.157895986569	Region	0.126562813917	AdministrativeRegion	0.126562813917	Place	0.0578988105732	PopulatedPlace	0.0578988105732	OfficeHolder	0.0577538724768	Person	0.0544865395828	Country	0.0498842437648	Settlement	0.0456662306655		GOLD_STANDARD:	Place	PopulatedPlace
Puerto Rican_**_http://dbpedia.org/resource/Puerto_Rico	BeautyQueen	0.184381100076	Country	0.147274347409	Region	0.100687896515	AdministrativeRegion	0.100687896515	Place	0.0986964109522	PopulatedPlace	0.0986964109522	Person	0.0803778416056	Continent	0.0792439331422	Cleric	0.0790825398417	Saint	0.0790825398417		GOLD_STANDARD:	Place	PopulatedPlace	Country
Pemberton_**_http://dbpedia.org/resource/Pemberton,_British_Columbia	Island	0.113380836436	OfficeHolder	0.107061861569	Athlete	0.106742173586	FormulaOneRacer	0.106742173586	MotorsportRacer	0.106742173586	RacingDriver	0.106742173586	BeautyQueen	0.100236573196	City	0.0823808067322	Cleric	0.0820724376851	Saint	0.0820724376851		GOLD_STANDARD:	
Los Angeles-based_**_http://dbpedia.org/resource/Los_Angeles	City	0.145136369891	BeautyQueen	0.119063877528	Settlement	0.103283095947	Company	0.0877699884083	Place	0.0851451602125	PopulatedPlace	0.0851451602125	Agent	0.0831166967825	OfficeHolder	0.0827173189788	Country	0.0802578341822	Athlete	0.07845989552		GOLD_STANDARD:	Place	PopulatedPlace	Settlement	City
Marines_**_http://dbpedia.org/resource/United_States_Marine_Corps	Company	0.0790150324897	Currency	0.0595219011389	Village	0.0575550353146	Country	0.0429836402181	Island	0.0412119786337	City	0.0356800175558	Place	0.0341965337597	PopulatedPlace	0.0341965337597	Organisation	0.0338986919874	Settlement	0.0314945172848		GOLD_STANDARD:	Agent	Organisation	MilitaryUnit
Rome_**_http://dbpedia.org/resource/Rome	Politician	0.236396646922	PrimeMinister	0.236396646922	Cleric	0.192947326281	Saint	0.192947326281	Region	0.146629083565	AdministrativeRegion	0.146629083565	Continent	0.118773747565	Country	0.109498384312	Place	0.107993171003	PopulatedPlace	0.107993171003		GOLD_STANDARD:	Place	PopulatedPlace	Settlement
Chinese_**_http://dbpedia.org/resource/People's_Republic_of_China	Country	0.143927711897	Continent	0.136708474986	PoliticalParty	0.136383050845	Island	0.101106597866	Organisation	0.0936065893308	Currency	0.0900071482726	Place	0.0899663003464	PopulatedPlace	0.0899663003464	Region	0.0590444371045	AdministrativeRegion	0.0590444371045		GOLD_STANDARD:	
Berovo_**_http://dbpedia.org/resource/Berovo	Cleric	0.137032272632	Saint	0.137032272632	Country	0.0622480537363	Place	0.0573663463599	PopulatedPlace	0.0573663463599	Settlement	0.0563771067052	City	0.0524255534143	Island	0.0505959011047	Region	0.0477656982853	AdministrativeRegion	0.0477656982853		GOLD_STANDARD:	Place	PopulatedPlace	Settlement
Fort Lauderdale_**_http://dbpedia.org/resource/Fort_Lauderdale,_Florida	Island	0.188929011475	OfficeHolder	0.132069813759	Village	0.128694157905	Cleric	0.119878032583	Saint	0.119878032583	City	0.117186396267	Settlement	0.0964895334902	PoliticalParty	0.0857039917677	Region	0.0728103173046	AdministrativeRegion	0.0728103173046		GOLD_STANDARD:	Place	PopulatedPlace	Settlement	City
Scottish_**_http://dbpedia.org/resource/Scotland	Continent	0.151804404346	PoliticalParty	0.149962806786	Country	0.126435807715	Place	0.0918385797493	PopulatedPlace	0.0918385797493	Island	0.0915344647653	Organisation	0.0815303962704	OfficeHolder	0.0664825816573	Village	0.0635904640805	Region	0.0634735440207		GOLD_STANDARD:	Place	PopulatedPlace
Spain_**_http://dbpedia.org/resource/Spain	Continent	0.161738753995	Region	0.153531909274	AdministrativeRegion	0.153531909274	Country	0.15231126675	Island	0.114421816603	Place	0.111806553697	PopulatedPlace	0.111806553697	BeautyQueen	0.10529341936	Organisation	0.0726062916088	PoliticalParty	0.0688025625041		GOLD_STANDARD:	Place	PopulatedPlace	Country
Formula One Grand Prix_**_http://dbpedia.org/resource/Formula_One	Athlete	0.231838738584	FormulaOneRacer	0.231838738584	MotorsportRacer	0.231838738584	RacingDriver	0.231838738584	Continent	0.15142638101	Island	0.140699499748	PoliticalParty	0.12703517267	Person	0.0955838701935	Agent	0.0892535153702	Organisation	0.0824026981205		GOLD_STANDARD:	
Cyprus_**_http://dbpedia.org/resource/Cyprus	Continent	0.207028295018	PoliticalParty	0.136180484297	Country	0.127254437602	Region	0.119771901989	AdministrativeRegion	0.119771901989	Organisation	0.105197246646	Cleric	0.102279234401	Saint	0.102279234401	Place	0.0894121282949	PopulatedPlace	0.0894121282949		GOLD_STANDARD:	Place	PopulatedPlace	Country
Himalayan_**_http://dbpedia.org/resource/Himalaya_Kingdom	Continent	0.129230537121	PoliticalParty	0.0916396110286	Island	0.0733842302216	Country	0.0700922267049	Organisation	0.0581583665192	Company	0.0550021578143	Place	0.0524642096496	PopulatedPlace	0.0524642096496	Region	0.0458393236396	AdministrativeRegion	0.0458393236396		GOLD_STANDARD:	
Umberto Bossi_**_http://dbpedia.org/resource/Umberto_Bossi	Politician	0.877918927148	PrimeMinister	0.877918927148	Person	0.232363975989	BeautyQueen	0.216023337335	Agent	0.150249678909	Athlete	0.136933578733	FormulaOneRacer	0.136933578733	MotorsportRacer	0.136933578733	RacingDriver	0.136933578733	Region	0.0779278996798		GOLD_STANDARD:	Agent	Person	Politician	PrimeMinister
New Zealand Press Association_**_http://dbpedia.org/resource/New_Zealand_Press_Association	Island	0.271613494679	PoliticalParty	0.244938313623	Continent	0.187499270633	Country	0.172890511232	Region	0.166845603928	AdministrativeRegion	0.166845603928	Company	0.166575855587	Organisation	0.150020578279	Place	0.131678606359	PopulatedPlace	0.131678606359		GOLD_STANDARD:	Agent	Organisation
Wen Hui Bao_**_http://dbpedia.org/resource/Wen_Hui_Bao	BeautyQueen	0.138552321661	Village	0.10091924986	Person	0.0935653493176	Athlete	0.0888966911698	FormulaOneRacer	0.0888966911698	MotorsportRacer	0.0888966911698	RacingDriver	0.0888966911698	OfficeHolder	0.0737923366536	Agent	0.0735466235241	PoliticalParty	0.0727145600122		GOLD_STANDARD:	
Irish_**_http://dbpedia.org/resource/Republic_of_Ireland	Continent	0.157469195451	Country	0.148046377778	PoliticalParty	0.116867473519	Place	0.106735614686	PopulatedPlace	0.106735614686	Island	0.099587861143	Village	0.0944824297037	Region	0.0876478360787	AdministrativeRegion	0.0876478360787	Organisation	0.0796109575456		GOLD_STANDARD:	Place	PopulatedPlace	Country
Canadian_**_http://dbpedia.org/resource/Canada	Continent	0.179293579264	Country	0.146820399559	MilitaryUnit	0.11179366892	PoliticalParty	0.094269341906	Place	0.0935583233352	PopulatedPlace	0.0935583233352	Organisation	0.0912888332371	Region	0.0848738544094	AdministrativeRegion	0.0848738544094	Village	0.0750243923341		GOLD_STANDARD:	Place	PopulatedPlace	Country
Uyo_**_http://dbpedia.org/resource/Uyo	PoliticalParty	0.0880750304066	Island	0.0839361694468	OfficeHolder	0.0805379118304	Cleric	0.0766884170115	Saint	0.0766884170115	Country	0.0675691150692	Settlement	0.0563202891053	Place	0.0549219833903	PopulatedPlace	0.0549219833903	Currency	0.0498009527243		GOLD_STANDARD:	Place	PopulatedPlace	Settlement
APPLETON_**_http://dbpedia.org/resource/Appleton,_Wisconsin	BeautyQueen	0.118621340774	City	0.11136134642	Settlement	0.111035249614	Person	0.05149761028	Place	0.0478609114977	PopulatedPlace	0.0478609114977	MilitaryUnit	0.0432986671621	Politician	0.0432840131792	PrimeMinister	0.0432840131792	Agent	0.0428220498743		GOLD_STANDARD:	Place	PopulatedPlace	Settlement	City
Sandusky_**_http://dbpedia.org/resource/Sandusky,_Ohio	Village	0.128398053074	Region	0.107029224072	AdministrativeRegion	0.107029224072	OfficeHolder	0.0916011102367	City	0.0901745707455	Island	0.0839080124179	Cleric	0.0731860650158	Saint	0.0731860650158	Settlement	0.0721108897315	MilitaryUnit	0.0650370760493		GOLD_STANDARD:	Place	PopulatedPlace	Settlement	City
MIAMI_**_http://dbpedia.org/resource/Miami	City	0.138529779424	Settlement	0.119573349402	Politician	0.066652022615	PrimeMinister	0.066652022615	Place	0.0579510338332	PopulatedPlace	0.0579510338332	BeautyQueen	0.0561971104464	Company	0.0479521834696	OfficeHolder	0.0366611193316	Organisation	0.0365797130537		GOLD_STANDARD:	Place	PopulatedPlace	Settlement	City
Reuters_**_http://dbpedia.org/resource/Reuters	MilitaryUnit	0.0790150324897	Organisation	0.0740597220622	Currency	0.0718966829735	Continent	0.0578360082738	Country	0.0481422233042	PoliticalParty	0.0464329325919	OfficeHolder	0.0415722487327	BeautyQueen	0.0409544709546	Agent	0.0362649290192	Place	0.0337000087525		GOLD_STANDARD:	Agent	Organisation	Company
Belgian_**_http://dbpedia.org/resource/Belgium	Continent	0.195554629424	Country	0.149050713942	Politician	0.10675812895	PrimeMinister	0.10675812895	Place	0.0898080029546	PopulatedPlace	0.0898080029546	Cleric	0.0712043122093	Saint	0.0712043122093	PoliticalParty	0.0654611073917	Island	0.0635480081481		GOLD_STANDARD:	Place	PopulatedPlace	Country
Nicaraguan_**_http://dbpedia.org/resource/Nicaragua	BeautyQueen	0.184199762836	Country	0.145559592936	MilitaryUnit	0.120208861369	Person	0.0944867927326	Place	0.0918089072495	PopulatedPlace	0.0918089072495	Agent	0.0854842237556	Island	0.0830094969306	Currency	0.0791320361422	OfficeHolder	0.0738454143125		GOLD_STANDARD:	Place	PopulatedPlace	Country
Alaska_**_http://dbpedia.org/resource/Alaska	Island	0.2406471298	Village	0.125098139977	Region	0.105601682505	AdministrativeRegion	0.105601682505	PoliticalParty	0.084777099774	City	0.0622389303225	Place	0.0616335334613	PopulatedPlace	0.0616335334613	Organisation	0.0607165445943	Country	0.058494059955		GOLD_STANDARD:	
CHARLESTON_**_http://dbpedia.org/resource/Charleston,_South_Carolina	City	0.152951521758	Settlement	0.135254431204	Place	0.0640230244019	PopulatedPlace	0.0640230244019	Politician	0.0540800487721	PrimeMinister	0.0540800487721	Cleric	0.0511192595879	Saint	0.0511192595879	Island	0.049634520592	Company	0.0437661558849		GOLD_STANDARD:	Place	PopulatedPlace	Settlement	City
Orvieto_**_http://dbpedia.org/resource/Orvieto	Politician	0.3027570797	PrimeMinister	0.3027570797	Region	0.132987620888	AdministrativeRegion	0.132987620888	Cleric	0.127488945393	Saint	0.127488945393	Person	0.100600431562	Agent	0.0738351674144	BeautyQueen	0.0634915727926	Place	0.058527055259		GOLD_STANDARD:	Place	PopulatedPlace	Settlement
Australian_**_http://dbpedia.org/resource/Australia	Continent	0.164181723105	Region	0.160719371716	AdministrativeRegion	0.160719371716	Country	0.150909605483	Island	0.12104719582	Village	0.111175176872	Place	0.10161332503	PopulatedPlace	0.10161332503	Organisation	0.0987689587552	PoliticalParty	0.0875792478802		GOLD_STANDARD:	Place	PopulatedPlace	Country
Xhosa_**_http://dbpedia.org/resource/Xhosa	OfficeHolder	0.247238030284	Country	0.0728347788479	Person	0.0518457855185	Place	0.0502511920471	PopulatedPlace	0.0502511920471	PoliticalParty	0.038571643619	Continent	0.0370433314704	Settlement	0.0347310679444	Agent	0.0328253600164	MilitaryUnit	0.0294952780664		GOLD_STANDARD:	
Tianjin_**_http://dbpedia.org/resource/Tianjin	Currency	0.142858995454	PoliticalParty	0.122141987227	Continent	0.0845723875042	Settlement	0.0629511333256	Organisation	0.0603344348364	Country	0.0592676215284	Island	0.056702677554	Place	0.0563208121163	PopulatedPlace	0.0563208121163	City	0.0544141970503		GOLD_STANDARD:	Place	PopulatedPlace	Settlement
Nepali_**_http://dbpedia.org/resource/Nepal	Country	0.0997062565569	PoliticalParty	0.0807739859499	Place	0.0682018545332	PopulatedPlace	0.0682018545332	City	0.0617176376822	Currency	0.0568636136232	Company	0.0556233904601	Organisation	0.0544137692545	OfficeHolder	0.0527824241251	Settlement	0.050149063682		GOLD_STANDARD:	Place	PopulatedPlace	Country
John Hagelin_**_http://dbpedia.org/resource/John_Hagelin	Cleric	0.19296167872	Saint	0.19296167872	Athlete	0.188537476595	FormulaOneRacer	0.188537476595	MotorsportRacer	0.188537476595	RacingDriver	0.188537476595	OfficeHolder	0.139389095233	Person	0.12346353256	Village	0.11906206823	Politician	0.104144375304		GOLD_STANDARD:	Agent	Person
Yugoslavia_**_http://dbpedia.org/resource/Yugoslavia	Continent	0.149622766381	Country	0.122130868332	PoliticalParty	0.0928396997283	Place	0.0783383519688	PopulatedPlace	0.0783383519688	Region	0.0760134612294	AdministrativeRegion	0.0760134612294	Politician	0.0504391502359	PrimeMinister	0.0504391502359	Organisation	0.0485481727352		GOLD_STANDARD:	Place	PopulatedPlace
Miss Universe_**_http://dbpedia.org/resource/Miss_Universe	BeautyQueen	0.0652948429562	OfficeHolder	0.0603429638483	PoliticalParty	0.0541881374089	Village	0.0502165337712	Country	0.0490453073765	Organisation	0.048828259647	MilitaryUnit	0.0438746085143	Agent	0.0423032996724	Region	0.0361004660478	AdministrativeRegion	0.0361004660478		GOLD_STANDARD:	Agent	Organisation
Santa_**_http://dbpedia.org/resource/Santa_Claus	BeautyQueen	0.212762394697	Cleric	0.210883940399	Saint	0.210883940399	Agent	0.130953660935	Island	0.125534908167	Person	0.107945092092	Region	0.0977899438097	AdministrativeRegion	0.0977899438097	Settlement	0.0880724132715	City	0.0877741932118		GOLD_STANDARD:	Agent
Whittier_**_http://dbpedia.org/resource/Whittier,_Alaska	Village	0.1284010942	Island	0.109245213202	Athlete	0.109193994415	FormulaOneRacer	0.109193994415	MotorsportRacer	0.109193994415	RacingDriver	0.109193994415	City	0.101852953922	OfficeHolder	0.0936579218681	Region	0.0786017671527	AdministrativeRegion	0.0786017671527		GOLD_STANDARD:	Place	PopulatedPlace	Settlement	City
Tauranga_**_http://dbpedia.org/resource/Tauranga	OfficeHolder	0.163991514764	Island	0.11589843213	Organisation	0.0872909701928	Village	0.0800318239456	Region	0.0608970406365	AdministrativeRegion	0.0608970406365	Settlement	0.0577254181343	Place	0.0535575067869	PopulatedPlace	0.0535575067869	City	0.0529713005099		GOLD_STANDARD:	Place	PopulatedPlace	Settlement
Pembroke Pines_**_http://dbpedia.org/resource/Pembroke_Pines,_Florida	Island	0.269816337674	Village	0.169727310276	Cleric	0.151384542799	Saint	0.151384542799	City	0.115351176372	PoliticalParty	0.108451597876	Settlement	0.104569752122	OfficeHolder	0.0831741062071	Region	0.0803952523715	AdministrativeRegion	0.0803952523715		GOLD_STANDARD:	Place	PopulatedPlace	Settlement	City
Natural Law Party_**_http://dbpedia.org/resource/Natural_Law_Party_(United_States)	Continent	0.180770777689	PoliticalParty	0.177034219423	Island	0.149551860527	Organisation	0.104675917845	Cleric	0.0991874422242	Saint	0.0991874422242	Country	0.084330682107	Region	0.0822391101014	AdministrativeRegion	0.0822391101014	Agent	0.0810234432545		GOLD_STANDARD:	Agent	Organisation	PoliticalParty
Spa-Francorchamps_**_http://dbpedia.org/resource/Circuit_de_Spa-Francorchamps	Athlete	0.185928925032	FormulaOneRacer	0.185928925032	MotorsportRacer	0.185928925032	RacingDriver	0.185928925032	Continent	0.0662167558636	Person	0.0561632151922	BeautyQueen	0.051858892621	Agent	0.039020787555	MilitaryUnit	0.0373664739295	Country	0.0347131955629		GOLD_STANDARD:	Place	PopulatedPlace
SHANGHAI_**_http://dbpedia.org/resource/Shanghai	City	0.148896596228	Settlement	0.135676744239	Athlete	0.0781926526324	FormulaOneRacer	0.0781926526324	MotorsportRacer	0.0781926526324	RacingDriver	0.0781926526324	Company	0.0739971269245	Place	0.0728864835558	PopulatedPlace	0.0728864835558	Politician	0.0659005717664		GOLD_STANDARD:	Place	PopulatedPlace	Settlement
Etruscan_**_http://dbpedia.org/resource/Etruria	Politician	0.119122408753	PrimeMinister	0.119122408753	Region	0.0875019098503	AdministrativeRegion	0.0875019098503	Continent	0.0805029883512	Place	0.0480696253249	PopulatedPlace	0.0480696253249	Country	0.0478841597053	OfficeHolder	0.0447603724627	Person	0.0428678154873		GOLD_STANDARD:	Place	PopulatedPlace
Prince William Sound_**_http://dbpedia.org/resource/Prince_William_Sound	Island	0.252556810468	Cleric	0.216656355668	Saint	0.216656355668	Village	0.19853872747	Athlete	0.196312480942	FormulaOneRacer	0.196312480942	MotorsportRacer	0.196312480942	RacingDriver	0.196312480942	OfficeHolder	0.171981124967	Person	0.143595480526		GOLD_STANDARD:	Place	PopulatedPlace
British_**_http://dbpedia.org/resource/United_Kingdom	Continent	0.19134452527	Island	0.178116655232	Village	0.154613753649	Country	0.154586605962	Place	0.106253878399	PopulatedPlace	0.106253878399	Cleric	0.105277921702	Saint	0.105277921702	PoliticalParty	0.102845274105	Organisation	0.0882167012226		GOLD_STANDARD:	Place	PopulatedPlace	Country
Charleston_**_http://dbpedia.org/resource/Charleston,_South_Carolina	Island	0.302093072513	Village	0.155782787399	City	0.13839580066	OfficeHolder	0.116052821978	Settlement	0.106852102524	Region	0.106548697192	AdministrativeRegion	0.106548697192	Cleric	0.0979287824391	Saint	0.0979287824391	PoliticalParty	0.0902316776319		GOLD_STANDARD:	Place	PopulatedPlace	Settlement	City
Prince Rupert_**_http://dbpedia.org/resource/Prince_Rupert,_British_Columbia	Cleric	0.205151619863	Saint	0.205151619863	OfficeHolder	0.196187743372	Athlete	0.174784251667	FormulaOneRacer	0.174784251667	MotorsportRacer	0.174784251667	RacingDriver	0.174784251667	Village	0.157567337468	Person	0.136651089928	Island	0.130100761593		GOLD_STANDARD:	Place	PopulatedPlace	Settlement	City
Machado_**_http://dbpedia.org/resource/Alicia_Machado	BeautyQueen	0.566245554579	Person	0.21673531453	Politician	0.176132577556	PrimeMinister	0.176132577556	Agent	0.159316029397	OfficeHolder	0.129327396168	Athlete	0.126602946144	FormulaOneRacer	0.126602946144	MotorsportRacer	0.126602946144	RacingDriver	0.126602946144		GOLD_STANDARD:	Agent	Person	BeautyQueen
Skopje_**_http://dbpedia.org/resource/Skopje	Continent	0.151258271034	Country	0.0854091056759	PoliticalParty	0.0825895120357	Place	0.0739576360056	PopulatedPlace	0.0739576360056	Cleric	0.0673684905262	Saint	0.0673684905262	Settlement	0.0651507074015	Politician	0.0585366627116	PrimeMinister	0.0585366627116		GOLD_STANDARD:	Place	PopulatedPlace	Settlement	City
Cape Town_**_http://dbpedia.org/resource/Cape_Town	Island	0.272366342309	OfficeHolder	0.185454058637	PoliticalParty	0.170298731885	Cleric	0.100628444306	Saint	0.100628444306	Region	0.0976208146133	AdministrativeRegion	0.0976208146133	Village	0.0944131201497	Organisation	0.0889097432237	City	0.0875536670095		GOLD_STANDARD:	Place	PopulatedPlace	Settlement
Michael Schumacher_**_http://dbpedia.org/resource/Michael_Schumacher	Athlete	0.866289560074	FormulaOneRacer	0.866289560074	MotorsportRacer	0.866289560074	RacingDriver	0.866289560074	Person	0.226643746437	Cleric	0.222143858987	Saint	0.222143858987	BeautyQueen	0.173343684104	OfficeHolder	0.158028879617	Agent	0.157695482832		GOLD_STANDARD:	Agent	Person	Athlete	MotorsportRacer	RacingDriver	FormulaOneRacer
Nigerian_**_http://dbpedia.org/resource/Nigeria	Country	0.149862475334	Continent	0.128487018377	OfficeHolder	0.122169190186	Company	0.0924528626913	Place	0.0922114887568	PopulatedPlace	0.0922114887568	PoliticalParty	0.0898366264371	Organisation	0.0840131484173	Region	0.063923794509	AdministrativeRegion	0.063923794509		GOLD_STANDARD:	Place	PopulatedPlace	Country
El Nuevo Diario_**_http://dbpedia.org/resource/El_Nuevo_Diario	BeautyQueen	0.246691216577	Person	0.109998141317	Agent	0.102016199708	Settlement	0.0975018467062	City	0.0934417554533	Region	0.0904023004136	AdministrativeRegion	0.0904023004136	Place	0.0834464613226	PopulatedPlace	0.0834464613226	Company	0.0818438057066		GOLD_STANDARD:	
Kathmandu_**_http://dbpedia.org/resource/Kathmandu	Country	0.090859295138	OfficeHolder	0.0832503702339	Continent	0.0746919253977	Place	0.0697191710436	PopulatedPlace	0.0697191710436	PoliticalParty	0.0644954545225	Organisation	0.0639273266901	Cleric	0.0627422027531	Saint	0.0627422027531	Settlement	0.0614413921235		GOLD_STANDARD:	Place	PopulatedPlace	Settlement	City
Vietnamese_**_http://dbpedia.org/resource/Vietnam	MilitaryUnit	0.263839352589	Country	0.123288444119	Island	0.114989134063	Organisation	0.0972603612211	Continent	0.0966502713521	Company	0.0819298811064	Place	0.0731001926785	PopulatedPlace	0.0731001926785	PoliticalParty	0.0677375835041	Currency	0.0629846021423		GOLD_STANDARD:	Place	PopulatedPlace	Country
Belga_**_http://dbpedia.org/resource/Belga_(news_agency)	BeautyQueen	0.187960794566	Politician	0.122414337993	PrimeMinister	0.122414337993	Person	0.107691038151	Agent	0.091473950409	Company	0.0901059359872	Cleric	0.0830687594547	Saint	0.0830687594547	Athlete	0.076206849752	FormulaOneRacer	0.076206849752		GOLD_STANDARD:	
South Africa_**_http://dbpedia.org/resource/South_Africa	Island	0.370530363433	OfficeHolder	0.223658301481	PoliticalParty	0.179529999526	Country	0.17099171865	Continent	0.168100347237	Region	0.153412253997	AdministrativeRegion	0.153412253997	Organisation	0.13659300239	Place	0.130320280553	PopulatedPlace	0.130320280553		GOLD_STANDARD:	Place	PopulatedPlace	Country
French_**_http://dbpedia.org/resource/France	Continent	0.167946752751	Country	0.158442857777	Cleric	0.143644352481	Saint	0.143644352481	Politician	0.119987774513	PrimeMinister	0.119987774513	Place	0.0965454829643	PopulatedPlace	0.0965454829643	PoliticalParty	0.0937494147619	Island	0.0777378067425		GOLD_STANDARD:	Place	PopulatedPlace	Country
AIDS_**_http://dbpedia.org/resource/AIDS	OfficeHolder	0.169927899614	Athlete	0.0907801650874	FormulaOneRacer	0.0907801650874	MotorsportRacer	0.0907801650874	RacingDriver	0.0907801650874	Company	0.0825175623059	PoliticalParty	0.0743671449571	Organisation	0.0605423632262	Agent	0.0570161421562	BeautyQueen	0.0566949593883		GOLD_STANDARD:	
Hanover_**_http://dbpedia.org/resource/Hanover	Village	0.152204971529	Island	0.130372477881	Athlete	0.111128915046	FormulaOneRacer	0.111128915046	MotorsportRacer	0.111128915046	RacingDriver	0.111128915046	Cleric	0.10007982496	Saint	0.10007982496	City	0.0990631077874	Settlement	0.0953929240952		GOLD_STANDARD:	Place	PopulatedPlace	Settlement	City
Tonga_**_http://dbpedia.org/resource/Tonga	Cleric	0.0909097106291	Saint	0.0909097106291	Country	0.0856677577763	Island	0.0814503418225	Organisation	0.0794951530247	OfficeHolder	0.0779952118691	PoliticalParty	0.0762486728268	Region	0.0756063471701	AdministrativeRegion	0.0756063471701	Place	0.0663264730599		GOLD_STANDARD:	Place	PopulatedPlace	Country
Umbria_**_http://dbpedia.org/resource/Umbria	Politician	0.221233900104	PrimeMinister	0.221233900104	Cleric	0.123199158721	Saint	0.123199158721	Region	0.122739207186	AdministrativeRegion	0.122739207186	Person	0.0785633628883	Place	0.0766359671575	PopulatedPlace	0.0766359671575	Country	0.0692547283129		GOLD_STANDARD:	
Alicia_**_http://dbpedia.org/resource/Alicia_Machado	BeautyQueen	0.558409002292	Person	0.225072777523	Politician	0.172928946886	PrimeMinister	0.172928946886	Athlete	0.169327163048	FormulaOneRacer	0.169327163048	MotorsportRacer	0.169327163048	RacingDriver	0.169327163048	Agent	0.160103699567	Cleric	0.123944440424		GOLD_STANDARD:	Agent	Person	BeautyQueen
WASHINGTON_**_http://dbpedia.org/resource/Washington,_D.C.	City	0.158447753865	Settlement	0.126526233536	Place	0.0641328071983	PopulatedPlace	0.0641328071983	OfficeHolder	0.0529029124654	MilitaryUnit	0.0477865471106	Cleric	0.0416836571369	Saint	0.0416836571369	Organisation	0.0380141817135	Company	0.0375040870779		GOLD_STANDARD:	Place	PopulatedPlace	Settlement
Macedonia_**_http://dbpedia.org/resource/Republic_of_Macedonia	Continent	0.135340790361	PoliticalParty	0.103925721742	Country	0.103834032265	Region	0.0869816879153	AdministrativeRegion	0.0869816879153	Place	0.0802306690543	PopulatedPlace	0.0802306690543	Cleric	0.0798480832754	Saint	0.0798480832754	Organisation	0.0611369313895		GOLD_STANDARD:	Place	PopulatedPlace	Country
Corsica_**_http://dbpedia.org/resource/Corsica	Region	0.189139203251	AdministrativeRegion	0.189139203251	Island	0.115706579425	Continent	0.106674954084	Country	0.101851342621	Cleric	0.100009678531	Saint	0.100009678531	Politician	0.0834438796849	PrimeMinister	0.0834438796849	Place	0.0820150255756		GOLD_STANDARD:	
Western Australian_**_http://dbpedia.org/resource/Western_Australia	Island	0.219885326652	Continent	0.217079166756	PoliticalParty	0.185884378606	Country	0.181824579687	Organisation	0.135044674967	Village	0.129558792555	Place	0.122269822193	PopulatedPlace	0.122269822193	Region	0.102729695805	AdministrativeRegion	0.102729695805		GOLD_STANDARD:	
