British_**_http://dbpedia.org/resource/United_Kingdom	Country	0.113393742176	Judge	0.0992690732391	Newspaper	0.0987514621477	PeriodicalLiterature	0.0987514621477	Work	0.0987514621477	WrittenWork	0.0987514621477	OfficeHolder	0.0735667162743	Person	0.0630007231719	AdministrativeRegion	0.0586646925744	Region	0.0586646925744		GOLD_STANDARD:	Place	PopulatedPlace	Country
Massachusetts_**_http://dbpedia.org/resource/Massachusetts	AdministrativeRegion	0.160430166414	Region	0.160430166414	Judge	0.127245859733	OfficeHolder	0.126768958712	PopulatedPlace	0.12102889289	Place	0.12102889289	Settlement	0.114849394675	WrittenWork	0.114351197326	Newspaper	0.114351197326	PeriodicalLiterature	0.114351197326		GOLD_STANDARD:	
Schering AG_**_http://dbpedia.org/resource/Schering_AG	TradeUnion	0.254445396568	Organisation	0.217383593483	Company	0.180321790398	Agent	0.124166384718	OfficeHolder	0.0878293151487	Judge	0.0848471778673	Person	0.077557780335	Country	0.0629908275186	Newspaper	0.0508928631248	PeriodicalLiterature	0.0508928631248		GOLD_STANDARD:	Agent	Organisation	Company
California_**_http://dbpedia.org/resource/California	Region	0.182857627994	AdministrativeRegion	0.182857627994	Newspaper	0.120545609635	PeriodicalLiterature	0.120545609635	Work	0.120545609635	WrittenWork	0.120545609635	PopulatedPlace	0.104296369434	Place	0.104296369434	Country	0.0994242044016	OfficeHolder	0.0991911641737		GOLD_STANDARD:	
BOSTON_**_http://dbpedia.org/resource/Boston	Settlement	0.389309885124	City	0.389309885124	PopulatedPlace	0.227708515552	Place	0.227708515552	Newspaper	0.110041118934	PeriodicalLiterature	0.110041118934	Work	0.110041118934	WrittenWork	0.110041118934	Region	0.0826268207635	AdministrativeRegion	0.0826268207635		GOLD_STANDARD:	Place	PopulatedPlace	Settlement
New York Times_**_http://dbpedia.org/resource/The_New_York_Times	Newspaper	0.2550110222	PeriodicalLiterature	0.2550110222	Work	0.2550110222	WrittenWork	0.2550110222	City	0.158204558666	OfficeHolder	0.154725280008	Settlement	0.151878785382	Judge	0.139506975754	PopulatedPlace	0.135399510506	Place	0.135399510506		GOLD_STANDARD:	Work	WrittenWork	PeriodicalLiterature	Newspaper
Jakarta Post_**_http://dbpedia.org/resource/The_Jakarta_Post	WrittenWork	0.2550110222	Newspaper	0.2550110222	PeriodicalLiterature	0.2550110222	Work	0.2550110222	Country	0.254449168051	PopulatedPlace	0.131630177769	Place	0.131630177769	Settlement	0.107754249856	City	0.107078590482	Region	0.0872677908828		GOLD_STANDARD:	Work	WrittenWork	PeriodicalLiterature	Newspaper
Chiron_**_http://dbpedia.org/resource/Chiron_Corporation	Company	0.180321790398	Organisation	0.106827371001	Agent	0.0786174332027	OfficeHolder	0.0750655740125	Person	0.0645124643034	Judge	0.060193056544	City	0.0353034921549	Settlement	0.0339929658168	TradeUnion	0.0333329516042	PopulatedPlace	0.0204967092389		GOLD_STANDARD:	Agent	Organisation	Company
Minneapolis_**_http://dbpedia.org/resource/Minneapolis	Region	0.240405682204	AdministrativeRegion	0.240405682204	PopulatedPlace	0.147503969651	Place	0.147503969651	WrittenWork	0.141607969376	Newspaper	0.141607969376	PeriodicalLiterature	0.141607969376	Work	0.141607969376	City	0.141154291767	Settlement	0.138653602535		GOLD_STANDARD:	Place	PopulatedPlace	Settlement	City
Indonesia_**_http://dbpedia.org/resource/Indonesia	WrittenWork	0.300697747391	Newspaper	0.300697747391	PeriodicalLiterature	0.300697747391	Work	0.300697747391	Country	0.0746185652649	Settlement	0.0555313402669	TradeUnion	0.0519103064834	PopulatedPlace	0.0497887070655	Place	0.0497887070655	City	0.0497264260605		GOLD_STANDARD:	Place	PopulatedPlace	Country
Mark Wolf_**_http://dbpedia.org/resource/Mark_Lawrence_Wolf	Judge	0.307302330737	OfficeHolder	0.256578234953	Person	0.203401267806	Agent	0.162220391594	Company	0.146191649793	WrittenWork	0.125361633021	Newspaper	0.125361633021	PeriodicalLiterature	0.125361633021	Work	0.125361633021	Organisation	0.107312556644		GOLD_STANDARD:	
Norton_**_http://dbpedia.org/resource/Gale_Norton	OfficeHolder	0.775522813647	Person	0.359462079275	Judge	0.258311570913	Agent	0.208563405967	Newspaper	0.0838691304387	PeriodicalLiterature	0.0838691304387	Work	0.0838691304387	WrittenWork	0.0838691304387	AdministrativeRegion	0.0799439157421	Region	0.0799439157421		GOLD_STANDARD:	Agent	Person	OfficeHolder
Gale Norton_**_http://dbpedia.org/resource/Gale_Norton	OfficeHolder	0.775522813647	Person	0.386485867308	Judge	0.347007938487	Agent	0.230048409828	Region	0.108116439719	AdministrativeRegion	0.108116439719	Newspaper	0.105713542005	PeriodicalLiterature	0.105713542005	Work	0.105713542005	WrittenWork	0.105713542005		GOLD_STANDARD:	Agent	Person	OfficeHolder
United States_**_http://dbpedia.org/resource/United_States	WrittenWork	0.157730505682	Newspaper	0.157730505682	PeriodicalLiterature	0.157730505682	Work	0.157730505682	AdministrativeRegion	0.134798406454	Region	0.134798406454	Country	0.123647350777	TradeUnion	0.106189026817	PopulatedPlace	0.101973175395	Place	0.101973175395		GOLD_STANDARD:	Place	PopulatedPlace	Country
Wolf_**_http://dbpedia.org/resource/Mark_Lawrence_Wolf	OfficeHolder	0.164731396491	Judge	0.160085601886	Company	0.138727887548	Person	0.121437690862	Agent	0.109896571314	Organisation	0.0945084119172	Newspaper	0.0927460557998	PeriodicalLiterature	0.0927460557998	Work	0.0927460557998	WrittenWork	0.0927460557998		GOLD_STANDARD:	
Bank Indonesia_**_http://dbpedia.org/resource/Bank_Indonesia	Country	0.332548359365	Newspaper	0.320420853301	PeriodicalLiterature	0.320420853301	Work	0.320420853301	WrittenWork	0.320420853301	PopulatedPlace	0.115276355076	Place	0.115276355076	Company	0.090086483392	Organisation	0.0861004507579	TradeUnion	0.0781283854897		GOLD_STANDARD:	
John Bissell_**_http://dbpedia.org/resource/John_Winslow_Bissell	OfficeHolder	0.3026597547	Person	0.210687461948	Agent	0.130797656397	Newspaper	0.111947007739	PeriodicalLiterature	0.111947007739	Work	0.111947007739	WrittenWork	0.111947007739	Region	0.10282700992	AdministrativeRegion	0.10282700992	City	0.0840302416822		GOLD_STANDARD:	Agent	Person	Judge
Biogen_**_http://dbpedia.org/resource/Biogen_Idec	TradeUnion	0.315183770061	Organisation	0.303880672501	Company	0.298229123721	Agent	0.178823125129	Person	0.0850299645998	City	0.0745208934359	OfficeHolder	0.0742233305583	Settlement	0.0742055376245	Judge	0.0701777480794	PopulatedPlace	0.0639219527769		GOLD_STANDARD:	
Newark_**_http://dbpedia.org/resource/Newark,_New_Jersey	Newspaper	0.190545345381	PeriodicalLiterature	0.190545345381	Work	0.190545345381	WrittenWork	0.190545345381	AdministrativeRegion	0.146623410362	Region	0.146623410362	Judge	0.142692474305	City	0.132665963916	Settlement	0.122216543702	PopulatedPlace	0.120597533705		GOLD_STANDARD:	Place	PopulatedPlace	Settlement	City
Colorado_**_http://dbpedia.org/resource/Colorado	Region	0.180312000792	AdministrativeRegion	0.180312000792	Judge	0.117931391649	PopulatedPlace	0.101535840103	Place	0.101535840103	WrittenWork	0.0885381512594	Newspaper	0.0885381512594	PeriodicalLiterature	0.0885381512594	Work	0.0885381512594	Country	0.0867455750092		GOLD_STANDARD:	
ELIZABETH_**_http://dbpedia.org/resource/Elizabeth,_New_Jersey	Settlement	0.350104538323	City	0.315584370342	PopulatedPlace	0.188828569818	Place	0.188828569818	WrittenWork	0.10524346936	Newspaper	0.10524346936	PeriodicalLiterature	0.10524346936	Work	0.10524346936	Judge	0.0892085031956	OfficeHolder	0.0480166703269		GOLD_STANDARD:	Place	PopulatedPlace	Settlement	City
Fourth Circuit_**_http://dbpedia.org/resource/United_States_Court_of_Appeals_for_the_Fourth_Circuit	Judge	0.125103050245	OfficeHolder	0.106874602129	Person	0.0907993078627	Newspaper	0.0749312184182	PeriodicalLiterature	0.0749312184182	Work	0.0749312184182	WrittenWork	0.0749312184182	Agent	0.072969249981	AdministrativeRegion	0.0713014803137	Region	0.0713014803137		GOLD_STANDARD:	
JACKSONVILLE_**_http://dbpedia.org/resource/Jacksonville,_Florida	Settlement	0.363905825086	City	0.322633046787	PopulatedPlace	0.203611229594	Place	0.203611229594	AdministrativeRegion	0.0655144818113	Region	0.0655144818113	Company	0.0501162821122	WrittenWork	0.048257224496	Newspaper	0.048257224496	PeriodicalLiterature	0.048257224496		GOLD_STANDARD:	Place	PopulatedPlace	Settlement	City
NEW YORK_**_http://dbpedia.org/resource/New_York_City	Settlement	0.373167801539	City	0.326521328798	PopulatedPlace	0.211374167169	Place	0.211374167169	WrittenWork	0.19421042208	Newspaper	0.19421042208	PeriodicalLiterature	0.19421042208	Work	0.19421042208	Judge	0.0887427344329	Person	0.0586130076183		GOLD_STANDARD:	Place	PopulatedPlace	Settlement	City
Minn_**_http://dbpedia.org/resource/Minnesota	City	0.143360405777	Settlement	0.137161997809	Judge	0.111558666152	PopulatedPlace	0.10045649602	Place	0.10045649602	Person	0.0972270207727	Region	0.0948389004964	AdministrativeRegion	0.0948389004964	Newspaper	0.0835758476649	PeriodicalLiterature	0.0835758476649		GOLD_STANDARD:	
Brush Wellman_**_http://dbpedia.org/resource/Brush_Engineered_Materials	Judge	0.304466084525	OfficeHolder	0.292589741671	Person	0.228812620281	Agent	0.161634858805	Region	0.135126209057	AdministrativeRegion	0.135126209057	Company	0.0960795953033	Newspaper	0.092773231863	PeriodicalLiterature	0.092773231863	Work	0.092773231863		GOLD_STANDARD:	
FDA_**_http://dbpedia.org/resource/FDA_(trade_union)	Company	0.143889174086	Organisation	0.143889174086	Agent	0.108834343293	Person	0.0913069278959	Country	0.060552923195	Newspaper	0.0565009089867	PeriodicalLiterature	0.0565009089867	Work	0.0565009089867	WrittenWork	0.0565009089867	AdministrativeRegion	0.0479795078196		GOLD_STANDARD:	
Baltimore_**_http://dbpedia.org/resource/Baltimore	AdministrativeRegion	0.159637534764	Region	0.159637534764	Newspaper	0.156464145913	PeriodicalLiterature	0.156464145913	Work	0.156464145913	WrittenWork	0.156464145913	City	0.138481734027	Settlement	0.130676756149	PopulatedPlace	0.122702224629	Place	0.122702224629		GOLD_STANDARD:	Place	PopulatedPlace	Settlement	City
Medicare_**_http://dbpedia.org/resource/Medicare_(United_States)	TradeUnion	0.289507116755	Organisation	0.128986027525	Agent	0.082529943679	Region	0.0561571281261	AdministrativeRegion	0.0561571281261	Company	0.04872548291	Newspaper	0.0418762242313	PeriodicalLiterature	0.0418762242313	Work	0.0418762242313	WrittenWork	0.0418762242313		GOLD_STANDARD:	Agent	Person
CLEVELAND_**_http://dbpedia.org/resource/Cleveland	Settlement	0.400472155345	City	0.361161158178	PopulatedPlace	0.221786314585	Place	0.221786314585	WrittenWork	0.0921624454128	Newspaper	0.0921624454128	PeriodicalLiterature	0.0921624454128	Work	0.0921624454128	Judge	0.078397724754	OfficeHolder	0.0716289487841		GOLD_STANDARD:	Place	PopulatedPlace	Settlement	City
GMT_**_http://dbpedia.org/resource/Greenwich_Mean_Time	WrittenWork	0.0701885549207	Newspaper	0.0701885549207	PeriodicalLiterature	0.0701885549207	Work	0.0701885549207	Settlement	0.0622324351532	City	0.0558449368715	PopulatedPlace	0.0476234277455	Place	0.0476234277455	Country	0.0454383188614	OfficeHolder	0.0294603736137		GOLD_STANDARD:	
